"","CITY","STABBR","ZIP","LONGITUDE","LATITUDE","INSTNM","TUITFTE","INEXPFTE","AVGFACSAL","faminc","COSTT4_A","COSTT4_P","TUITIONFEE_IN","TUITIONFEE_OUT","TUITIONFEE_PROG","NPT4_PUB","NPT4_PRIV","HIGHDEG","PREDDEG","sch_deg","CONTROL","RELAFFIL","HBCU","PBI","ANNHI","TRIBAL","AANAPII","HSI","NANTI","ADM_RATE_ALL","ADM_RATE","SATMT75","ACTMT75","UGDS","female","married","pct_white","pct_black","pct_asian","pct_hispanic","pct_born_us","poverty_rate","DEBT_MDN","GRAD_DEBT_MDN","CDR3"
"1171","Freeport","IL","61032-9341",-89.6736,42.2833,"Highland Community College",2602,7363,8096,30104.33,"10024","NULL","3159","5031","NULL","5535","NULL",2,2,"2",1,"NULL","0","0","0","0","0","0","0","NULL","NULL","NULL","NULL","1698","0.6700000166893",0.17000000178813,90.5899963378906,"6.28000020980835","0.62000000476837","2.19000005722045","97.5","6.71999979019165",5500,"8991.5",24.1
"6228","Beaverton","OR","97005",-122.8066,45.4898,"Anthem College-Portland",6562,959,NA,28269.13,"26812","NULL","11847","11847","NULL","NULL","22911",1,1,"1",3,"NULL","0","0","0","0","0","0","0","NULL","NULL","NULL","NULL","232","0.87000000476837",0.2199999988079,71.9899978637695,"20.7399997711181","2.52999997138977","4.55000019073486","93.4300003051757","9.52000045776367",9342,"10813",14.5
"3574","Malvern","PA","19355-1488",-75.5213,40.0528,"Pennsylvania State University-Penn State Great Valley",14281,10369,11938,81964.64,"NULL","NULL","NULL","NULL","NULL","NULL","NULL",4,4,"3",1,"NULL","0","0","0","0","0","0","0","0.6488","NULL","NULL","NULL","NULL","0.47999998927116",0.05000000074505,87.5999984741211,"7.34000015258789","2.23000001907348","3.47000002861023","93.4300003051757","6.78999996185302",21500,"27000",7.7
"4858","Dallas","TX","75247-4720",-96.8763,32.8201,"PCI Health Training Center",8247,1735,NA,21089.6,"NULL","22162","NULL","NULL","14459","NULL","17026",1,1,"1",3,"NULL","0","0","0","0","0","0","0","NULL","NULL","NULL","NULL","521","0.93000000715255",0.28000000119209,55.3600006103515,"23.7299995422363","3.24000000953674","29.329999923706","80.4800033569336","12.4200000762939",5981,"6333",19.3
"2541","Wayne","NJ","07470",-74.1995,40.9463,"William Paterson University of New Jersey",9726,10404,10225,71005.62,"21990","NULL","11918","19458","NULL","15927","NULL",4,3,"3",1,"NULL","0","0","0","0","0","0","0","0.6811","0.6811","560","NULL","9930","0.56000000238418",0.03999999910593,71.9899978637695,"12.0900001525878","5.67999982833862","16.3500003814697","76.8199996948242","6.59000015258789",18750,"25382",9.4
"2526","Trenton","NJ","08629-1986",-74.7419,40.2165,"Saint Francis Medical Center School of Nursing",3519,10756,NA,NA,"NULL","NULL","NULL","NULL","NULL","NULL","NULL",1,1,"1",2,"30","0","0","0","0","0","0","0","0.5","0.5","NULL","NULL","56","PrivacySuppressed",NA,NA,"PrivacySuppressed","PrivacySuppressed","PrivacySuppressed","PrivacySuppressed","PrivacySuppressed",3750,"NULL",0
"2891","Elizabeth City","NC","27906-2327",-76.2196,36.3248,"College of the Albemarle",1116,5803,4996,18045.82,"11908","NULL","2037","7489","NULL","6355","NULL",2,2,"2",1,"NULL","0","0","0","0","0","0","0","NULL","NULL","NULL","NULL","2147","0.77999997138977",0.23999999463558,66.0400009155273,"31.3899993896484","0.56000000238418","1.42999994754791","97.4199981689453","13.2299995422363",4750,"4825",0
"1760","Columbia","MD","21044-3197",-76.8784,39.2116,"Howard Community College",4595,8135,6889,39650.55,"12617","NULL","3940","7396","NULL","8612","NULL",2,2,"2",1,"NULL","0","0","0","0","0","0","0","NULL","NULL","NULL","NULL","9287","0.66000002622604",0.17000000178813,64.1900024414062,"24.6100006103515","6.76000022888183","4.11999988555908","85.9599990844726","3.97000002861023",7182,"10702",10.4
"3035","Bismarck","ND","58504",-100.7524,46.7249,"University of Mary",13334,6616,6158,65229.89,"22936","NULL","14730","14730","NULL","NULL","15029",4,3,"3",2,"30","0","0","0","0","0","0","0","0.8307","0.8307","560","25","1865","0.62000000476837",0.15999999642372,88.9499969482422,"1","0.6700000166893","2.59999990463256","97.1600036621094","9.35999965667724",16435,"23152",4.6
"5651","Miramar","FL","33027-4145",-80.2612,26.1288,"University of Phoenix-South Florida Campus",12660,2161,2082,47023.93,"23898","NULL","11307","11307","NULL","NULL","19062",4,3,"3",3,"NULL","0","0","0","0","0","0","0","NULL","NULL","NULL","NULL","1080","0.6700000166893",0.44999998807907,69.4700012207031,"15.369999885559","4.13999986648559","16.2299995422363","86.6999969482422","9.60000038146972",18532,"35500",19
"6593","Indianapolis","IN","46204",-86.1578,39.7836,"Brown Mackie College-Indianapolis",10609,2774,4833,NA,"24621","NULL","12762","12762","NULL","NULL","19799",3,2,"2",3,"NULL","0","0","0","0","0","0","0","NULL","NULL","NULL","NULL","899","NULL",NA,NA,"NULL","NULL","NULL","NULL","NULL",12136.5,"21599",24.6
"2993","Wentworth","NC","27375-0038",-79.7584,36.3887,"Rockingham Community College",1023,6178,4855,23152.22,"11982","NULL","1832","6428","NULL","7248","NULL",2,2,"2",1,"NULL","0","0","0","0","0","0","0","NULL","NULL","NULL","NULL","1810","0.75999999046325",0.27000001072883,75.4100036621093,"21.4099998474121","0.37999999523162","3.04999995231628","96.7399978637695","10.3900003433227",NA,"NULL",0
"1322","Huntington","IN","46750",-85.4996,40.8991,"Huntington University",10779,8241,5945,78159.98,"34764","NULL","24040","24040","NULL","NULL","19192",4,3,"3",2,"84","0","0","0","0","0","0","0","0.9732","0.9732","560","27","1030","0.56999999284744",0.09000000357627,94.7399978637695,"2.25","0.75999999046325","2.25999999046325","97.4300003051758","4.71000003814697",21875,"27000",5.4
"120","Phoenix","AZ","85021",-112.1134,33.5779,"Ottawa University-Phoenix",7555,1951,5768,55721.97,"NULL","NULL","NULL","NULL","NULL","NULL","NULL",4,3,"3",2,"52","0","0","0","0","0","0","0","0.9888","NULL","NULL","NULL","335","0.68000000715255",0.40000000596046,80.3199996948242,"8.35999965667724","1.87999999523162","12.7399997711181","91.4199981689453","7.17999982833862",17000,"25000",8.7
"46","Mobile","AL","36603-5898",-88.057,30.694,"Bishop State Community College",1692,5734,6173,15282.58,"10059","NULL","4200","7530","NULL","5145","NULL",2,2,"2",1,"NULL","1","0","0","0","0","0","0","NULL","NULL","NULL","NULL","3363","0.66000002622604",0.17000000178813,50.0699996948242,"46.3800010681152","1.07000005245208","1.25","97.5","19.8500003814697",NA,"NULL",0
"2689","Herkimer","NY","13350-1598",-75.0074,43.0326,"Herkimer County Community College",2646,3812,4993,46107.94,"13277","NULL","4360","6420","NULL","8317","NULL",2,2,"2",1,"NULL","0","0","0","0","0","0","0","NULL","NULL","NULL","NULL","2436","0.56999999284744",0.10999999940395,87.7399978637695,"7.03999996185302","1.25","4.96999979019165","92.620002746582","10.3999996185302",8168.5,"12000",18.5
"3154","Sandusky","OH","44870-5871",-82.6664,41.4149,"Ohio Business College-Sandusky",9657,2946,3233,28420.44,"21223","NULL","8500","8500","NULL","NULL","15579",2,2,"1",3,"NULL","0","0","0","0","0","0","0","NULL","NULL","NULL","NULL","387","0.81000000238418",0.28999999165534,85.0299987792968,"9.05000019073486","0.41999998688697","7.21999979019165","96.0199966430664","8.28999996185302",10189,"15000",21.8
"3430","Pittsburgh","PA","15233",-80.0328,40.4584,"Bidwell Training Center Inc",0,16401,3180,17407.37,"NULL","19939","NULL","NULL","12000","NULL","12799",2,1,"1",2,"NULL","0","0","0","0","0","0","0","0.8649","0.8649","NULL","NULL","159","0.68000000715255",0.25,72.4300003051757,"24.7600002288818","0.85000002384185","0.94999998807907","96.7799987792969","13.2200002670288",NA,"NULL",0
"970","Babson Park","FL","33827-0096",-81.5323,27.8388,"Webber International University",12442,3018,4783,62656.98,"34949","NULL","21050","21050","NULL","NULL","19384",4,3,"3",2,"NULL","0","0","0","0","0","0","0","0.6412","0.6377","547","23","662","0.40000000596046",0.07000000029802,76.5699996948242,"15.4300003051757","1.48000001907348","10.6599998474121","88.5","9.39999961853027",9500,"20412.5",16.7
"2194","Meridian","MS","39307-5801",-88.7336,32.3681,"Meridian Community College",1184,5911,3731,25919.36,"11036","NULL","2410","3690","NULL","5617","NULL",2,2,"2",1,"NULL","0","0","0","0","0","0","0","NULL","NULL","NULL","NULL","3601","0.69999998807907",0.18999999761581,57.1399993896484,"39.9799995422363","0.38999998569488","1.3400000333786","98.6699981689453","18.7999992370605",4686.5,"7276.5",22.2
"1512","Hays","KS","67601-4099",-99.3405,38.8724,"Fort Hays State University",5138,5150,6488,55153.96,"15395","NULL","4358","12821","NULL","11268","NULL",4,3,"3",1,"NULL","0","0","0","0","0","0","0","0.8917","0.8917","NULL","25","11064","0.56999999284744",0.18999999761581,90.4100036621093,"2.82999992370605","1.05999994277954","7.26000022888183","94.870002746582","7.44000005722046",11606,"20075",7.4
"2961","Statesville","NC","28677-5293",-80.8941,35.7828,"Mitchell Community College",1056,5870,5187,21263.03,"14266","NULL","2391","8535","NULL","8984","NULL",2,2,"2",1,"NULL","0","0","0","0","0","0","0","NULL","NULL","NULL","NULL","2672","0.77999997138977",0.25,80.7399978637695,"14.7700004577636","1.25999999046325","3.86999988555908","95.4700012207031","7.13000011444091",NA,"PrivacySuppressed",0
"2492","Jersey City","NJ","07305",-74.0873,40.7099,"New Jersey City University",7917,9780,9101,41680.76,"19058","NULL","10653","19065","NULL","10966","NULL",4,3,"3",1,"NULL","0","0","0","0","0","1","0","0.4129","0.4129","520","NULL","6373","0.63999998569488",0.12999999523162,52.6399993896484,"21.4400005340576","8.5600004196167","29.25","65.0400009155273","12.7200002670288",13250.5,"18000",6.5
"5036","Lebanon","TN","37087",-86.3378,36.2161,"Genesis Career College-Lebanon",35,663,NA,17553.46,"NULL","11783","NULL","NULL","11455","NULL","8148",1,1,"1",3,"NULL","0","0","0","0","0","0","0","NULL","NULL","NULL","NULL","247","0.98000001907348",0.34000000357627,88.5899963378906,"4.61999988555908","0.55000001192092","8.56999969482422","92.8000030517578","8.03999996185302",6711,"9303.5",13.9
"3023","Cullowhee","NC","28723-9646",-83.1846,35.3089,"Western Carolina University",5283,7906,7493,64748.81,"17805","NULL","6265","15862","NULL","12380","NULL",4,3,"3",1,"NULL","0","0","0","0","0","0","0","0.3766","0.3766","570","25","8238","0.54000002145767",0.07000000029802,84.2399978637695,"10.5600004196167","1.17999994754791","3.50999999046325","95.0100021362304","7.75",15000,"21249",8.1
"6431","Baton Rouge","LA","70816",-91.0662,30.411,"Louisiana Culinary Institute",12518,6945,4657,NA,"25225","NULL","14575","14575","NULL","NULL","20144",2,2,"2",3,"NULL","0","0","0","0","0","0","0","0.7451","0.7451","NULL","NULL","195","NULL",NA,NA,"NULL","NULL","NULL","NULL","NULL",12656.5,"16000",4.2
"1433","Davenport","IA","52807",-90.5601,41.5739,"Hamilton Technical College",6329,2775,5146,34925.75,"17577","NULL","11625","11625","NULL","NULL","13742",3,1,"1",3,"NULL","0","0","0","0","0","0","0","NULL","NULL","NULL","NULL","177","0.56000000238418",0.23999999463558,90.4300003051757,"4.61999988555908","1.01999998092651","4.92999982833862","96.6800003051758","7.65999984741211",9500,"9500",21.9
"6214","Harrisburg","PA","17101-2208",-76.8808,40.2613,"Harrisburg University of Science and Technology",17303,14445,8639,NA,"35931","NULL","23900","23900","NULL","NULL","22359",4,3,"3",2,"NULL","0","0","0","0","0","0","0","NULL","NULL","NULL","NULL","278","NULL",NA,NA,"NULL","NULL","NULL","NULL","NULL",9500,"29500",19.5
"3245","Nelsonville","OH","45764",-82.19,39.3833,"Tri-County Adult Career Center",4686,5546,NA,13041.42,"NULL","14644","NULL","NULL","6000","9486","NULL",1,1,"1",1,"NULL","0","0","0","0","0","0","0","NULL","NULL","NULL","NULL","129","0.95999997854232",0.41999998688697,96.0299987792969,"1.47000002861022","0.70999997854232","0.75999999046325","98.0899963378906","13.3900003433227",NA,"NULL",0
"425","Oakland","CA","94612-2801",-122.2697,37.8048,"Lincoln University",12732,3879,3325,67680.95,"20725","NULL","10105","10105","NULL","NULL","15577",4,2,"2",2,"NULL","0","0","0","0","0","0","0","NULL","NULL","NULL","NULL","97","0.79000002145767",0.25999999046325,55.3899993896484,"12.1999998092651","16.8400001525878","18.3899993896484","73.9300003051757","8.02999973297119",NA,"PrivacySuppressed",16.1
"950","Tampa","FL","33620-9951",-82.4159,28.0566,"University of South Florida-Main Campus",5963,8322,8082,52366.99,"19299","NULL","6410","17324","NULL","10281","NULL",4,3,"3",1,"NULL","0","0","0","0","0","0","0","0.4499","0.4524","640","27","30376","0.61000001430511",0.10999999940395,80.6900024414062,"11.8199996948242","2.08999991416931","11.5100002288818","86.1399993896484","7.98000001907348",16954,"19735",7.4
"3554","Philadelphia","PA","19110",-75.1644,39.9507,"Metropolitan Career Center Computer Technology Institute",10030,6341,3228,14898.03,"33375","NULL","24194","24194","NULL","NULL","26809",2,2,"2",2,"NULL","0","0","0","0","0","0","0","0.8462","0.8462","NULL","NULL","96","0.46000000834465",0.14000000059604,27.3999996185302,"60.8699989318847","3.80999994277954","9.25","89.1699981689453","24.2000007629394",11993,"15000",20.3
"7320","Shorewood","IL","60404-8789",-88.2007,41.5406,"The Salon Professional Academy-Shorewood",5032,3028,NA,NA,"NULL","15656","NULL","NULL","18000","NULL","13543",1,1,"1",3,"NULL","0","0","0","0","0","0","0","NULL","NULL","NULL","NULL","162","NULL",NA,NA,"NULL","NULL","NULL","NULL","NULL",9833,"12683",0
"2338","Browning","MT","59417-0819",-112.9455,48.5893,"Blackfeet Community College",767,4620,3638,13725.57,"15055","NULL","2510","2510","NULL","NULL","10692",2,2,"2",2,"NULL","0","0","0","1","0","0","0","NULL","NULL","NULL","NULL","448","0.54000002145767",0.20999999344348,11.0200004577636,"0.15000000596046","0.10999999940395","1.47000002861022","97.9000015258789","29.3500003814697",NA,"NULL",0
"5124","Albuquerque","NM","87110",-106.5894,35.0888,"Southwest University of Visual Arts-Albuquerque",12401,2726,4889,45547.82,"50053","NULL","34541","34541","NULL","NULL","47611",3,3,"3",3,"NULL","0","0","0","0","0","0","0","NULL","NULL","NULL","NULL","224","0.69999998807907",0.18999999761581,76.1699981689453,"3.09999990463256","2.10999989509582","29.2199993133544","89.5999984741211","9.73999977111816",20000,"50437",19.7
"5467","Ponce","PR","00717-1568",-66.6143,18.0063,"Academia Serrant Inc",964,468,NA,8155.74,"NULL","9129","NULL","NULL","5448","NULL","5868",1,1,"1",3,"NULL","0","0","0","0","0","0","0","NULL","NULL","NULL","NULL","390","0.62000000476837",0.37000000476837,84.120002746582,"5.1100001335144","0.09000000357627","99.2099990844726","PrivacySuppressed","50.2999992370605",NA,"NULL",0
"6495","San Antonio","TX","78229",-98.558,29.5185,"International Academy of Design and Technology-San Antonio",14733,2686,4194,NA,"24391","NULL","15490","15490","NULL","NULL","19192",3,3,"3",3,"NULL","0","0","0","0","0","0","0","NULL","NULL","NULL","NULL","356","NULL",NA,NA,"NULL","NULL","NULL","NULL","NULL",15042,"29375",26.6
"1669","Ruston","LA","71272",-92.6496,32.5255,"Louisiana Tech University",5871,5668,7055,57506.42,"16983","NULL","7302","18441","NULL","9283","NULL",4,3,"3",1,"NULL","0","0","0","0","0","0","0","0.6744","0.6744","600","25","7047","0.51999998092651",0.10000000149011,68.2600021362304,"28.2600002288818","1","2.65000009536743","96.9700012207031","14.579999923706",13632.5,"20984.5",7.5
"5336","Cape Girardeau","MO","63703-4507",-89.5401,37.3116,"Southeast Missouri Hospital College of Nursing and Health Sciences",13377,9663,5028,50048.02,"NULL","NULL","13800","13800","NULL","NULL","NULL",2,2,"2",2,"NULL","0","0","0","0","0","0","0","1","1","NULL","3","222","0.87000000476837",0.40000000596046,92.9599990844726,"4.63999986648559","0.60000002384185","1.01999998092651","98.3099975585937","8.76000022888183",14000,"15250",11.4
"768","Waterbury","CT","06723",-73.0805,41.5353,"Post University",14224,3142,7340,59954.65,"40723","NULL","20925","20925","NULL","NULL","37460",4,3,"3",3,"NULL","0","0","0","0","0","0","0","0.8302","0.8302","490","NULL","6616","0.63999998569488",0.15000000596046,75.0500030517578,"14.3400001525878","2.42000007629394","11.3900003433227","83.6900024414062","8.14999961853027",8099,"25857",13.6
"3810","Chattanooga","TN","37406-1097",-85.2374,35.1002,"Chattanooga State Community College",3549,5875,5465,32833.36,"13039","NULL","3651","14091","NULL","8062","NULL",2,2,"2",1,"NULL","0","0","0","0","0","0","0","NULL","NULL","NULL","NULL","8224","0.64999997615814",0.23000000417232,79.0599975585937,"17.6700000762939","1.02999997138977","1.82000005245208","96.8399963378906","10.8199996948242",8251,"11815",24
"4590","Santa Barbara","CA","93101",-119.696,34.4229,"Antioch University-Santa Barbara",17322,8565,5915,42885.02,"NULL","NULL","NULL","NULL","NULL","NULL","NULL",4,3,"3",2,"NULL","0","0","0","0","0","0","0","0.7857","NULL","NULL","NULL","144","0.70999997854232",0.2199999988079,76.8000030517578,"8.14999961853027","6.01000022888183","10.8000001907348","84.7300033569336","7.86999988555908",24156,"25329.5",4.4
"4906","Lebanon","MO","65536",-92.6774,37.6916,"Lebanon Technology and Career Center",12337,9088,NA,29210.14,"NULL","14649","NULL","NULL","10966","8797","NULL",1,1,"1",1,"NULL","0","0","0","0","0","0","0","NULL","NULL","NULL","NULL","26","0.83999997377395",0.56999999284744,96.4899978637695,"0.82999998331069","0.31000000238418","1.37000000476837","98.0100021362304","10.1599998474121",11000,"11750",NA
"2186","Scooba","MS","39358-0158",-88.4835,32.8302,"East Mississippi Community College",1891,3889,5927,24967.77,"9564","NULL","2600","4800","NULL","4520","NULL",2,2,"2",1,"NULL","0","0","0","0","0","0","0","NULL","NULL","NULL","NULL","4364","0.62999999523162",0.17000000178813,53.6899986267089,"44.1899986267089","0.73000001907348","1.12000000476837","98.1699981689453","19.0599994659423",7053,"10015",22.3
"1280","Chicago","IL","60606",-87.6248,41.8859,"Taylor Business Institute",7050,2628,3417,13019.12,"23100","NULL","13500","13500","NULL","NULL","16350",2,2,"2",3,"NULL","0","0","0","0","0","0","0","1","1","NULL","NULL","86","0.81999999284744",0.09000000357627,20.5200004577636,"67.5999984741211","1.8400000333786","14.869999885559","88.1500015258789","20.6399993896484",11333,"20436",11.9
"1450","Fort Dodge","IA","50501",-94.1639,42.5005,"La James International College-Ft Dodge",7763,2407,NA,39560.96,"NULL","18828","NULL","NULL","18660","NULL","14782",1,1,"1",3,"NULL","0","0","0","0","0","0","0","NULL","NULL","NULL","NULL","84","0.95999997854232",0.18999999761581,95.5800018310547,"1.5900000333786","0.63999998569488","2.72000002861022","97.5500030517578","6.15999984741211",11234,"13477.5",7.3
"6399","Indianapolis","IN","46227",-86.1239,39.6381,"Regency Beauty Institute-Greenwood",13614,8048,NA,NA,"NULL","23923","NULL","NULL","16200","NULL","20537",1,1,"1",3,"NULL","0","0","0","0","0","0","0","NULL","NULL","NULL","NULL","69","NULL",NA,NA,"NULL","NULL","NULL","NULL","NULL",9500,"14144",14.9
"873","South Daytona","FL","32119",-80.9978,29.1622,"International Academy",13812,4314,NA,27664.61,"NULL","18933","NULL","NULL","15900","NULL","15411",1,1,"1",3,"NULL","0","0","0","0","0","0","0","NULL","NULL","NULL","NULL","257","0.91000002622604",0.18000000715255,82.870002746582,"12.7399997711181","1.13999998569488","4.98000001907348","91.4199981689453","9.52999973297119",7667,"9500",21.8
"552","Oakland","CA","94609",-122.2669,37.82,"Samuel Merritt University",27755,15070,10156,42039.61,"NULL","NULL","NULL","NULL","NULL","NULL","NULL",4,3,"3",2,"NULL","0","0","0","0","0","0","0","NULL","NULL","NULL","NULL","506","0.81999999284744",0.20999999344348,64.2099990844726,"7.30000019073486","15.329999923706","15.9200000762939","77.5400009155273","6.6100001335144",18750,"18750",1.3
"5712","Murray","UT","84123-5671",-111.9021,40.6596,"Stevens-Henager College-Murray",11719,2122,3299,31209.92,"30635","NULL","21600","21600","NULL","NULL","27751",4,2,"2",2,"NULL","0","0","0","0","0","0","0","NULL","NULL","NULL","NULL","2382","0.61000001430511",0.40999999642372,88.5899963378906,"1","1.73000001907348","10.1599998474121","91.7799987792968","7.09000015258789",10500,"26336.5",27.1
"7342","El Paso","TX","79925-0000",-106.3549,31.761,"Regency Beauty Institute-El Paso",12061,7130,NA,NA,"NULL","23915","NULL","NULL","16200","NULL","20020",1,1,"1",3,"NULL","0","0","0","0","0","0","0","NULL","NULL","NULL","NULL","128","NULL",NA,NA,"NULL","NULL","NULL","NULL","NULL",9500,"14144",14.9
"2931","Winston Salem","NC","27103-5197",-80.2722,36.0685,"Forsyth Technical Community College",1146,5454,4777,19628.7,"10733","NULL","1962","6546","NULL","6085","NULL",2,2,"2",1,"NULL","0","0","0","0","0","0","0","NULL","NULL","NULL","NULL","8642","0.75",0.2199999988079,68.9400024414062,"25.5499992370605","0.89999997615814","6.13999986648559","93.4499969482422","9.1899995803833",8250,"11984.5",0
"3087","Saint Martin","OH","45118-9705",-83.8872,39.2104,"Chatfield College",9272,2918,3681,28126.65,"16142","NULL","9070","9070","NULL","NULL","8497",2,2,"2",2,"30","0","0","0","0","0","0","0","NULL","NULL","NULL","NULL","325","0.81000000238418",0.2199999988079,78.5800018310547,"19.1499996185302","0.62000000476837","0.86000001430511","97.9800033569336","13.3199996948242",8488,"21911",21
"6842","Orlando","FL","32825",-81.2528,28.5516,"Polytechnic University of Puerto Rico-Orlando",9452,3314,5560,NA,"22784","NULL","10920","10920","NULL","NULL","18131",4,3,"3",2,"NULL","0","0","0","0","0","1","0","0.8889","NULL","NULL","NULL","82","NULL",NA,NA,"NULL","NULL","NULL","NULL","NULL",11000,"16648",10.8
"2479","Union","NJ","07083",-74.2392,40.6848,"Empire Beauty School-Union",9691,7063,NA,26641.37,"NULL","19377","NULL","NULL","14400","NULL","15344",1,1,"1",3,"NULL","0","0","0","0","0","0","0","NULL","NULL","NULL","NULL","126","0.87000000476837",0.2199999988079,53.2099990844726,"30.3600006103515","3.86999988555908","23.8400001525878","68.0599975585937","11.6700000762939",6406,"9083",18.8
"21","Hanceville","AL","35077-2000",-86.7817,34.0734,"George C Wallace State Community College-Hanceville",2707,5289,5843,33184.58,"10822","NULL","4200","7530","NULL","6628","NULL",2,2,"2",1,"NULL","0","0","0","0","0","0","0","NULL","NULL","NULL","NULL","4904","0.66000002622604",0.31000000238418,90.5699996948242,"6.61999988555908","0.31999999284744","2.54999995231628","97.4899978637695","9.69999980926513",8250,"11330",21.3
"4678","Hayward","WI","54843",-91.3636,45.9419,"Lac Courte Oreilles Ojibwa Community College",3827,7769,4645,15982.68,"11049","NULL","4590","4590","NULL","6458","NULL",2,2,"2",1,"NULL","0","0","0","1","0","0","0","NULL","NULL","NULL","NULL","254","0.70999997854232",0.20999999344348,70.7399978637695,"0.18999999761581","0.23999999463558","1.26999998092651","97.8199996948242","11.2799997329711",NA,"NULL",0
"2251","Hannibal","MO","63401-1999",-91.3914,39.7308,"Hannibal-LaGrange University",8563,4224,5168,54659.47,"27560","NULL","18770","18770","NULL","NULL","14894",4,3,"3",2,"75","0","0","0","0","0","0","0","0.6814","0.6814","520","24","921","0.68999999761581",0.27000001072883,92.9100036621093,"4.5","0.47999998927116","1.52999997138977","98.0899963378906","9.17000007629394",13750,"19875",8
"7099","Grand Rapids","MI","49503",-85.6823,42.976,"Compass College of Cinematic Arts",10058,2038,4140,NA,"29928","NULL","13915","13915","NULL","NULL","27133",2,2,"2",2,"NULL","0","0","0","0","0","0","0","0.9815","0.9815","NULL","NULL","80","NULL",NA,NA,"NULL","NULL","NULL","NULL","NULL",10697,"10928",0
"440","Pittsburg","CA","94565",-121.8611,38.0056,"Los Medanos College",630,4975,6823,17501.93,"14140","NULL","1298","7038","NULL","8387","NULL",2,2,"2",1,"NULL","0","0","0","0","0","1","0","NULL","NULL","NULL","NULL","7502","0.68999999761581",0.15000000596046,59.0400009155273,"11.4899997711181","8.81999969482422","26.5900001525878","79.6299972534179","7.69999980926513",4499,"PrivacySuppressed",17.3
"3307","Oklahoma City","OK","73107-6195",-97.5833,35.4753,"Oklahoma State University-Oklahoma City",2406,4490,5513,32310.92,"9634","NULL","2661","7224","NULL","4575","NULL",3,2,"2",1,"NULL","0","0","0","0","0","0","0","NULL","NULL","NULL","NULL","6529","0.66000002622604",0.28000000119209,74.8499984741211,"12.1599998474121","2.75","6.42999982833862","93.3300018310547","10.3999996185302",8250,"15816",17.9
"3167","Cincinnati","OH","45213",-84.5127,39.1024,"Moler Hollywood Beauty Academy",8942,6919,NA,9112.16,"NULL","11808","NULL","NULL","14450","NULL","7343",1,1,"1",3,"NULL","0","0","0","0","0","0","0","NULL","NULL","NULL","NULL","80","0.94999998807907",0.11999999731779,46.8300018310546,"48.9799995422363","1.38999998569488","1.57000005245208","95.7399978637695","23.0300006866455",8687.5,"11500",17.6
"4797","Santa Fe","NM","87505",-105.95,35.6618,"Southwest Acupuncture College-Santa Fe",5573,1266,NA,18435.75,"NULL","NULL","NULL","NULL","NULL","NULL","NULL",4,4,"3",3,"NULL","0","0","0","0","0","0","0","NULL","NULL","NULL","NULL","NULL","0.54000002145767",0.12999999523162,84.4199981689453,"1.73000001907348","1.92999994754791","20.0300006866455","92.120002746582","6.55000019073486",NA,"PrivacySuppressed",6.6
"4630","Manchester","KY","40962-8700",-83.7711,37.1393,"Southeast School of Cosmetology",999,2795,NA,13639.1,"NULL","10884","NULL","NULL","11290","NULL","5323",1,1,"1",3,"NULL","0","0","0","0","0","0","0","NULL","NULL","NULL","NULL","6","0.98000001907348",0.40000000596046,97.0500030517578,"1.57000005245208","0.23999999463558","0.80000001192092","99.1399993896484","24.6000003814697",NA,"PrivacySuppressed",0
"2959","Fayetteville","NC","28311-1420",-78.875,35.1379,"Methodist University",13883,7620,6726,63251.18,"45011","NULL","27830","27830","NULL","NULL","24462",4,3,"3",2,"71","0","0","0","0","0","0","0","0.6122","0.6122","540","25","2172","0.47999998927116",0.2199999988079,68.3499984741211,"23.7000007629394","1.80999994277954","6.13000011444091","91.4599990844726","8.60999965667724",11200,"PrivacySuppressed",11.2
"6891","Elk Grove","CA","95624",-121.4558,38.5072,"InterCoast Colleges-Elk Grove",20635,2906,NA,NA,"NULL","27225","NULL","NULL","19395","NULL","24585",1,1,"1",3,"NULL","0","0","0","0","0","0","0","NULL","NULL","NULL","NULL","28","NULL",NA,NA,"NULL","NULL","NULL","NULL","NULL",11086,"12125",16.8
"3422","Philadelphia","PA","19103-5198",-75.1677,39.9511,"The Art Institute of Philadelphia",17369,4559,9034,61648.02,"31690","NULL","17920","17920","NULL","NULL","26995",3,3,"3",3,"NULL","0","0","0","0","0","0","0","NULL","NULL","NULL","NULL","2494","0.57999998331069",0.03999999910593,67.2399978637695,"23.8899993896484","3.5","6.6100001335144","89.6299972534179","9.80000019073486",14668,"31000",16.6
"4922","Findlay","OH","45840",-83.6195,41.0585,"Brown Mackie College-Findlay",10301,3386,3492,30754.48,"23464","NULL","12114","12114","NULL","NULL","19774",2,2,"2",3,"NULL","0","0","0","0","0","0","0","NULL","NULL","NULL","NULL","448","0.82999998331069",0.23000000417232,76.1100006103515,"19.6499996185302","1.12000000476837","2.91000008583068","96.6800003051758","9.27000045776367",12136.5,"21599",24.6
"5448","Santa Ana","CA","92701-0000",-117.8682,33.748,"Colleen O'Haras Beauty Academy",9048,3230,NA,28647.77,"NULL","32833","NULL","NULL","18450","NULL","29166",1,1,"1",3,"NULL","0","0","0","0","0","0","0","NULL","NULL","NULL","NULL","155","0.98000001907348",0.56000000238418,51.8800010681152,"2.95000004768371","10.2399997711181","55.5099983215332","58.2400016784668","12.7200002670288",9413,"9961",12.3
"5828","Albuquerque","NM","87114-0000",-106.6596,35.2311,"National American University-Albuquerque West",13389,285,NA,38521.77,"23988","NULL","NULL","NULL","NULL","NULL","18999",3,2,"2",3,"NULL","0","0","0","0","0","0","0","NULL","NULL","NULL","NULL","346","0.75999999046325",0.37000000476837,80.9400024414062,"7.96000003814697","2.44000005722045","9.27000045776367","93.1600036621093","7.57999992370605",10490.5,"34486",21.4
"855","Tallahassee","FL","32306-1037",-84.2909,30.4397,"Florida State University",5723,8596,9706,68162.48,"20774","NULL","6507","21673","NULL","14691","NULL",4,3,"3",1,"NULL","0","0","0","0","0","0","0","0.5681","0.5681","640","NULL","32086","0.58999997377395",0.05000000074505,77.6699981689453,"15.6899995803833","2.02999997138977","11.3500003814697","85.4899978637695","8.89999961853027",18750,"21000",5.8
"5495","Bayamon","PR","00960",-66.1026,18.3827,"Nova College de Puerto Rico",4337,1525,NA,6301.12,"NULL","9369","NULL","NULL","15662","NULL","4124",1,1,"1",3,"NULL","0","0","0","0","0","0","0","NULL","NULL","NULL","NULL","195","0.73000001907348",0.18999999761581,81.0299987792968,"7.55000019073486","0.20000000298023","98.8000030517578","PrivacySuppressed","37.7000007629394",NA,"NULL",0
"1039","Atlanta","GA","30314-4143",-84.4103,33.7549,"Interdenominational Theological Center",19906,11598,6728,47152.42,"NULL","NULL","NULL","NULL","NULL","NULL","NULL",4,4,"3",2,"42","1","0","0","0","0","0","0","NULL","NULL","NULL","NULL","NULL","0.82999998331069",0.41999998688697,37.4099998474121,"54.7099990844726","1.62999999523162","11.8800001144409","84.5199966430664","12.5699996948242",NA,"PrivacySuppressed",12.7
"6802","Cranston","RI","02920",-71.4784,41.7334,"Toni & Guy Hairdressing Academy-Cranston",10489,1670,NA,NA,"NULL","18751","NULL","NULL","16235","NULL","15537",1,1,"1",3,"NULL","0","0","0","0","0","0","0","NULL","NULL","NULL","NULL","139","NULL",NA,NA,"NULL","NULL","NULL","NULL","NULL",9833,"11714.5",11.9
"7386","Yabucoa","PR","00767-0767",-65.8966,18.0706,"Dewey University-Yabucoa",426,4538,NA,NA,"11677","NULL","9260","9260","NULL","NULL","6713",1,1,"1",2,"NULL","0","0","0","0","0","0","0","NULL","NULL","NULL","NULL","2","NULL",NA,NA,"NULL","NULL","NULL","NULL","NULL",NA,"PrivacySuppressed",0
"3948","Dallas","TX","75227-4314",-96.6834,32.7714,"Dallas Institute of Funeral Service",5776,1825,4398,30662.81,"20182","NULL","10500","10500","NULL","NULL","17795",2,2,"2",2,"NULL","0","0","0","0","0","0","0","NULL","NULL","NULL","NULL","114","0.55000001192092",0.28000000119209,67.1500015258789,"18.0699996948242","1.91999995708465","21.5499992370605","88.5800018310547","11.8400001525878",7666,"9500",18.2
"5472","Hialeah","FL","33012-4861",-80.3069,25.8484,"Compu-Med Vocational Careers Corp",2450,2348,NA,6078.55,"NULL","13325","NULL","NULL","7050","NULL","10718",1,1,"1",3,"NULL","0","0","0","0","0","0","0","NULL","NULL","NULL","NULL","920","0.95999997854232",0.46000000834465,81.9700012207031,"8.76000022888183","0.81999999284744","78.4599990844726","34.0699996948242","14.5100002288818",NA,"NULL",0
"6122","Jersey City","NJ","07310-1756",-74.0331,40.7268,"University of Phoenix-Jersey City Campus",12937,3001,2594,47023.93,"22602","NULL","10224","10224","NULL","NULL","17872",3,3,"3",3,"NULL","0","0","0","0","0","0","0","NULL","NULL","NULL","NULL","455","0.6700000166893",0.44999998807907,69.4700012207031,"15.369999885559","4.13999986648559","16.2299995422363","86.6999969482422","9.60000038146972",18532,"35500",19
"6188","Montclair","NJ","07042-3551",-74.2161,40.813,"Eastern School of Acupuncture and Traditional Medicine",13621,5679,NA,49086.73,"NULL","NULL","NULL","NULL","NULL","NULL","NULL",1,1,"1",3,"NULL","0","0","0","0","0","0","0","NULL","NULL","NULL","NULL","64","0.52999997138977",0.28999999165534,77.1299972534179,"10.1899995803833","5.55999994277954","11.4499998092651","80.8300018310547","5.57999992370605",26770,"31793",2.9
"3445","Pittsburgh","PA","15213-3165",-79.9639,40.4399,"Carlow University",15874,7197,6870,57010.98,"35640","NULL","25416","25416","NULL","NULL","18616",4,3,"3",2,"30","0","0","0","0","0","0","0","0.9522","0.9522","510","24","1496","0.93000000715255",0.12999999523162,86.7900009155273,"10.4899997711181","1.15999996662139","1","96.4300003051758","8.48999977111816",21500,"27000",5.8
"6656","North Randall","OH","44128",-81.533,41.4331,"Ohio Technical College-PowerSport Institute",40669,16049,3436,NA,"NULL","24794","NULL","NULL","27900","NULL","20927",2,1,"1",3,"NULL","0","0","0","0","0","0","0","NULL","NULL","NULL","NULL","267","NULL",NA,NA,"NULL","NULL","NULL","NULL","NULL",12000,"13000",29
"4658","Houston","TX","77043",-95.5591,29.7851,"Paul Mitchell the School-Houston",9796,3173,NA,13406.63,"NULL","18864","NULL","NULL","15900","NULL","16233",1,1,"1",3,"NULL","0","0","0","0","0","0","0","NULL","NULL","NULL","NULL","272","0.82999998331069",0.30000001192092,68.5599975585937,"15.4200000762939","3.71000003814697","22.079999923706","84.6399993896484","9.27000045776367",9833,"13039.5",17.1
"4325","Lacey","WA","98503-7500",-122.8154,47.0371,"Saint Martin's University",14109,7281,6350,55215.19,"40458","NULL","30284","30284","NULL","NULL","19077",4,3,"3",2,"30","0","0","0","0","0","0","0","0.876","0.876","600","NULL","1299","0.61000001430511",0.23999999463558,80.8199996948242,"4.17000007629394","5.28000020980835","6.07000017166137","90.0199966430664","7.59999990463257",19843,"25000",6.1
"1634","Alexandria","LA","71302-3137",-92.445,31.2596,"Central Louisiana Technical Community College",714,4521,3918,15154.25,"12082","NULL","1447","2646","NULL","6981","NULL",2,1,"1",1,"NULL","0","0","0","0","0","0","0","NULL","NULL","NULL","NULL","1439","0.69999998807907",0.2199999988079,61.5900001525879,"35.5499992370605","0.77999997138977","1.66999995708465","98","19.1700000762939",NA,"NULL",24.5
"5242","Aurora","CO","80011",-104.8231,39.7212,"Anthem College-Denver",7868,1477,3421,28644.37,"26125","NULL","12007","12007","NULL","NULL","22788",2,2,"1",3,"NULL","0","0","0","0","0","0","0","NULL","NULL","NULL","NULL","207","0.80000001192092",0.20999999344348,62.7000007629394,"20.4200000762939","3.08999991416931","20.25","84.9599990844726","11.2600002288818",9500,"10976",18.7
"3328","Tulsa","OK","74104-3909",-95.9542,36.1478,"Tulsa Welding School-Tulsa",15236,4720,5663,31181.14,"NULL","28819","NULL","NULL","16855","NULL","24868",2,1,"1",3,"NULL","0","0","0","0","0","0","0","NULL","NULL","NULL","NULL","1094","0.05000000074505",0.2199999988079,75.5,"11.3599996566772","1.20000004768371","4.98999977111816","95.2099990844726","11.2100000381469",9500,"9500",21.1
"3726","Columbia","SC","29203-1513",-81.0695,34.0812,"Columbia International University",10047,6611,4559,55502.41,"28141","NULL","18930","18930","NULL","NULL","15405",4,3,"3",2,"NULL","0","0","0","0","0","0","0","0.6258","0.6258","580","25","574","0.56000000238418",0.12999999523162,76.870002746582,"18.6100006103515","1.70000004768371","3.09999990463256","94.5100021362304","7.26000022888183",17250,"20500",6.5
"2286","Columbia","MO","65211",-92.3264,38.941,"University of Missouri-Columbia",10084,10752,8788,89631.5,"22387","NULL","9415","23764","NULL","16940","NULL",4,3,"3",1,"NULL","0","0","0","0","0","0","0","0.7861","0.7861","650","27","26585","0.54000002145767",0.02999999932944,87.4499969482422,"8.10999965667724","1.78999996185302","2.30999994277954","95.6900024414062","6.23999977111816",17500,"22500",5.5
"4400","Wheeling","WV","26003",-80.6908,40.0709,"Wheeling Jesuit University",13619,6856,5731,71873.4,"34213","NULL","27830","27830","NULL","NULL","19137",4,3,"3",2,"30","0","0","0","0","0","0","0","0.6892","0.6892","550","25","1139","0.61000001430511",0.12999999523162,93.3199996948242,"4.23000001907348","0.85000002384185","1.30999994277954","97.4300003051758","9.77999973297119",16625,"27000",6.9
"2063","Alexandria","MN","56308",-95.3716,45.8686,"Alexandria Technical & Community College",3517,6276,7082,53926.46,"17952","NULL","5385","5385","NULL","14494","NULL",2,2,"2",1,"NULL","0","0","0","0","0","0","0","NULL","NULL","NULL","NULL","1782","0.43999999761581",0.07999999821186,96.5999984741211,"0.46000000834465","0.57999998331069","1.51999998092651","98.0199966430664","6",9500,"12000",12.5
"3240","Tiffin","OH","44883",-83.176,41.1146,"Tiffin Academy of Hair Design",7840,2742,NA,50543.65,"NULL","12723","NULL","NULL","14025","NULL","9288",1,1,"1",3,"NULL","0","0","0","0","0","0","0","NULL","NULL","NULL","NULL","42","0.94999998807907",0.10999999940395,94.5199966430664,"2.28999996185302","0.44999998807907","3.41000008583068","98.3099975585937","5.6100001335144",6516,"8658",10.2
"5577","Platte City","MO","64079",-94.7689,39.3565,"Northland Career Center",9690,5671,NA,37460.69,"NULL","14918","NULL","NULL","11000","10204","NULL",1,1,"1",1,"NULL","0","0","0","0","0","0","0","NULL","NULL","NULL","NULL","36","0.63999998569488",0.43999999761581,92.7900009155273,"3.30999994277954","0.86000001430511","2.72000002861022","97.5999984741211","5.17000007629394",9500,"9500",20
"1898","Brookline","MA","02445",-71.1421,42.331,"Newbury College",16433,6425,6185,58358.78,"40611","NULL","28950","28950","NULL","NULL","24111",3,3,"3",2,"NULL","0","0","0","0","0","0","0","0.5953","0.5953","460","NULL","961","0.62999999523162",0.03999999910593,75.3000030517578,"12.5900001525878","4.48000001907348","7.65999984741211","82.3099975585937","8.35999965667724",16000,"27000",13.9
"1218","Crystal Lake","IL","60012-2761",-88.3661,42.2588,"McHenry County College",2709,4700,9998,39982.52,"10565","NULL","3074","11420","NULL","7890","NULL",2,2,"2",1,"NULL","0","0","0","0","0","0","0","NULL","NULL","NULL","NULL","4892","0.62000000476837",0.18000000715255,92.4899978637695,"1.30999994277954","1.27999997138977","8.97999954223632","91.3499984741211","3.22000002861023",4425,"6750",15.8
"1549","Winfield","KS","67156-6224",-96.9783,37.2493,"Southwestern College",10933,5122,5689,61741.56,"36472","NULL","23886","23886","NULL","NULL","21201",4,3,"3",2,"71","0","0","0","0","0","0","0","0.8968","0.8968","548","24","1332","0.56000000238418",0.37000000476837,83.4800033569336,"6.88000011444091","2.24000000953674","7.21000003814697","93.8399963378906","7.6100001335144",19192,"25350",6.7
"1305","Greencastle","IN","46135-1772",-86.8636,39.6395,"DePauw University",16598,18330,8900,107948.47,"51050","NULL","40640","40640","NULL","NULL","22171",3,3,"3",2,"71","0","0","0","0","0","0","0","0.6121","0.6121","680","29","2272","0.54000002145767",0,85.0999984741211,"8.26000022888183","2.40000009536743","5.21000003814697","92.8099975585937","5.73999977111816",21000,"24500",3
"7270","Santa Rosa","CA","94928",-122.7336,38.4287,"Bergin University of Canine Studies",10901,3919,4000,NA,"NULL","NULL","NULL","NULL","NULL","NULL","NULL",4,2,"2",2,"NULL","0","0","0","0","0","0","0","NULL","NULL","NULL","NULL","32","NULL",NA,NA,"NULL","NULL","NULL","NULL","NULL",NA,"PrivacySuppressed",0
"487","Walnut","CA","91789-1399",-117.8437,34.0438,"Mt San Antonio College",859,5607,9013,21825.66,"9281","NULL","1346","7422","NULL","3101","NULL",2,2,"2",1,"NULL","0","0","0","0","1","1","0","NULL","NULL","NULL","NULL","25800","0.57999998331069",0.10999999940395,46.6899986267089,"5.88000011444091","16.2099990844726","49.8400001525879","65.0500030517578","11.3800001144409",4500,"6000",17
"6314","Erie","PA","16508-2820",-80.0709,42.1074,"Northwest Regional Technology Institute",7879,3461,NA,NA,"NULL","13145","NULL","NULL","7750","NULL","8335",1,1,"1",3,"NULL","0","0","0","0","0","0","0","NULL","NULL","NULL","NULL","18","NULL",NA,NA,"NULL","NULL","NULL","NULL","NULL",6334,"9500",16.1
"3815","Memphis","TN","38137-0132",-89.8921,35.1122,"Concorde Career College-Memphis",7468,3288,3332,18800.55,"NULL","24355","NULL","NULL","14035","NULL","19159",2,1,"1",3,"NULL","0","0","0","0","0","0","0","1","1","NULL","NULL","1313","0.9200000166893",0.20999999344348,43.2200012207031,"53.2299995422363","1.0900000333786","2.57999992370605","96.5","16.1000003814697",9500,"9500",16
"571","Rocklin","CA","95765-3707",-121.2923,38.8197,"William Jessup University",14067,6607,7043,66233.18,"34811","NULL","24040","24040","NULL","NULL","18601",4,3,"3",2,"79","0","0","0","0","0","0","0","0.6929","0.6929","580","25","1029","0.56999999284744",0.23999999463558,76.120002746582,"3.94000005722045","7.44999980926513","15.2100000381469","85.120002746582","6.38999986648559",17000,"21500",4.4
"3351","Portland","OR","97232",-122.6499,45.5341,"Phagans School of Hair Design-Portland",10100,1698,NA,33559.74,"NULL","14188","NULL","NULL","21900","NULL","8900",1,1,"1",3,"NULL","0","0","0","0","0","0","0","NULL","NULL","NULL","NULL","132","0.88999998569488",0.14000000059604,81.6800003051757,"4.75","4.09000015258789","8.39000034332275","88.1600036621093","8.32999992370605",12000,"16000",8
"1591","Lexington","KY","40505",-84.4905,38.0324,"The Salon Professional Academy-Lexington",9202,2830,NA,20643.22,"NULL","13736","NULL","NULL","15300","NULL","9496",1,1,"1",3,"NULL","0","0","0","0","0","0","0","NULL","NULL","NULL","NULL","132","0.83999997377395",0.18999999761581,87.0800018310547,"8.89999961853027","1.71000003814697","1.96000003814697","95.8199996948242","11.369999885559",9500,"13473.5",22.6
"6316","San Lorenzo","PR","00754",-65.9609,18.1896,"MyrAngel Beauty Institute",4091,1507,NA,NA,"NULL","15058","NULL","NULL","8695","NULL","11413",1,1,"1",3,"NULL","0","0","0","0","0","0","0","NULL","NULL","NULL","NULL","120","NULL",NA,NA,"NULL","NULL","NULL","NULL","NULL",NA,"NULL",0
"6746","Brooklyn","NY","11219",-73.9878,40.6383,"Yeshiva of Machzikai Hadas",7344,3245,2134,NA,"26176","NULL","7300","7300","NULL","NULL","14976",3,3,"3",2,"NULL","0","0","0","0","0","0","0","1","1","NULL","NULL","347","NULL",NA,NA,"NULL","NULL","NULL","NULL","NULL",NA,"NULL",0
"1610","Highland Heights","KY","41099",-84.466,39.0292,"Northern Kentucky University",8624,7303,6780,62838.79,"14603","NULL","8376","16464","NULL","8753","NULL",4,3,"3",1,"NULL","0","0","0","0","0","0","0","0.467","0.467","550","24","11976","0.61000001430511",0.11999999731779,91.8499984741211,"5.59999990463256","0.87000000476837","1.29999995231628","97.4499969482422","6.90999984741211",15000,"24458.5",9.9
"2223","Blue Springs","MO","64014",-94.2738,38.9999,"House of Heavilin Beauty College-Blue Springs",9221,2916,NA,35910.79,"NULL","15994","NULL","NULL","16300","NULL","12538",1,1,"1",3,"NULL","0","0","0","0","0","0","0","NULL","NULL","NULL","NULL","90","0.93999999761581",0.18000000715255,92.1100006103515,"4.19999980926513","0.76999998092651","2.4300000667572","97.4400024414062","4.86999988555908",8300,"9500",6.5
"2376","Omaha","NE","68124",-96.0197,41.322,"Alegent Creighton Health School of Radiologic Technology",3986,7500,NA,58751.42,"NULL","NULL","NULL","NULL","NULL","NULL","NULL",2,2,"2",2,"30","0","0","0","0","0","0","0","NULL","NULL","NULL","NULL","22","0.88999998569488",0.37000000476837,79.4899978637695,"14.8800001144409","1.30999994277954","4.09000015258789","95.3600006103515","8.25",NA,"PrivacySuppressed",11.5
"2546","Las Cruces","NM","88003-0105",-106.748,32.2781,"New Mexico State University-Dona Ana",1093,4391,5619,38201.24,"11190","NULL","1560","4968","NULL","6197","NULL",2,2,"3",1,"NULL","0","0","0","0","0","0","0","0.852","NULL","NULL","NULL","6677","0.60000002384185",0.15999999642372,69.3399963378906,"2.52999997138977","1.05999994277954","48.8800010681152","85.1100006103515","17.7999992370605",11147,"19500",19.9
"7343","Jacksonville","FL","32225-0000",-81.5579,30.3222,"Regency Beauty Institute-Jacksonville Regency",14039,8299,NA,NA,"NULL","26835","NULL","NULL","14100","NULL","22727",1,1,"1",3,"NULL","0","0","0","0","0","0","0","NULL","NULL","NULL","NULL","41","NULL",NA,NA,"NULL","NULL","NULL","NULL","NULL",9500,"14144",14.9
"5653","Temple Terrace","FL","33637-1920",-82.3558,28.0629,"University of Phoenix-West Florida Campus",12281,1965,5112,47023.93,"24152","NULL","11320","11320","NULL","NULL","19496",4,3,"3",3,"NULL","0","0","0","0","0","0","0","NULL","NULL","NULL","NULL","593","0.6700000166893",0.44999998807907,69.4700012207031,"15.369999885559","4.13999986648559","16.2299995422363","86.6999969482422","9.60000038146972",18532,"35500",19
"3018","Wilson","NC","27893-3310",-77.8929,35.7311,"Wilson Community College",767,5256,5041,18276.25,"12868","NULL","2393","8537","NULL","8156","NULL",2,2,"2",1,"NULL","0","0","0","0","0","0","0","NULL","NULL","NULL","NULL","1694","0.77999997138977",0.23999999463558,54.1699981689453,"40.5","0.41999998688697","6.53000020980835","94.1900024414062","14.869999885559",4350,"6500",0
"875","Tampa","FL","33634-7350",-82.5476,27.9824,"ITT Technical Institute-Tampa",24564,5896,5566,40727.61,"26761","NULL","18048","18048","NULL","NULL","23227",3,2,"2",3,"NULL","0","0","0","0","0","0","0","0.8388","0.7297","NULL","NULL","463","0.2199999988079",0.18999999761581,66.1900024414062,"26.0200004577636","2.76999998092651","7.26999998092651","89.5800018310547","8.23999977111816",14656.5,"25833.5",22.4
"6801","Cayey","PR","00737",-66.1376,18.1279,"Liberty Technical College",5243,1315,NA,NA,"NULL","8650","NULL","NULL","9585","NULL","4478",1,1,"1",3,"NULL","0","0","0","0","0","0","0","NULL","NULL","NULL","NULL","109","NULL",NA,NA,"NULL","NULL","NULL","NULL","NULL",NA,"NULL",0
"5027","Concord","CA","94518-1199",-122.026,37.9692,"Mt Diablo Adult Education",10856,25900,NA,11062.18,"NULL","21451","NULL","NULL","5889","16714","NULL",1,1,"1",1,"NULL","0","0","0","0","0","0","0","NULL","NULL","NULL","NULL","176","0.97000002861022",0.20000000298023,67.3000030517578,"6.67999982833862","9.3100004196167","21.4200000762939","78.9599990844726","6.07000017166137",NA,"NULL",0
"2819","Hornell","NY","14843-2197",-77.6606,42.3138,"St James Mercy Hospital School of Radiologic Science",5803,6815,NA,35815.4,"12704","NULL","5200","5200","NULL","NULL","9033",1,1,"1",2,"30","0","0","0","0","0","0","0","1","1","NULL","NULL","35","0.75",0.10000000149011,96.0999984741211,"1.23000001907348","0.68999999761581","1.01999998092651","97.7799987792969","11.2600002288818",NA,"12000",11.7
"5670","Lindon","UT","84042",-111.7124,40.3355,"Utah College of Massage Therapy-Utah Valley",6082,2885,NA,42007.46,"NULL","22608","NULL","NULL","12060","NULL","19174",1,1,"1",3,"NULL","0","0","0","0","0","0","0","NULL","NULL","NULL","NULL","158","0.75",0.20999999344348,80.7799987792968,"4.17000007629394","2.74000000953674","16.1200008392334","88.5","7.46000003814697",7943,"8607",19.7
"1529","Manhattan","KS","66506",-96.5811,39.1886,"Kansas State University",9415,10423,8154,76027.75,"20140","NULL","8585","21530","NULL","15852","NULL",4,3,"3",1,"NULL","0","0","0","0","0","0","0","0.9591","0.9591","NULL","NULL","19647","0.50999999046325",0.07000000029802,88.9400024414062,"4.44999980926513","1.62999999523162","5.25","94.8399963378906","6.26999998092651",17000,"22500",7.9
"7021","Madison","WI","53718",-89.2972,43.1458,"Globe University-Madison East",19814,4803,3444,NA,"30686","NULL","14040","14040","NULL","NULL","25088",3,2,"2",3,"NULL","0","0","0","0","0","0","0","NULL","NULL","NULL","NULL","261","NULL",NA,NA,"NULL","NULL","NULL","NULL","NULL",16768,"27000",22.4
"6689","Greenville","SC","29607",-82.3434,34.8075,"Virginia College-Greenville",25297,9393,2930,NA,"18630","NULL","11895","11895","NULL","NULL","14397",2,1,"2",3,"NULL","0","0","0","0","0","0","0","1","NULL","NULL","NULL","460","NULL",NA,NA,"NULL","NULL","NULL","NULL","NULL",12380.5,"19000",22.2
"3355","Portland","OR","97220",-122.5655,45.5754,"ITT Technical Institute-Portland",22460,5065,5587,35811.24,"27139","NULL","18048","18048","NULL","NULL","23671",3,2,"2",3,"NULL","0","0","0","0","0","0","0","0.8388","0.8341","NULL","NULL","605","0.17000000178813",0.18000000715255,68.3399963378906,"20.7900009155273","2.67000007629394","9.0600004196167","90.7799987792968","8.67000007629394",14656.5,"25833.5",22.4
"4302","Toppenish","WA","98948",-120.3953,46.3746,"Heritage University",16100,12758,6876,27364.35,"25933","NULL","17744","17744","NULL","NULL","9734",4,3,"3",2,"NULL","0","0","0","0","0","1","0","NULL","NULL","NULL","NULL","842","0.72000002861022",0.31999999284744,56.9599990844726,"0.86000001430511","1.17999994754791","41.3699989318847","80.0199966430664","18.0300006866455",21500,"26500",16
"619","Sacramento","CA","95841",-121.3629,38.6456,"Epic Bible College",11681,6755,2056,27280.3,"24692","NULL","9690","9690","NULL","NULL","20459",3,2,"2",2,"27","0","0","0","0","0","0","0","0.79","0.79","NULL","NULL","263","0.4699999988079",0.34999999403953,65.5699996948242,"8.60000038146972","9.8100004196167","18.1299991607666","82.5400009155273","10.1899995803833",12217,"28661.5",14.2
"143","Little Rock","AR","72202-6068",-92.2906,34.7348,"Arkansas Baptist College",9112,3475,4233,16994.69,"20024","NULL","8040","8040","NULL","NULL","17087",3,3,"3",2,"54","1","0","0","0","0","0","0","NULL","NULL","NULL","NULL","1022","0.5",0.12999999523162,50.8600006103515,"44.6699981689453","1.02999997138977","3.47000002861023","96.4599990844726","16.1399993896484",9500,"38125",31.1
"591","Fresno","CA","93726",-119.773,36.8028,"Sierra Valley College of Court Reporting",7735,3094,NA,34453.99,"25046","NULL","12000","12000","NULL","NULL","21249",1,1,"1",3,"NULL","0","0","0","0","0","0","0","NULL","NULL","NULL","NULL","137","0.9200000166893",0.31000000238418,57.5,"4.78999996185302","6.94000005722046","42.1599998474121","79.3799972534179","17.3400001525878",19317,"NULL",22.2
"5200","Shelby","OH","44875",-82.6668,40.9019,"Pioneer Career and Technology Center",1955,2238,NA,15777.2,"NULL","8670","NULL","NULL","4240","3952","NULL",1,1,"1",1,"NULL","0","0","0","0","0","0","0","NULL","NULL","NULL","NULL","35","0.80000001192092",0.40000000596046,92.0400009155273,"5.67999982833862","0.33000001311302","1.5","98.3099975585937","8.35000038146972",NA,"NULL",0
"1786","St. Mary's City","MD","20686-3001",-76.4257,38.1886,"St Mary's College of Maryland",12390,13542,6981,107725.72,"29174","NULL","14864","28664","NULL","20616","NULL",4,3,"3",1,"NULL","0","0","0","0","0","0","0","0.7204","0.7204","650","28","1794","0.56999999284744",0.01999999955296,75.6600036621093,"16.4599990844726","3.86999988555908","4.44999980926513","89.4499969482422","4.61999988555908",19130,"21671.5",1.4
"990","Atlanta","GA","30328-1635",-84.3549,33.9374,"The Art Institute of Atlanta",13641,3454,4765,58829.91,"32466","NULL","17596","17596","NULL","NULL","26846",3,3,"3",3,"NULL","0","0","0","0","0","0","0","NULL","NULL","NULL","NULL","2974","0.43999999761581",0.07999999821186,61.2900009155273,"30.1200008392334","3.4300000667572","6.38999986648559","88.5999984741211","7.51999998092651",12161,"29771",22.3
"6496","Augusta","GA","30909-4583",-82.0887,33.4912,"University of Phoenix-Augusta Campus",12435,2194,2677,NA,"23268","NULL","10227","10227","NULL","NULL","17728",4,3,"3",3,"NULL","0","0","0","0","0","0","0","NULL","NULL","NULL","NULL","735","NULL",NA,NA,"NULL","NULL","NULL","NULL","NULL",18532,"35500",19
"5123","Sioux Falls","SD","57108-2272",-96.7736,43.4969,"Colorado Technical University-Sioux Falls",16576,4637,6761,39232.48,"NULL","NULL","NULL","NULL","NULL","NULL","NULL",4,3,"3",3,"NULL","0","0","0","0","0","0","0","NULL","NULL","NULL","NULL","242","0.57999998331069",0.44999998807907,75.8799972534179,"13.3000001907348","2.63000011444091","10.4300003051757","90.8499984741211","9",15834,"35500",19.4
"7158","San Antonio","TX","78229",-98.5816,29.4893,"Concorde Career Institute-San Antonio",12453,4998,3952,NA,"NULL","23976","NULL","NULL","14640","NULL","19796",2,1,"1",3,"NULL","0","0","0","0","0","0","0","1","1","NULL","NULL","681","NULL",NA,NA,"NULL","NULL","NULL","NULL","NULL",9500,"9500",20.5
"3997","Longview","TX","75607-7001",-94.7273,32.4677,"LeTourneau University",14855,7550,7287,57117.48,"37031","NULL","25740","25740","NULL","NULL","19814",4,3,"3",2,"42","0","0","0","0","0","0","0","0.4066","0.4066","660","28","2173","0.62999999523162",0.40000000596046,72.120002746582,"14.8199996948242","3.20000004768371","16.1700000762939","88.5999984741211","8.9399995803833",23250,"29250",6.9
"3219","Niles","OH","44446",-80.7326,41.2,"Raphael's School of Beauty Culture Inc-Niles",4837,2410,NA,34781.11,"NULL","13768","NULL","NULL","15310","NULL","9002",1,1,"1",3,"NULL","0","0","0","0","0","0","0","NULL","NULL","NULL","NULL","145","0.94999998807907",0.27000001072883,90.4599990844726,"6.98999977111816","0.75999999046325","1.46000003814697","96.3600006103515","6.69000005722046",5500,"8375",10.7
"794","New Castle","DE","19720",-75.587,39.6823,"Wilmington University",9321,3733,6734,55229.33,"16978","NULL","9950","9950","NULL","NULL","15001",4,3,"3",2,"NULL","0","0","0","0","0","0","0","NULL","NULL","NULL","NULL","8475","0.69999998807907",0.20999999344348,73.3799972534179,"20.3600006103515","1.99000000953674","5.05000019073486","92.7799987792968","6.82000017166137",14000,"18192",8.4
"5885","Suffern","NY","10901",-74.0899,41.1239,"Yeshiva Shaarei Torah of Rockland",6264,6645,2563,25146.93,"26750","NULL","9850","9850","NULL","NULL","18750",3,3,"3",2,"80","0","0","0","0","0","0","0","1","1","NULL","NULL","116","0",0,60.7299995422363,"28.6499996185302","5.59000015258789","5.59000015258789","72.9400024414062","12.1599998474121",NA,"NULL",0
"7075","Gardena","CA","90248",-118.2965,33.8583,"Trinity Vocational Center",10616,2574,NA,NA,"NULL","16861","NULL","NULL","25054","NULL","14091",1,1,"1",3,"NULL","0","0","0","0","0","0","0","NULL","NULL","NULL","NULL","90","NULL",NA,NA,"NULL","NULL","NULL","NULL","NULL",15016,"16617",9.6
"2469","Ocean","NJ","07712-4003",-74.041,40.2506,"Empire Beauty School-Ocean",9098,11517,NA,20029.36,"NULL","18265","NULL","NULL","14400","NULL","14439",1,1,"1",3,"NULL","0","0","0","0","0","0","0","NULL","NULL","NULL","NULL","129","0.87999999523162",0.10999999940395,38.6399993896484,"48.5800018310547","2.54999995231628","14.6400003433227","78.3000030517578","15.6800003051757",6406,"9083",18.8
"3069","Bluffton","OH","45817-2104",-83.8977,40.897,"Bluffton University",10693,8243,5189,71456.74,"40078","NULL","28504","28504","NULL","NULL","21353",4,3,"3",2,"69","0","0","0","0","0","0","0","0.5308","0.5308","580","25","941","0.56000000238418",0.10999999940395,92.8600006103515,"3.97000002861023","0.75","2.46000003814697","97.7600021362304","5.88999986648559",19450,"27000",8.4
"7124","Aurora","CO","80014",-104.842,39.6748,"ITT Technical Institute-Aurora",19801,3149,5531,NA,"26832","NULL","18048","18048","NULL","NULL","24570",3,2,"2",3,"NULL","0","0","0","0","0","0","0","0.8388","0.8269","NULL","NULL","247","NULL",NA,NA,"NULL","NULL","NULL","NULL","NULL",14656.5,"25833.5",22.4
"4071","Dallas","TX","75390-9096",-96.8423,32.8195,"University of Texas Southwestern Medical Center",8740,307089,8190,25074,"NULL","NULL","NULL","NULL","NULL","NULL","NULL",4,3,"3",1,"NULL","0","0","0","0","0","0","0","NULL","NULL","NULL","NULL","10","0.58999997377395",0.15000000596046,72.4800033569336,"10.4099998474121","5.71999979019165","21.3799991607666","83.8499984741211","8.22000026702881",NA,"PrivacySuppressed",1.1
"432","Woodland Hills","CA","91371-0002",-118.5772,34.1842,"Los Angeles Pierce College",828,4232,7139,20631.15,"14213","NULL","1221","6161","NULL","8147","NULL",2,2,"2",1,"NULL","0","0","0","0","0","0","0","NULL","NULL","NULL","NULL","17528","0.58999997377395",0.11999999731779,60.7999992370605,"5.30000019073486","10.1000003814697","35.4199981689453","62.7900009155273","11.3400001525878",9500,"11664",20.1
"168","Batesville","AR","72503-3350",-91.6161,35.7929,"University of Arkansas Community College-Batesville",1044,5691,4392,27369.1,"7631","NULL","2166","3942","NULL","2702","NULL",2,1,"1",1,"NULL","0","0","0","0","0","0","0","NULL","NULL","NULL","NULL","1090","0.66000002622604",0.37000000476837,95.1900024414062,"2.19000005722045","0.46000000834465","1.35000002384185","98.5100021362304","10.869999885559",7900,"9350",26.9
"2678","Canandaigua","NY","14424-8395",-77.2418,42.8676,"Finger Lakes Community College",1622,5064,5806,43278.76,"14529","NULL","4256","8090","NULL","10240","NULL",2,2,"2",1,"NULL","0","0","0","0","0","0","0","NULL","NULL","NULL","NULL","4412","0.55000001192092",0.14000000059604,93.0100021362304,"3.78999996185302","0.75","2.40000009536743","96.0599975585937","6.78999996185302",8005,"12000",15.2
"3912","Odessa","TX","79762",-102.3453,31.8626,"American Commercial College-Odessa",3671,6302,NA,18334.83,"NULL","23130","NULL","NULL","11880","NULL","21046",1,1,"1",3,"NULL","0","0","0","0","0","0","0","NULL","NULL","NULL","NULL","23","0.88999998569488",0.34000000357627,77.6500015258789,"6.76999998092651","1.08000004291534","26.1200008392334","91.2799987792968","13.1300001144409",7992,"10146",45.3
"6670","Flint","MI","48507",-83.7595,42.98,"Regency Beauty Institute-Flint",14975,8853,NA,NA,"NULL","23522","NULL","NULL","17300","NULL","19415",1,1,"1",3,"NULL","0","0","0","0","0","0","0","NULL","NULL","NULL","NULL","130","NULL",NA,NA,"NULL","NULL","NULL","NULL","NULL",9500,"14144",14.9
"5051","Altoona","PA","16602-3616",-78.3973,40.5085,"Greater Altoona Career & Technology Center",8849,8398,NA,33969.91,"NULL","14165","NULL","NULL","13188","11251","NULL",1,1,"1",1,"NULL","0","0","0","0","0","0","0","NULL","NULL","NULL","NULL","264","0.73000001907348",0.25,97.2200012207031,"1.51999998092651","0.36000001430511","0.62000000476837","98.6900024414062","9.23999977111816",8693,"9500",13.6
"499","Alhambra","CA","91803",-118.1487,34.0802,"Everest College-Alhambra",9512,4132,NA,22003.95,"NULL","30050","NULL","NULL","21388","NULL","25860",1,1,"1",3,"NULL","0","0","0","0","0","0","0","NULL","NULL","NULL","NULL","561","0.81999999284744",0.18000000715255,50.2400016784668,"5.30000019073486","14.0100002288818","48.0900001525879","60.8199996948242","15.7799997329711",9500,"9500",20.7
"7109","Garland","TX","75042",-96.6832,32.9299,"ABC Beauty Academy",14846,4702,NA,NA,"NULL","9083","NULL","NULL","8503","NULL","5248",1,1,"1",3,"NULL","0","0","0","0","0","0","0","NULL","NULL","NULL","NULL","35","NULL",NA,NA,"NULL","NULL","NULL","NULL","NULL",NA,"NULL",0
"4453","Shell Lake","WI","54871-8727",-91.9165,45.7478,"Wisconsin Indianhead Technical College",1849,13691,6696,40749.79,"13235","NULL","4296","6252","NULL","10053","NULL",2,1,"1",1,"NULL","0","0","0","0","0","0","0","NULL","NULL","NULL","NULL","2956","0.58999997377395",0.20999999344348,94.5999984741211,"0.4699999988079","0.46000000834465","0.91000002622604","98.2200012207031","6.55999994277954",6250,"8000",16.8
"204","Walnut Ridge","AR","72476",-90.9399,36.1268,"Williams Baptist College",7323,5339,5359,46079.94,"22330","NULL","13750","13750","NULL","NULL","11326",3,3,"3",2,"75","0","0","0","0","0","0","0","0.6798","0.6798","510","24","501","0.57999998331069",0.14000000059604,90.870002746582,"6.09999990463257","0.38999998569488","1.70000004768371","98.1800003051758","12.1300001144409",10000,"19000",12.8
"4686","Mount Prospect","IL","60056-2522",-87.9309,42.0741,"Christian Life College",9509,1200,667,48752.6,"23776","NULL","11070","11070","NULL","NULL","18932",3,3,"3",2,"79","0","0","0","0","0","0","0","NULL","NULL","NULL","NULL","41","0.40000000596046",0.20000000298023,87.3199996948242,"2.63000011444091","4.17999982833862","9.53999996185302","84.5999984741211","5.28000020980835",NA,"PrivacySuppressed",6.8
"2694","Troy","NY","12180",-73.6825,42.6965,"Hudson Valley Community College",3482,7636,7548,46662.47,"12832","NULL","4734","12694","NULL","8761","NULL",2,2,"2",1,"NULL","0","0","0","0","0","0","0","NULL","NULL","NULL","NULL","9017","0.49000000953674",0.09000000357627,84.620002746582,"9.80000019073486","2.04999995231628","3.90000009536743","92.75","8.43000030517578",5676.5,"11650",19.5
"4627","Madisonville","KY","42431",-87.4996,37.3449,"Heads West Kentucky Beauty College",2371,5061,NA,14739.53,"NULL","9929","NULL","NULL","12000","NULL","7030",1,1,"1",3,"NULL","0","0","0","0","0","0","0","NULL","NULL","NULL","NULL","62","1",0.28000000119209,88.8499984741211,"9.30000019073486","0.36000001430511","0.98000001907348","98.8099975585937","12.6599998474121",NA,"PrivacySuppressed",0
"6118","Nashville","TN","37214",-86.6656,36.1523,"Remington College-Nashville Campus",10623,6277,3254,17424.25,"30472","NULL","15995","15995","NULL","NULL","26739",2,1,"3",2,"NULL","0","0","0","0","0","0","0","0.7805","0.8315","NULL","NULL","298","0.82999998331069",0.20999999344348,51.1899986267089,"44.9700012207031","1.05999994277954","2.52999997138977","96.4499969482422","15.4499998092651",9500,"9500",9.5
"2716","Orangeburg","NY","10962-2219",-73.9604,41.044,"LIU Hudson at Rockland",21921,13100,12301,57894.33,"NULL","NULL","NULL","NULL","NULL","NULL","NULL",4,4,"3",2,"NULL","0","0","0","0","0","0","0","0.837","NULL","NULL","NULL","NULL","0.68999999761581",0.07000000029802,58.6399993896484,"24.0200004577636","6.38999986648559","15.7799997329711","71.4300003051757","11.9200000762939",18325.5,"25000",9.5
"5562","Poughkeepsie","NY","12601-6599",-73.8666,41.7426,"Dutchess BOCES-Practical Nursing Program",3750,7354,NA,33742.21,"NULL","20289","NULL","NULL","9550","17171","NULL",1,1,"1",1,"NULL","0","0","0","0","0","0","0","0.6667","0.6667","NULL","NULL","151","0.93000000715255",0.30000001192092,75.5,"15.5","2.75999999046325","8.3100004196167","88.0100021362304","8.5",7000,"9500",5.3
"1836","Fall River","MA","02723",-71.1315,41.6918,"Diman Regional Technical Institute",5816,6804,NA,24725.73,"NULL","16898","NULL","NULL","13275","13641","NULL",1,1,"1",1,"NULL","0","0","0","0","0","0","0","0.3433","0.3433","NULL","NULL","80","0.89999997615814",0.23000000417232,89.5800018310547,"2.41000008583068","1.16999995708465","4.36999988555908","83.5500030517578","10.6899995803833",8601,"9500",0
"6413","Burbank","CA","91502-1322",-118.3083,34.1802,"Make-up Designory",25087,9721,NA,NA,"NULL","30703","NULL","NULL","19376","NULL","27893",1,1,"1",3,"NULL","0","0","0","0","0","0","0","NULL","NULL","NULL","NULL","241","NULL",NA,NA,"NULL","NULL","NULL","NULL","NULL",4962,"4962",6.5
"4775","Denville","NJ","07834",-74.4793,40.8775,"Morris County Vocational School District",7089,9244,NA,40560.21,"NULL","15105","NULL","NULL","9868","12324","NULL",1,1,"1",1,"NULL","0","0","0","0","0","0","0","0.4304","0.4304","NULL","NULL","43","0.70999997854232",0.33000001311302,86.3499984741211,"3.25999999046325","5.48999977111816","9.56999969482422","83.6500015258789","3.84999990463256",NA,"7200",6
"4421","Cleveland","WI","53015-1414",-87.7545,43.9248,"Lakeshore Technical College",3472,15248,8218,43145.84,"11438","NULL","3868","5701","NULL","8728","NULL",2,1,"1",1,"NULL","0","0","0","0","0","0","0","NULL","NULL","NULL","NULL","2255","0.70999997854232",0.27000001072883,94.0899963378906,"0.80000001192092","2.53999996185302","2.63000011444091","96.2799987792969","4.07999992370605",6500,"8229.5",11.2
"5131","Fountain Hills","AZ","85268",-111.7149,33.6047,"American Institute of Interior Design",7190,1613,NA,NA,"NULL","18995","NULL","NULL","11900","NULL","15348",1,1,"1",3,"NULL","0","0","0","0","0","0","0","NULL","NULL","NULL","NULL","32","NULL",NA,NA,"NULL","NULL","NULL","NULL","NULL",NA,"8313",0
"1368","Merrillville","IN","46410",-87.3261,41.4737,"Brown Mackie College-Merrillville",10002,2270,3823,26579.11,"23508","NULL","12114","12114","NULL","NULL","18575",3,2,"2",3,"NULL","0","0","0","0","0","0","0","NULL","NULL","NULL","NULL","619","0.85000002384185",0.25,64.3600006103515,"29.6000003814697","0.74000000953674","7.69999980926513","95.1999969482422","10.289999961853",12136.5,"21599",24.6
"7195","Jacksonville","NC","28540-5901",-77.4104,34.7527,"Miller-Motte College-Jacksonville",12894,2739,3403,NA,"26996","NULL","10080","10080","NULL","NULL","22878",2,1,"1",3,"NULL","0","0","0","0","0","0","0","NULL","NULL","NULL","NULL","475","NULL",NA,NA,"NULL","NULL","NULL","NULL","NULL",10935.5,"20000",23.6
"5370","Choctaw","OK","73020-9017",-97.267,35.5169,"Eastern Oklahoma County Technology Center",1360,19138,NA,14348.02,"NULL","9191","NULL","NULL","1350","3014","NULL",1,1,"1",1,"NULL","0","0","0","0","0","0","0","NULL","NULL","NULL","NULL","142","0.38999998569488",0.31999999284744,83.7200012207031,"5.46999979019165","0.68000000715255","3.03999996185302","97.370002746582","7.57000017166137",NA,"NULL",0
"820","Starke","FL","32091",-82.1231,29.9521,"Bradford-Union Technical Center",2421,5695,NA,14937.93,"NULL","7415","NULL","NULL","2919","3765","NULL",1,1,"1",1,"NULL","0","0","0","0","0","0","0","NULL","NULL","NULL","NULL","139","0.88999998569488",0.30000001192092,75.0699996948242,"21.7199993133544","0.73000001907348","2.54999995231628","96.7399978637695","12.6800003051757",NA,"NULL",0
"5111","Monrovia","CA","91016",-118.0006,34.1405,"Mt Sierra College",11062,3183,NA,47438.32,"28093","NULL","13361","13361","NULL","NULL","22995",3,3,"3",3,"NULL","0","0","0","0","0","0","0","NULL","NULL","NULL","NULL","536","0.31999999284744",0.20999999344348,58.25,"6.88000011444091","12.0299997329711","36.0999984741211","70.9000015258789","11.0200004577636",19773,"47869.5",7.6
"5392","Barranquitas","PR","00794",-66.2955,18.1842,"D'Mart Institute",6278,2075,NA,7061.87,"NULL","15016","NULL","NULL","8087","NULL","10420",1,1,"1",3,"NULL","0","0","0","0","0","0","0","0.8146","0.8146","NULL","NULL","1550","0.60000002384185",0.25999999046325,87.1999969482422,"4.23000001907348","0.07000000029802","99.1800003051758","72.3000030517578","53.2999992370605",NA,"NULL",0
"1866","Lowell","MA","01852-1909",-71.3081,42.6437,"Lowell Academy Hairstyling Institute",7720,3135,NA,46219.48,"NULL","18042","NULL","NULL","12390","NULL","14441",1,1,"NULL",3,"NULL","0","0","0","0","0","0","0","NULL","NULL","NULL","NULL","102","0.93999999761581",0.12999999523162,83.1600036621093,"2.25999999046325","6.75","10.2100000381469","83.9100036621093","7.28000020980835",7652,"8181",10
"3312","Moore","OK","73160",-97.4981,35.3583,"Oklahoma School of Photography",8655,6171,NA,35541.23,"NULL","18274","NULL","NULL","10938","NULL","13463",1,1,"1",3,"NULL","0","0","0","0","0","0","0","NULL","NULL","NULL","NULL","44","0.81000000238418",0.34999999403953,81.7200012207031,"5.71000003814697","1.80999994277954","5.23000001907348","94.9000015258789","9.89999961853027",8328,"8423",21.6
"6401","Duluth","MN","55811",-92.1684,46.8086,"Regency Beauty Institute-Duluth",16045,9485,NA,NA,"NULL","24627","NULL","NULL","16200","NULL","20483",1,1,"1",3,"NULL","0","0","0","0","0","0","0","NULL","NULL","NULL","NULL","51","NULL",NA,NA,"NULL","NULL","NULL","NULL","NULL",9500,"14144",14.9
"5104","San Diego","CA","92154",-117.0622,32.5814,"Avance Beauty College",5690,3120,NA,20039.02,"NULL","21368","NULL","NULL","14964","NULL","17474",1,1,"1",3,"NULL","0","0","0","0","0","0","0","NULL","NULL","NULL","NULL","54","0.94999998807907",0.51999998092651,48.7099990844726,"6.48000001907348","10.579999923706","55.6500015258789","64.9199981689453","14.829999923706",7357,"7851",22.8
"840","Jacksonville","FL","32202",-81.6599,30.3349,"Florida State College at Jacksonville",1684,3900,5846,33674.6,"11430","NULL","2830","9944","NULL","7460","NULL",3,2,"2",1,"NULL","0","0","0","0","0","0","0","NULL","NULL","NULL","NULL","25018","0.70999997854232",0.23999999463558,68.5400009155273,"25.2199993133544","2.55999994277954","4.30000019073486","92.4000015258789","9.01000022888183",6063,"9000",17.7
"6702","Los Angeles","CA","90035",-118.3861,34.0457,"Career Development Institute",10570,4620,NA,NA,"NULL","NULL","NULL","NULL","26427","NULL","NULL",1,1,"1",3,"NULL","0","0","0","0","0","0","0","NULL","NULL","NULL","NULL","69","NULL",NA,NA,"NULL","NULL","NULL","NULL","NULL",9500,"16873",26.6
"3222","Kettering","OH","45440",-84.1344,39.6808,"Advertising Art Educational Services DBA School of Advertising Art",22852,4230,4561,61343.22,"37702","NULL","23628","23628","NULL","NULL","33361",2,2,"2",3,"NULL","0","0","0","0","0","0","0","0.6609","0.6609","NULL","NULL","140","0.46000000834465",0.00999999977648,90.6900024414062,"6.71999979019165","0.62000000476837","1.39999997615814","98.0400009155273","5.75",10000,"12000",10.3
"294","Watsonville","CA","95076",-121.768,36.9318,"CET-Watsonville",8722,6365,NA,17218.54,"NULL","15243","NULL","NULL","9958","NULL","11479",1,1,"1",2,"NULL","0","0","0","0","0","0","0","NULL","NULL","NULL","NULL","88","0.49000000953674",0.34999999403953,45.7299995422363,"17.8799991607666","6.26000022888183","49.2999992370605","69.3399963378906","17.1100006103515",5250,"5450",22.2
"6708","Delray Beach","FL","33484",-80.1257,26.4381,"Cambridge Institute of Health & Technology",13828,6056,5420,NA,"NULL","17072","NULL","NULL","45140","NULL","13973",2,2,"2",3,"NULL","0","0","0","0","0","0","0","NULL","NULL","NULL","NULL","204","NULL",NA,NA,"NULL","NULL","NULL","NULL","NULL",19428,"20000",8.3
"4899","Worcester","MA","01609",-71.8076,42.2638,"Rob Roy Academy-Worcester",13345,6635,NA,27612.79,"NULL","18395","NULL","NULL","12500","NULL","15782",1,1,"1",3,"NULL","0","0","0","0","0","0","0","NULL","NULL","NULL","NULL","176","0.73000001907348",0.15000000596046,86.1600036621093,"3.73000001907348","2.97000002861022","9.27000045776367","87.0199966430664","10.1400003433227",6842,"7300",25.8
"6903","DeFuniak Springs","FL","32433",-86.1278,30.733,"Walton Career Development Center",2989,5763,NA,NA,"NULL","15270","NULL","NULL","4496","5085","NULL",1,1,"1",1,"NULL","0","0","0","0","0","0","0","NULL","NULL","NULL","NULL","130","NULL",NA,NA,"NULL","NULL","NULL","NULL","NULL",NA,"NULL",0
"6774","Greenville","NC","27834",-77.4064,35.6047,"Miller-Motte College-Greenville",12918,4161,4134,NA,"26468","NULL","10748","10748","NULL","NULL","21933",2,1,"1",3,"NULL","0","0","0","0","0","0","0","NULL","NULL","NULL","NULL","446","NULL",NA,NA,"NULL","NULL","NULL","NULL","NULL",9501,"22091",20.9
"5849","Houston","TX","77087",-95.2905,29.7009,"Everest Institute-Hobby",10285,4312,NA,19172.42,"NULL","25769","NULL","NULL","18125","NULL","20445",1,1,"1",3,"NULL","0","0","0","0","0","0","0","NULL","NULL","NULL","NULL","557","0.75999999046325",0.25999999046325,57.25,"19.1399993896484","2.67000007629394","43.0499992370605","81.1399993896484","15.3800001144409",9500,"9500",27.1
"97","Lake Havasu City","AZ","86403",-114.3281,34.4753,"Charles of Italy Beauty College",8134,1485,NA,28904.91,"NULL","13838","NULL","NULL","11100","NULL","10819",1,1,"1",3,"NULL","0","0","0","0","0","0","0","NULL","NULL","NULL","NULL","83","0.94999998807907",0.28999999165534,89.8199996948242,"0.62000000476837","0.87999999523162","11.0100002288818","93.120002746582","8.64000034332275",6514,"7389",19.7
"1955","Farmington Hills","MI","48334-4512",-83.3596,42.4914,"Michigan School of Professional Psychology",16046,6689,6890,NA,"NULL","NULL","NULL","NULL","NULL","NULL","NULL",4,4,"3",2,"NULL","0","0","0","0","0","0","0","NULL","NULL","NULL","NULL","NULL","NULL",NA,NA,"NULL","NULL","NULL","NULL","NULL",NA,"NULL",2.7
"1244","Bourbonnais","IL","60914-2271",-87.8737,41.1555,"Olivet Nazarene University",10798,4740,6769,76119.58,"39125","NULL","29890","29890","NULL","NULL","20015",4,3,"3",2,"59","0","0","0","0","0","0","0","0.8196","0.8196","NULL","27","3325","0.64999997615814",0.10999999940395,82.1100006103515,"11.6000003814697","1.76999998092651","6.13000011444091","93.6699981689453","6.73999977111816",19802,"25250",4.7
"4512","Mayaguez","PR","00681-1108",-67.142,18.2016,"ICPR Junior College-Mayaguez",972,1886,2382,8883,"11053","NULL","6504","6504","NULL","NULL","6282",2,1,"1",3,"NULL","0","0","0","0","0","0","0","NULL","NULL","NULL","NULL","596","0.58999997377395",0.17000000178813,82.8899993896484,"6.59999990463257","0.25","98.7600021362304","89.9000015258789","45.7599983215332",NA,"NULL",55
"19","Albertville","AL","35951",-86.2,34.2593,"New Beginning College of Cosmetology",1624,1764,NA,NA,"NULL","13482","NULL","NULL","9150","NULL","9476",1,1,"1",3,"NULL","0","0","0","0","0","0","0","NULL","NULL","NULL","NULL","89","NULL",NA,NA,"NULL","NULL","NULL","NULL","NULL",7901,"9490",0
"6612","Clive","IA","50325",-93.7779,41.6092,"ITT Technical Institute-Clive",22703,4055,4177,NA,"26648","NULL","18048","18048","NULL","NULL","24197",3,2,"2",3,"NULL","0","0","0","0","0","0","0","0.8388","0.9823","NULL","NULL","208","NULL",NA,NA,"NULL","NULL","NULL","NULL","NULL",14656.5,"25833.5",22.4
"2704","Watertown","NY","13601-1897",-75.94,43.9875,"Jefferson Community College",2179,4946,5956,37312.03,"10467","NULL","4397","6365","NULL","6025","NULL",2,2,"2",1,"NULL","0","0","0","0","0","0","0","NULL","NULL","NULL","NULL","3148","0.64999997615814",0.28000000119209,88.8099975585937,"5.84999990463256","0.94999998807907","4.05000019073486","94.1600036621093","10.5",5249.5,"9245",18.2
"3274","Youngstown","OH","44555-0001",-80.6465,41.1056,"Youngstown State University",7742,7008,7905,49278.51,"17350","NULL","8129","8358","NULL","12707","NULL",4,3,"3",1,"NULL","0","0","0","0","0","0","0","NULL","NULL","NULL","NULL","11613","0.56000000238418",0.09000000357627,84.870002746582,"12.3199996948242","0.57999998331069","2.24000000953674","96.75","9.19999980926513",16500,"28000",20.3
"3867","Newbern","TN","38059",-89.2572,36.12,"Tennessee College of Applied Technology-Newbern",1264,5477,NA,20040.68,"NULL","15014","NULL","NULL","3477","7151","NULL",1,1,"1",1,"NULL","0","0","0","0","0","0","0","NULL","NULL","NULL","NULL","240","0.46000000834465",0.34000000357627,85.9599990844726,"12.289999961853","0.25","1.30999994277954","98.6399993896484","12.2299995422363",NA,"NULL",0
"5948","Burr Ridge","IL","60527",-87.9149,41.7613,"Everest College-Burr Ridge",9373,5665,NA,29454.03,"NULL","29495","NULL","NULL","18841","NULL","25232",1,1,"1",3,"NULL","0","0","0","0","0","0","0","NULL","NULL","NULL","NULL","288","0.89999997615814",0.20999999344348,65.3799972534179,"15.0500001907348","5.15000009536743","23.1399993896484","76.0999984741211","8.13000011444091",9500,"9500",15.2
"4870","Hayward","CA","94545",-122.1149,37.6366,"Heald College-Hayward",13819,2291,3206,34850.79,"23574","NULL","13620","13620","NULL","NULL","18773",2,2,"2",3,"NULL","0","0","0","0","0","0","0","NULL","NULL","NULL","NULL","1244","0.68999999761581",0.17000000178813,43.4099998474121,"15.1899995803833","20.1499996185302","26.7299995422363","67.370002746582","8.78999996185302",7834.5,"11250",10.1
"4988","Tampa","FL","33610-5428",-82.39,27.993,"Sanford-Brown Institute-Tampa",8256,2659,3959,34325.12,"21842","NULL","14585","14585","NULL","NULL","14329",2,1,"1",3,"NULL","0","0","0","0","0","0","0","NULL","NULL","NULL","NULL","317","0.87000000476837",0.25999999046325,69.0100021362304,"18.7199993133544","4.23999977111816","14.3100004196167","82.0500030517578","8.92000007629394",9500,"9500",22.1
"300","Rancho Cucamonga","CA","91737-3002",-117.5731,34.1471,"Chaffey College",858,4858,8641,21555.79,"14156","NULL","1153","6145","NULL","7933","NULL",2,2,"2",1,"NULL","0","0","0","0","0","1","0","NULL","NULL","NULL","NULL","17217","0.68999999761581",0.15999999642372,52.7799987792968,"10","5.17999982833862","47.0999984741211","75.6399993896484","11.369999885559",4552,"NULL",10.5
"4367","Clarksburg","WV","26301-2270",-80.328,39.2791,"HRDE-Stanley Technical Institute-Clarksburg",NA,NA,NA,12630.23,"NULL","NULL","NULL","NULL","NULL","NULL","NULL",1,1,"1",2,"NULL","0","0","0","0","0","0","0","NULL","NULL","NULL","NULL","0","0.44999998807907",0.36000001430511,95.9899978637695,"2.14000010490417","0.44999998807907","0.73000001907348","98.7399978637695","16.1599998474121",NA,"NULL",47.9
"4571","Fort Lauderdale","FL","33309",-80.1701,26.1875,"City College-Fort Lauderdale",16437,6160,4257,25835.11,"29676","NULL","15840","15840","NULL","NULL","24458",3,2,"2",2,"NULL","0","0","0","0","0","0","0","NULL","NULL","NULL","NULL","633","0.68999999761581",0.23999999463558,64.9599990844726,"26.25","1.92999994754791","23.9699993133544","70.4100036621093","13.2600002288818",18470,"26300",14.8
"3066","Canton","OH","44710-1797",-81.4042,40.7969,"Aultman College of Nursing and Health Sciences",14864,7822,5982,48235.8,"24311","NULL","17336","17336","NULL","NULL","21401",2,2,"2",2,"NULL","0","0","0","0","0","0","0","1","1","NULL","25","300","0.89999997615814",0.4699999988079,92.1900024414062,"5.61999988555908","0.70999997854232","0.81000000238418","97.5800018310547","6.67999982833862",17150,"19000",5.9
"1606","Midway","KY","40347-1120",-84.6793,38.1444,"Midway College",11621,6789,5459,49200.78,"33132","NULL","22150","22150","NULL","NULL","19290",4,3,"3",2,"61","0","0","0","0","0","0","0","0.5381","0.5381","570","22","1247","0.88999998569488",0.38999998569488,91.9800033569336,"5.40999984741211","0.68000000715255","1.77999997138977","97.4000015258789","11.9600000381469",16750,"22845",10.3
"4043","San Antonio","TX","78212-4299",-98.4963,29.4452,"San Antonio College",2003,5083,6374,24364.37,"9314","NULL","2038","10822","NULL","4461","NULL",2,2,"2",1,"NULL","0","0","0","0","0","0","0","NULL","NULL","NULL","NULL","19524","0.63999998569488",0.20999999344348,70.4100036621093,"6.44000005722046","1.48000001907348","54.6599998474121","86.6600036621093","14.0600004196167",8000,"10537.5",16.1
"7272","Pompano Beach","FL","33060-9238",-80.1219,26.2111,"Progressive Training Centers",7485,3336,NA,NA,"NULL","NULL","NULL","NULL","NULL","NULL","NULL",1,1,"1",3,"NULL","0","0","0","0","0","0","0","NULL","NULL","NULL","NULL","6","NULL",NA,NA,"NULL","NULL","NULL","NULL","NULL",NA,"PrivacySuppressed",0
"3604","Lancaster","PA","17608-0059",-76.3084,40.0411,"Pennsylvania College of Art and Design",20739,8422,3751,80352.82,"28860","NULL","20680","20680","NULL","NULL","24304",3,3,"3",2,"NULL","0","0","0","0","0","0","0","0.3614","0.3614","NULL","NULL","222","0.66000002622604",0.02999999932944,89.8899993896484,"4.96000003814697","1.55999994277954","4.53000020980835","94.1800003051757","5.01000022888183",22500,"27000",12.7
"7325","Salt Lake City","UT","84107",-111.8714,40.6843,"Independence University",7068,2467,1176,NA,"22662","NULL","15728","15728","NULL","NULL","20258",4,2,"2",2,"NULL","0","0","0","0","0","0","0","NULL","NULL","NULL","NULL","1215","NULL",NA,NA,"NULL","NULL","NULL","NULL","NULL",10500,"26336.5",27.1
"599","Fairfield","CA","94534-3197",-122.1202,38.2355,"Solano Community College",601,5780,7930,22022.96,"12671","NULL","1416","7386","NULL","7255","NULL",2,2,"2",1,"NULL","0","0","0","0","0","0","0","NULL","NULL","NULL","NULL","8341","0.6700000166893",0.20999999344348,57.4399986267089,"14.4700002670288","11.6599998474121","18.3600006103515","81.1800003051757","6.78999996185302",7000,"11747",33.7
"1948","Flint","MI","48507-5508",-83.6947,42.9748,"Baker College of Flint",8639,4204,5587,36711.29,"18241","NULL","8100","8100","NULL","NULL","11710",4,2,"2",2,"NULL","0","0","0","0","0","0","0","NULL","NULL","NULL","NULL","4886","0.70999997854232",0.23999999463558,79.9199981689453,"15.1999998092651","1.14999997615814","3.32999992370605","95.5100021362304","8.77999973297119",11666.5,"24314.5",17.6
"5826","Liverpool","NY","13090",-76.2039,43.1159,"Onondaga Cortland Madison BOCES",3172,4164,NA,34563.51,"NULL","12829","NULL","NULL","10400","8703","NULL",1,1,"1",1,"NULL","0","0","0","0","0","0","0","NULL","NULL","NULL","NULL","503","0.73000001907348",0.34000000357627,89.3799972534179,"6.30999994277954","1.39999997615814","1.87999999523162","95.1600036621093","9.28999996185302",6730,"6876",12.8
"1678","New Orleans","LA","70131-7399",-89.9971,29.9125,"Our Lady of Holy Cross College",10544,4026,5485,45705.35,"17887","NULL","9950","9950","NULL","NULL","12151",4,3,"3",2,"30","0","0","0","0","0","0","0","0.4847","0.4847","NULL","NULL","842","0.85000002384185",0.15999999642372,61.560001373291,"32.0200004577636","2.72000002861022","5.36999988555908","93.5800018310547","13.5900001525878",19821.5,"30158.5",5.5
"2315","Saint Louis","MO","63102-2810",-90.2761,38.6295,"Saint Louis Community College",1558,5021,6641,23885.31,"11846","NULL","2940","5970","NULL","7211","NULL",2,2,"2",1,"NULL","0","1","0","0","0","0","0","NULL","NULL","NULL","NULL","21446","0.68000000715255",0.11999999731779,56.560001373291,"39.5400009155273","1.5","1.63999998569488","95.9300003051757","13.1099996566772",6000,"9000",13.2
"4783","Baton Rouge","LA","70806-1529",-91.1138,30.4636,"Delta College of Arts & Technology",6422,1858,4486,20366.37,"NULL","18601","NULL","NULL","23000","NULL","14985",2,1,"1",3,"NULL","0","0","0","0","0","0","0","NULL","NULL","NULL","NULL","678","0.93000000715255",0.25999999046325,55.4300003051757,"41.8899993896484","1.21000003814697","1.47000002861022","97.3600006103515","17.2399997711181",4200,"5500",14.3
"493","Napa","CA","94558-6236",-122.2726,38.2725,"Napa Valley College",986,5065,7747,22695.36,"15178","NULL","1142","5942","NULL","9327","NULL",2,2,"2",1,"NULL","0","0","0","0","0","0","0","NULL","NULL","NULL","NULL","5707","0.66000002622604",0.18999999761581,63.6399993896484,"10.1000003814697","10.2100000381469","20.3899993896484","79.0800018310547","6.69999980926513",8931,"9500",8.6
"4969","Abilene","TX","79605",-99.7471,32.4485,"Texas College of Cosmetology-Abilene",3769,1064,NA,21929.67,"NULL","15232","NULL","NULL","8915","NULL","11929",1,1,"1",3,"NULL","0","0","0","0","0","0","0","NULL","NULL","NULL","NULL","82","0.93000000715255",0.25,81.7099990844726,"6.13000011444091","1.00999999046325","18.5699996948242","94.7399978637695","11.2200002670288",NA,"NULL",24.6
"4933","Durant","OK","74701-1904",-96.4061,33.946,"Kiamichi Technology Center-Durant",762,7115,NA,14773.61,"NULL","4047","NULL","NULL","3874","2165","NULL",1,1,"1",1,"NULL","0","0","0","0","0","0","0","NULL","NULL","NULL","NULL","288","0.69999998807907",0.38999998569488,75.370002746582,"4.94000005722045","0.28000000119209","2.72000002861022","98.1399993896484","16.5499992370605",NA,"NULL",0
"6451","Milwaukee","WI","53222",-88.0487,43.0742,"Milwaukee Career College",13991,6337,3492,NA,"NULL","25163","NULL","NULL","11800","NULL","22972",1,1,"1",3,"NULL","0","0","0","0","0","0","0","0.7207","0.7207","NULL","NULL","88","NULL",NA,NA,"NULL","NULL","NULL","NULL","NULL",7520,"7520",27.6
"6823","Toledo","OH","43615",-83.6653,41.6146,"Lincoln College of Technology-Toledo",15906,8035,3598,NA,"25840","NULL","NULL","NULL","NULL","NULL","23802",2,1,"1",3,"NULL","0","0","0","0","0","0","0","NULL","NULL","NULL","NULL","60","NULL",NA,NA,"NULL","NULL","NULL","NULL","NULL",11372,"12712",NA
"6278","Reno","NV","89521-5862",-119.755,39.4299,"University of Phoenix-Northern Nevada Campus",11372,2712,2281,47023.93,"23487","NULL","NULL","NULL","NULL","NULL","17770",4,3,"3",3,"NULL","0","0","0","0","0","0","0","NULL","NULL","NULL","NULL","129","0.6700000166893",0.44999998807907,69.4700012207031,"15.369999885559","4.13999986648559","16.2299995422363","86.6999969482422","9.60000038146972",18532,"35500",19
"5521","Apopka","FL","32703",-81.4495,28.672,"Golf Academy of America-Altamonte Springs",19740,5632,4338,68758.56,"26104","NULL","16912","16912","NULL","NULL","22695",2,2,"2",3,"NULL","0","0","0","0","0","0","0","1","NULL","NULL","NULL","255","0.00999999977648",0.10999999940395,85.2099990844726,"5.71000003814697","2.94000005722045","7.05000019073486","92.3899993896484","6.34999990463257",12380.5,"19000",22.2
"2196","Moorhead","MS","38761",-90.5021,33.4449,"Mississippi Delta Community College",885,8349,5614,18073.39,"8165","NULL","2450","4058","NULL","3307","NULL",2,2,"2",1,"NULL","0","1","0","0","0","0","0","NULL","NULL","NULL","NULL","2567","0.64999997615814",0.10999999940395,34.2200012207031,"64.1900024414062","0.5","1.25999999046325","98.8199996948242","25.6599998474121",NA,"PrivacySuppressed",0
"3972","Houston","TX","77074-3298",-95.516,29.6944,"Houston Baptist University",13381,7357,6504,52507.59,"36095","NULL","27930","27930","NULL","NULL","19784",4,3,"3",2,"75","0","0","0","0","0","1","0","0.7318","0.7318","590","26","2165","0.73000001907348",0.12999999523162,59.7799987792968,"19","8.28999996185302","22.9799995422363","79.1399993896484","9.01000022888183",12500,"25000",9
"2138","Pine City","MN","55063",-92.9685,45.8088,"Pine Technical College",2406,6592,6652,39839.72,"15646","NULL","4065","7741","NULL","12300","NULL",2,1,"1",1,"NULL","0","0","0","0","0","0","0","NULL","NULL","NULL","NULL","751","0.74000000953674",0.28000000119209,95.9899978637695,"0.68999999761581","0.49000000953674","1.28999996185302","98.25","5.86999988555908",10000,"18527",25.8
"1852","Amherst","MA","01002-5001",-72.5324,42.3248,"Hampshire College",23330,14260,9033,102781.22,"57765","NULL","46625","46625","NULL","NULL","32520",3,3,"3",2,"NULL","0","0","0","0","0","0","0","0.6369","0.6369","NULL","NULL","1468","0.58999997377395",0.00999999977648,81.7699966430664,"7.73999977111816","4.01999998092651","8.06999969482422","87.4199981689453","6.44999980926513",16250,"20000",3.2
"4099","Harlingen","TX","78550-3697",-97.6663,26.2193,"Texas State Technical College-Harlingen",1056,5702,4270,23176.1,"15157","NULL","3264","6504","NULL","9654","NULL",2,2,"2",1,"NULL","0","0","0","0","0","0","0","NULL","NULL","NULL","NULL","3241","0.49000000953674",0.2199999988079,77.5100021362304,"0.93000000715255","0.5","80.8000030517578","78.620002746582","26.25",4168,"6562.5",22.2
"1644","West Monroe","LA","71291-0603",-92.127,32.4999,"Cloyd's Beauty School 1 Inc",5563,3360,NA,11649.82,"NULL","6705","NULL","NULL","6975","NULL","2350",1,1,"1",3,"NULL","0","0","0","0","0","0","0","NULL","NULL","NULL","NULL","51","0.93999999761581",0.27000001072883,78.8600006103515,"19.2800006866455","0.38999998569488","1.37999999523162","98.5899963378906","13.369999885559",NA,"NULL",0
"2197","University","MS","38677-1848",-89.5394,34.3621,"University of Mississippi",8585,9350,8409,68842.41,"21526","NULL","6760","17728","NULL","13858","NULL",4,3,"3",1,"NULL","0","0","0","0","0","0","0","0.5936","0.5936","600","26","16432","0.56999999284744",0.10999999940395,70.4400024414062,"26.5300006866455","1.04999995231628","2.22000002861022","96.9100036621094","12.1700000762939",15750,"21500",7.5
"418","La Verne","CA","91750-4401",-117.7726,34.1009,"University of La Verne",16881,7629,8605,54488.73,"45305","NULL","35000","35000","NULL","NULL","20847",4,3,"3",2,"NULL","0","0","0","0","0","0","0","0.3895","0.3895","580","25","5128","0.73000001907348",0.25999999046325,59.2599983215332,"6.57000017166137","8.56999969482422","38.7000007629394","75.1500015258789","10.7100000381469",22218,"25000",3.8
"1880","Quincy","MA","02169",-71.001,42.247,"Massachusetts School of Barbering",11643,6315,NA,10611.41,"NULL","15998","NULL","NULL","11950","NULL","11438",1,1,"1",3,"NULL","0","0","0","0","0","0","0","NULL","NULL","NULL","NULL","91","0.10000000149011",0.11999999731779,59.9599990844726,"24.8500003814697","5.13000011444091","8.68000030517578","79.1500015258789","11.75",6788,"8731.5",6
"7026","Hollywood","FL","33024",-80.2248,26.0245,"Dade Medical College-Hollywood",21309,7953,5289,NA,"NULL","25975","NULL","NULL","47813","NULL","20603",2,2,"2",3,"NULL","0","0","0","0","0","0","0","NULL","NULL","NULL","NULL","303","NULL",NA,NA,"NULL","NULL","NULL","NULL","NULL",19221,"25430",18.8
"6694","San Fernando","CA","91340-3212",-118.444,34.2849,"Academy of Esthetics and Cosmetology",1248,1045,NA,NA,"NULL","15783","NULL","NULL","14350","NULL","11863",1,1,"1",3,"NULL","0","0","0","0","0","0","0","NULL","NULL","NULL","NULL","23","NULL",NA,NA,"NULL","NULL","NULL","NULL","NULL",3772,"3772",31.5
"2825","Canton","NY","13617-1098",-75.185,44.6073,"SUNY College of Technology at Canton",3280,7630,6057,47967.84,"19394","NULL","7181","11351","NULL","12749","NULL",3,2,"2",1,"NULL","0","0","0","0","0","0","0","0.7824","0.7824","NULL","NULL","3354","0.5",0.07999999821186,85.6699981689453,"7.42000007629394","1","5.90000009536743","91.9300003051757","12.2200002670288",12250,"18500",17.4
"3285","Claremore","OK","74017",-95.6129,36.3126,"Claremore Beauty College",3165,832,NA,20350.56,"NULL","8793","NULL","NULL","7500","NULL","4551",1,1,"1",3,"NULL","0","0","0","0","0","0","0","NULL","NULL","NULL","NULL","17","0.87999999523162",0.43999999761581,78.1699981689453,"1.70000004768371","0.5","2.54999995231628","97.2200012207031","7.67000007629394",NA,"PrivacySuppressed",25
"2425","Concord","NH","03301-4197",-71.5452,43.2074,"University of New Hampshire-School of Law",28198,14694,8747,14332.14,"NULL","NULL","NULL","NULL","NULL","NULL","NULL",4,4,"3",2,"NULL","0","0","0","0","0","0","0","NULL","NULL","NULL","NULL","NULL","0.31999999284744",0.12999999523162,85.6600036621093,"7.09000015258789","3.03999996185302","6.69000005722046","90.6600036621093","6.76000022888183",1400,"PrivacySuppressed",NA
"2324","Cape Girardeau","MO","63701",-89.5291,37.3158,"Southeast Missouri State University",7348,6354,6747,57993.21,"17093","NULL","6863","12195","NULL","12012","NULL",4,3,"3",1,"NULL","0","0","0","0","0","0","0","0.8546","0.8546","595","25","9382","0.62999999523162",0.12999999523162,86.9499969482422,"10.3400001525878","0.73000001907348","1.45000004768371","97.75","10.1000003814697",14000,"22459",11.6
"5916","Kansas City","MO","64131-4504",-94.5749,38.9385,"University of Phoenix-Kansas City Campus",12735,2104,2236,47023.93,"24514","NULL","11320","11320","NULL","NULL","19212",4,3,"3",3,"NULL","0","0","0","0","0","0","0","NULL","NULL","NULL","NULL","517","0.6700000166893",0.44999998807907,69.4700012207031,"15.369999885559","4.13999986648559","16.2299995422363","86.6999969482422","9.60000038146972",18532,"35500",19
"7072","San Leandro","CA","94577-2819",-122.1604,37.7307,"Northern California Institute of Cosmetology Inc",8168,1717,NA,NA,"NULL","16540","NULL","NULL","15000","NULL","12459",1,1,"1",3,"NULL","0","0","0","0","0","0","0","NULL","NULL","NULL","NULL","44","NULL",NA,NA,"NULL","NULL","NULL","NULL","NULL",4600,"5189.5",25
"4030","Carthage","TX","75633-2397",-94.3563,32.1563,"Panola College",1822,4601,5464,21518.34,"12191","NULL","1680","3432","NULL","7734","NULL",2,1,"1",1,"NULL","0","0","0","0","0","0","0","NULL","NULL","NULL","NULL","2699","0.73000001907348",0.2199999988079,71.4300003051757,"23.0100002288818","0.43999999761581","6.76999998092651","95.2900009155273","13.8800001144409",5250,"7000",18.5
"5903","Henderson","NV","89002",-114.9389,35.9872,"Nevada State College",3347,4910,7570,61238.62,"16547","NULL","4482","14758","NULL","11319","NULL",3,3,"3",1,"NULL","0","0","0","0","0","0","0","0.5037","0.5037","NULL","NULL","3076","0.58999997377395",0.12999999523162,80.6600036621093,"3.40000009536743","4.59000015258789","13.3500003814697","87.5199966430664","6.38000011444091",11819.5,"24756",6.9
"281","La Mesa","CA","91941-5055",-117.0243,32.7652,"California Hair Design Academy",7038,2544,NA,41694.17,"NULL","18954","NULL","NULL","15125","NULL","15449",1,1,"1",3,"NULL","0","0","0","0","0","0","0","NULL","NULL","NULL","NULL","219","0.97000002861022",0.20999999344348,67.1299972534179,"7.80999994277954","7.32000017166137","24.2000007629394","79.7399978637695","10.329999923706",6752.5,"7500",14.8
"358","Santa Rosa","CA","95403-2126",-122.7286,38.4678,"Empire College School of Business",16292,6893,3721,39081.12,"NULL","17079","NULL","NULL","17700","NULL","15861",2,1,"1",3,"NULL","0","0","0","0","0","0","0","NULL","NULL","NULL","NULL","412","0.77999997138977",0.25999999046325,79.2600021362304,"1.71000003814697","3.42000007629394","18.8600006103515","83.9599990844726","5.67000007629394",13528,"16500",16.9
"353","Burbank","CA","91502",-118.3097,34.1819,"Marinello Schools of Beauty-Burbank",10572,4778,NA,28499.38,"NULL","18490","NULL","NULL","18511","NULL","14776",1,1,"1",3,"NULL","0","0","0","0","0","0","0","NULL","NULL","NULL","NULL","397","0.94999998807907",0.34000000357627,62.3600006103515,"3.65000009536743","10.789999961853","31.6299991607666","57.4599990844726","13.2200002670288",9736,"10481",18.7
"327","Cupertino","CA","95014",-122.0454,37.3192,"De Anza College",1664,4136,8848,21284.84,"10046","NULL","1542","8022","NULL","4177","NULL",2,2,"2",1,"NULL","0","0","0","0","0","0","0","NULL","NULL","NULL","NULL","20496","0.54000002145767",0.09000000357627,49.9799995422363,"3.50999999046325","28.8799991607666","23.3500003814697","62.5200004577636","5.67000007629394",5629,"PrivacySuppressed",17.1
"908","Miami Lakes","FL","33014",-80.2951,25.9161,"Miami Lakes Educational Center",1716,4735,NA,19458.66,"NULL","12225","NULL","NULL","3935","9011","NULL",1,1,"1",1,"NULL","0","0","0","0","0","0","0","NULL","NULL","NULL","NULL","1158","0.57999998331069",0.20999999344348,44.310001373291,"45.9900016784668","1.24000000953674","38.4300003051757","55.0699996948242","17.25",NA,"NULL",17
"3225","Gallipolis","OH","45631-2600",-82.2568,38.843,"Gallipolis Career College",5435,1176,1810,10839.11,"18570","NULL","11570","11570","NULL","NULL","17414",2,2,"2",3,"NULL","0","0","0","0","0","0","0","NULL","NULL","NULL","NULL","105","0.75999999046325",0.40999999642372,96.4000015258789,"1.82000005245208","0.28999999165534","0.62999999523162","99.0800018310547","14.2600002288818",14375,"34062.5",29.3
"2357","Bozeman","MT","59717",-111.0499,45.6668,"Montana State University",9218,7209,8068,63595.51,"18486","NULL","6752","20717","NULL","16236","NULL",4,3,"3",1,"NULL","0","0","0","0","0","0","0","0.8449","0.8449","630","27","13055","0.49000000953674",0.07999999821186,91.2200012207031,"0.81999999284744","1.11000001430511","2.86999988555908","96.0999984741211","8.57999992370605",14465,"24801",5.7
"6653","Eden Prairie","MN","55344",-93.4416,44.865,"Empire Beauty School-Eden Prairie",8519,10075,NA,NA,"NULL","16232","NULL","NULL","15717","NULL","11846",1,1,"1",3,"NULL","0","0","0","0","0","0","0","NULL","NULL","NULL","NULL","50","NULL",NA,NA,"NULL","NULL","NULL","NULL","NULL",8100,"11096",17.7
"2123","Richfield","MN","55423",-93.2974,44.8654,"Minnesota School of Business-Richfield",20086,4650,4757,45725.56,"30125","NULL","14040","14040","NULL","NULL","22545",4,3,"2",3,"NULL","0","0","0","0","0","0","0","NULL","NULL","NULL","NULL","896","0.69999998807907",0.18999999761581,88.9100036621093,"4.38000011444091","3.00999999046325","2.76999998092651","93.9599990844726","4.73999977111816",21905,"31061.5",15.7
"4556","Mayaguez","PR","00680-1713",-67.1437,18.1933,"Pontifical Catholic University of Puerto Rico-Mayaguez",11686,7395,3645,19995.17,"9351","NULL","4738","4738","NULL","NULL","4549",4,3,"3",2,"30","0","0","0","0","0","0","0","0.497","0.3056","NULL","NULL","1369","0.62000000476837",0.09000000357627,83.8600006103515,"5.23999977111816","0.14000000059604","98.9499969482422","72.6900024414062","50.3199996948242",7500,"13095",26.3
"1619","Saint Catharine","KY","40061",-85.2614,37.7088,"Saint Catharine College",11317,6861,4372,48989.06,"30957","NULL","18106","18106","NULL","NULL","19292",4,2,"2",2,"30","0","0","0","0","0","0","0","NULL","NULL","NULL","NULL","605","0.68000000715255",0.14000000059604,88.370002746582,"9.31999969482422","0.60000002384185","1.40999996662139","97.9599990844726","11.1999998092651",14875,"22750",15.1
"6743","Staten Island","NY","10301",-74.0782,40.6414,"Career School of NY",3520,1586,NA,NA,"NULL","10818","NULL","NULL","10345","NULL","6721",1,1,"1",2,"NULL","0","0","0","0","0","0","0","NULL","NULL","NULL","NULL","62","NULL",NA,NA,"NULL","NULL","NULL","NULL","NULL",4536,"5051",24.6
"4544","Utuado","PR","00641",-66.7223,18.2662,"University of Puerto Rico-Utuado",741,5856,5310,25464.65,"12781","NULL","2014","4036","NULL","8016","NULL",3,2,"2",1,"NULL","0","0","0","0","0","0","0","0.4908","0.4908","NULL","NULL","1504","0.62999999523162",0.02999999932944,82.1399993896484,"7.09000015258789","0.20000000298023","98.7200012207031","80.0199966430664","45.7299995422363",3500,"4625",11.8
"7422","Baton Rouge","LA","70808-2300",-91.1516,30.423,"University of Phoenix-Baton Rouge Campus",11792,2303,1446,NA,"23154","NULL","10240","10240","NULL","NULL","18174",4,3,"3",3,"NULL","0","0","0","0","0","0","0","NULL","NULL","NULL","NULL","470","NULL",NA,NA,"NULL","NULL","NULL","NULL","NULL",18532,"35500",19
"3943","Corpus Christi","TX","78412-5503",-97.3319,27.7186,"Texas A & M University-Corpus Christi",6678,6107,7505,51268.6,"17782","NULL","7172","15668","NULL","13404","NULL",4,3,"3",1,"NULL","0","0","0","0","0","0","0","0.9258","0.9258","540","24","9137","0.62999999523162",0.11999999731779,75.5599975585937,"5.13999986648559","1.63999998569488","45.3499984741211","90.4199981689453","13.2100000381469",13500,"22750",12.1
"2665","Jamaica","NY","11451",-73.7946,40.7027,"CUNY York College",3308,8154,7001,25815.23,"13967","NULL","6096","12606","NULL","5380","NULL",4,3,"3",1,"NULL","0","0","0","0","0","0","0","0.351","0.351","510","NULL","7361","0.6700000166893",0.10999999940395,25.8199996948242,"46.7700004577636","8.71000003814697","23.0499992370605","57.5200004577636","16.6000003814697",7000,"10000",10.1
"6119","Oklahoma City","OK","73134",-97.5638,35.6111,"Platt College-North OKC",11412,4353,3989,22822.44,"NULL","25744","NULL","NULL","31720","NULL","21793",3,2,"1",3,"NULL","0","0","0","0","0","0","0","NULL","NULL","NULL","NULL","266","0.83999997377395",0.34000000357627,71.8000030517578,"13.5100002288818","2.1800000667572","7.25","93.2399978637695","10.7600002288818",9500,"12000",17
"7435","Montgomery","AL","36117",-86.2027,32.3846,"Fortis College-Montgomery",5374,2068,5208,NA,"NULL","24465","NULL","NULL","39959","NULL","12232",1,1,"1",3,"NULL","0","0","0","0","0","0","0","NULL","NULL","NULL","NULL","192","NULL",NA,NA,"NULL","NULL","NULL","NULL","NULL",9413.5,"11692",12.2
"4327","Seattle","WA","98122",-122.3215,47.6167,"Seattle Central College",3426,6141,6194,13725.09,"12324","NULL","3893","9083","NULL","5366","NULL",3,2,"2",1,"NULL","0","0","0","0","0","0","0","NULL","NULL","NULL","NULL","3116","0.62000000476837",0.12999999523162,63.0699996948242,"11.8999996185302","15.0699996948242","6.78000020980835","79.4800033569336","9.14999961853027",3500,"PrivacySuppressed",0
"6062","Far Rockaway","NY","11691",-73.7515,40.5968,"Beis Medrash Heichal Dovid",11201,5623,4560,38342.17,"16000","NULL","8000","8000","NULL","NULL","9232",4,3,"3",2,"80","0","0","0","0","0","0","0","1","1","NULL","NULL","96","0",0,58.0299987792968,"25.8600006103515","5.71000003814697","14.369999885559","66.0999984741211","16.0499992370605",NA,"NULL",0
"2734","New York","NY","10002-6301",-73.9913,40.7138,"Mesivtha Tifereth Jerusalem of America",8603,22217,3434,32419.82,"14400","NULL","9500","9500","NULL","NULL","7900",4,3,"3",2,"80","0","0","0","0","0","0","0","0.8","0.8","NULL","NULL","50","0",0,70.1800003051757,"11.2100000381469","4.98999977111816","20.1599998474121","71.1999969482422","12.539999961853",NA,"NULL",0
"344","Berkeley","CA","94708-1816",-122.2646,37.8811,"Dominican School of Philosophy & Theology",12206,15214,2739,NA,"NULL","NULL","NULL","NULL","NULL","NULL","NULL",4,4,"NULL",2,"30","0","0","0","0","0","0","0","NULL","NULL","NULL","NULL","NULL","NULL",NA,NA,"NULL","NULL","NULL","NULL","NULL",NA,"NULL",6.6
"5610","Kenner","LA","70062",-90.2409,30.0015,"Herzing University-Kenner",6655,5976,4158,28795.25,"27524","NULL","11150","11150","NULL","NULL","23674",3,2,"2",3,"NULL","0","0","0","0","0","0","0","0.749","0.6486","NULL","NULL","305","0.6700000166893",0.25999999046325,56.4399986267089,"35.2099990844726","2.57999992370605","9.5","87.9400024414062","11.3199996948242",12000,"22822",16.9
"5171","Louisville","KY","40219",-85.6843,38.1562,"Daymar College-Louisville",18190,5220,3256,22833.46,"29943","NULL","18000","18000","NULL","NULL","25972",3,2,"2",3,"NULL","0","0","0","0","0","0","0","NULL","NULL","NULL","NULL","189","0.80000001192092",0.34999999403953,87.120002746582,"10.289999961853","0.6700000166893","1.40999996662139","97.6100006103515","11.2600002288818",13736.5,"23563",24.1
"5207","Federal Way","WA","98003",-122.3051,47.3203,"Gene Juarez Academy of Beauty-Federal Way",8285,3228,NA,55206.45,"NULL","19454","NULL","NULL","17100","NULL","13801",1,1,"1",3,"NULL","0","0","0","0","0","0","0","NULL","NULL","NULL","NULL","360","0.9200000166893",0.12999999523162,79.1399993896484,"4.19999980926513","7.28999996185302","5.86999988555908","87.3399963378906","6.55000019073486",10555,"11228",21.3
"1175","Chicago","IL","60616-3878",-87.623,41.8354,"Illinois College of Optometry",36024,15532,8420,14742.45,"NULL","NULL","NULL","NULL","NULL","NULL","NULL",4,4,"3",2,"NULL","0","0","0","0","0","0","0","NULL","NULL","NULL","NULL","NULL","0.6700000166893",0.07999999821186,82.1399993896484,"5.28000020980835","5.80999994277954","8.9399995803833","87.5400009155273","5.46000003814697",4500,"4500",0
"5246","Decatur","GA","30030",-84.2945,33.7765,"Laurus Technical Institute",11822,3683,NA,24197.12,"NULL","22418","NULL","NULL","15976","NULL","17450",1,1,"1",3,"NULL","0","0","0","0","0","0","0","NULL","NULL","NULL","NULL","477","0.44999998807907",0.25999999046325,38.1100006103515,"54.8300018310547","2.65000009536743","5.30000019073486","90.0400009155273","10.7200002670288",9500,"9500",15.5
"4876","Glendale","CA","91203",-118.2554,34.1489,"North-West College-Glendale",4900,2651,NA,21743,"NULL","20837","NULL","NULL","13408","NULL","15352",1,1,"1",3,"NULL","0","0","0","0","0","0","0","1","1","NULL","NULL","177","0.83999997377395",0.27000001072883,50.0200004577636,"3.27999997138977","14.0200004577636","51.1399993896484","56.8199996948242","13.4600000381469",7030,"7818",11.1
"7301","Colorado Springs","CO","80906-4944",-104.8086,38.7786,"Colorado Academy of Veterinary Technology",7252,2006,NA,NA,"23319","NULL","15223","15223","NULL","NULL","21211",2,2,"2",3,"NULL","0","0","0","0","0","0","0","0.8","0.8","NULL","NULL","86","NULL",NA,NA,"NULL","NULL","NULL","NULL","NULL",9500,"PrivacySuppressed",0
"1988","Flint","MI","48504-6214",-83.7144,43.0131,"Kettering University",20318,11438,7704,88987.34,"49303","NULL","35600","35600","NULL","NULL","30683",4,3,"3",2,"NULL","0","0","0","0","0","0","0","0.6159","0.6159","660","30","1640","0.15999999642372",0.01999999955296,86.5899963378906,"7.82000017166137","1.91999995708465","3.88000011444091","94.2399978637695","5.92000007629394",22500,"26761.5",5.3
"5441","Afton","OK","74331",-94.9291,36.7304,"Northeast Technology Center-Afton",865,8172,NA,19185.01,"NULL","17048","NULL","NULL","1969","15026","NULL",1,1,"1",1,"NULL","0","0","0","0","0","0","0","NULL","NULL","NULL","NULL","122","0.63999998569488",0.40999999642372,71.5400009155273,"0.82999998331069","0.30000001192092","2.88000011444091","97.7699966430664","12.7600002288818",NA,"NULL",0
"3141","Canton","OH","44720-7599",-81.4373,40.8686,"Kent State University at Stark",5984,4781,6770,61046.44,"13118","NULL","5554","13514","NULL","9949","NULL",3,2,"3",1,"NULL","0","0","0","0","0","0","0","0.8302","NULL","NULL","NULL","4680","0.62000000476837",0.09000000357627,90.2099990844726,"7","0.9200000166893","1.41999995708465","96.6500015258789","6.92000007629394",16500,"26225",14.7
"45","Evergreen","AL","36401",-86.9645,31.4607,"Reid State Technical College",1331,5559,5875,16238.09,"9693","NULL","4260","7590","NULL","4912","NULL",2,1,"1",1,"NULL","0","0","0","0","0","0","0","NULL","NULL","NULL","NULL","414","0.75999999046325",0.25999999046325,61.310001373291,"36.5400009155273","0.30000001192092","0.93000000715255","98.8899993896484","18.5699996948242",NA,"NULL",0
"7326","Tulsa","OK","74133-8945",-95.9043,36.0469,"National American University-Tulsa",12927,463,3350,NA,"NULL","NULL","NULL","NULL","NULL","NULL","NULL",3,3,"2",3,"NULL","0","0","0","0","0","0","0","NULL","NULL","NULL","NULL","251","NULL",NA,NA,"NULL","NULL","NULL","NULL","NULL",10490.5,"34486",21.4
"4089","Odessa","TX","79762-0001",-102.3296,31.8895,"The University of Texas of the Permian Basin",5242,8991,7196,40708.66,"14292","NULL","5250","13674","NULL","7688","NULL",4,3,"3",1,"NULL","0","0","0","0","0","0","0","0.8401","0.8401","570","24","2947","0.62999999523162",0.25999999046325,76.0999984741211,"5.30999994277954","0.9200000166893","37.2299995422363","89.6500015258789","14.2100000381469",9015.5,"13750",11.5
"802","Washington","DC","20057-0001",-77.0735,38.9088,"Georgetown University",35085,29282,12851,87179.34,"59900","NULL","44805","44805","NULL","NULL","27801",4,3,"3",2,"30","0","0","0","0","0","0","0","0.1697","0.1697","750","NULL","7261","0.54000002145767",0.03999999910593,75.3499984741211,"11.4399995803833","5.90999984741211","11.0299997329711","83.2300033569336","6.53999996185302",17125,"17500",0.9
"6354","Madison","TN","37115",-86.7047,36.2882,"Miller-Motte Technical College-Madison",13069,4210,3644,NA,"25579","NULL","10800","10800","NULL","NULL","20881",2,1,"1",3,"NULL","0","0","0","0","0","0","0","NULL","NULL","NULL","NULL","425","NULL",NA,NA,"NULL","NULL","NULL","NULL","NULL",9501,"22091",20.9
"4101","Lubbock","TX","79430",-101.8936,33.5932,"Texas Tech University Health Sciences Center",7986,46808,8072,58138.43,"NULL","NULL","NULL","NULL","NULL","NULL","NULL",4,3,"3",1,"NULL","0","0","0","0","0","0","0","NULL","NULL","NULL","NULL","1346","0.76999998092651",0.30000001192092,77.5,"7.40000009536743","2.53999996185302","22.8999996185302","90.6999969482422","9.19999980926513",12500,"12500",2.2
"5243","Hartford","CT","06105",-72.6942,41.7666,"Lincoln Technical Institute-Hartford",26252,9982,NA,57223.79,"NULL","30575","NULL","NULL","27500","NULL","27662",1,1,"1",3,"NULL","0","0","0","0","0","0","0","NULL","NULL","NULL","NULL","575","0.43999999761581",0.15000000596046,82.1999969482422,"8.73999977111816","1.83000004291534","9.48999977111816","87.2900009155273","7.36999988555908",13303,"19289.5",25
"6901","Wethersfield","CT","06109",-72.662,41.7077,"International Institute of Cosmetology",9152,6914,NA,NA,"NULL","18259","NULL","NULL","19200","NULL","16139",1,1,"1",3,"NULL","0","0","0","0","0","0","0","NULL","NULL","NULL","NULL","132","NULL",NA,NA,"NULL","NULL","NULL","NULL","NULL",9833,"9833",5.2
"4669","Duncan","OK","73533",-97.9905,34.4911,"Red River Technology Center",669,2493,NA,15173.88,"NULL","16311","NULL","NULL","3696","10560","NULL",1,1,"1",1,"NULL","0","0","0","0","0","0","0","NULL","NULL","NULL","NULL","106","0.66000002622604",0.40999999642372,87.6900024414062,"2.44000005722045","0.43999999761581","4.80000019073486","97.3899993896484","11.8400001525878",NA,"NULL",0
"5254","Memphis","TN","38132",-89.9899,35.0714,"Remington College-Memphis Campus",9698,3374,3197,17424.25,"28080","NULL","15995","15995","NULL","NULL","23712",2,1,"3",2,"NULL","0","0","0","0","0","0","0","0.7805","0.6973","NULL","NULL","814","0.82999998331069",0.20999999344348,51.1899986267089,"44.9700012207031","1.05999994277954","2.52999997138977","96.4499969482422","15.4499998092651",9500,"9500",9.5
"2019","Dearborn","MI","48128-1491",-83.2314,42.3173,"University of Michigan-Dearborn",10945,9628,8640,53031.88,"15831","NULL","10614","23124","NULL","9800","NULL",4,3,"3",1,"NULL","0","0","0","0","0","0","0","0.6284","0.6284","660","27","6793","0.57999998331069",0.14000000059604,76.2600021362304,"16.1499996185302","2.48000001907348","3.10999989509582","87.7200012207031","8.73999977111816",18750,"25000",8.1
"2042","Detroit","MI","48206-1799",-83.1117,42.3752,"Sacred Heart Major Seminary",14186,12647,3946,32847.65,"NULL","NULL","17000","17000","NULL","NULL","NULL",4,3,"3",2,"30","0","0","0","0","0","0","0","1","1","NULL","NULL","154","0.56999999284744",0.2199999988079,91.1399993896484,"3.00999999046325","2.69000005722045","2.42000007629394","91.3399963378906","4.92999982833862",NA,"PrivacySuppressed",3.4
"5007","Denver","CO","80206",-104.9595,39.7391,"Colorado School of Traditional Chinese Medicine",12081,2748,NA,NA,"NULL","NULL","NULL","NULL","NULL","NULL","NULL",4,4,"2",3,"NULL","0","0","0","0","0","0","0","NULL","NULL","NULL","NULL","NULL","PrivacySuppressed",NA,NA,"PrivacySuppressed","PrivacySuppressed","PrivacySuppressed","PrivacySuppressed","PrivacySuppressed",NA,"NULL",5.7
"6556","West Springfield","MA","01089",-72.6303,42.1463,"DiGrigoli School of Cosmetology",5476,1236,NA,NA,"NULL","15806","NULL","NULL","11700","NULL","10653",1,1,"1",3,"NULL","0","0","0","0","0","0","0","NULL","NULL","NULL","NULL","25","NULL",NA,NA,"NULL","NULL","NULL","NULL","NULL",6222,"6590.5",29.4
"6353","Houma","LA","70363",-90.6884,29.5778,"Unitech Training Academy-Houma",8494,4558,NA,NA,"NULL","25548","NULL","NULL","13245","NULL","20706",1,1,"1",3,"NULL","0","0","0","0","0","0","0","NULL","NULL","NULL","NULL","70","NULL",NA,NA,"NULL","NULL","NULL","NULL","NULL",5736,"7248",33.5
"2636","Buffalo","NY","14223",-78.83,42.9582,"Continental School of Beauty Culture-Buffalo",9032,1367,NA,30586.46,"NULL","16049","NULL","NULL","11900","NULL","12102",1,1,"1",3,"NULL","0","0","0","0","0","0","0","NULL","NULL","NULL","NULL","124","0.94999998807907",0.20000000298023,76.0899963378906,"18.6100006103515","1.14999997615814","4.38999986648559","94.4100036621093","13.5100002288818",7849.5,"9500",9.3
"4770","McAlester","OK","74501",-95.7647,34.9478,"American Beauty Institute",5052,3696,NA,17619.38,"NULL","13440","NULL","NULL","12800","NULL","6557",1,1,"1",3,"NULL","0","0","0","0","0","0","0","NULL","NULL","NULL","NULL","17","0.94999998807907",0.34999999403953,75.5199966430664,"4.76000022888183","0.2199999988079","2.10999989509582","98.3899993896484","14.6599998474121",NA,"PrivacySuppressed",NA
"5011","Phoenix","AZ","85018-7607",-111.9906,33.4804,"Phoenix Seminary",9330,11851,5924,NA,"NULL","NULL","NULL","NULL","NULL","NULL","NULL",4,4,"NULL",2,"42","0","0","0","0","0","0","0","NULL","NULL","NULL","NULL","NULL","NULL",NA,NA,"NULL","NULL","NULL","NULL","NULL",NA,"NULL",0
"390","Claremont","CA","91711",-117.7106,34.1061,"Harvey Mudd College",26798,27810,12450,104063.05,"60613","NULL","46509","46509","NULL","NULL","24311",3,3,"3",2,"NULL","0","0","0","0","0","0","0","0.1817","0.1817","800","36","803","0.36000001430511",0,71.75,"4.30000019073486","12.3599996566772","15.5299997329711","79.9300003051757","6.28999996185302",25000,"25696",0
"6554","Indianapolis","IN","46278",-86.2694,39.8742,"MyComputerCareer.com-Indianapolis",8139,547,NA,NA,"NULL","25780","NULL","NULL","11280","NULL","21832",1,1,"1",3,"NULL","0","0","0","0","0","0","0","NULL","NULL","NULL","NULL","208","NULL",NA,NA,"NULL","NULL","NULL","NULL","NULL",7612,"7652",28.3
"4291","Cheney","WA","99004-2496",-117.5894,47.4913,"Eastern Washington University",7467,6495,7287,55129.84,"19831","NULL","7961","19612","NULL","12983","NULL",4,3,"3",1,"NULL","0","0","0","0","0","0","0","0.7967","0.7967","550","24","11672","0.60000002384185",0.14000000059604,86.0800018310547,"1.94000005722045","3.06999993324279","6.90999984741211","91.5400009155273","8.89999961853027",15265,"20500",6.3
"7323","Hanover","MD","21076-1577",-76.7269,39.1707,"ITT Technical Institute-Hanover",11846,1608,4284,NA,"26226","NULL","18048","18048","NULL","NULL","22131",0,0,"2",3,"NULL","0","0","0","0","0","0","0","0.8388","0.8446","NULL","NULL","313","NULL",NA,NA,"NULL","NULL","NULL","NULL","NULL",14656.5,"25833.5",22.4
"4930","Omega","OK","73764-6335",-98.2018,35.8422,"Chisholm Trail Technology Center",33,5064,NA,16566.78,"NULL","6676","NULL","NULL","2926","1634","NULL",1,1,"1",1,"NULL","0","0","0","0","0","0","0","NULL","NULL","NULL","NULL","96","0.83999997377395",0.33000001311302,81.5599975585937,"5.09999990463256","0.56000000238418","6.65000009536743","95.8099975585937","10.4399995803833",NA,"NULL",0
"5604","Smithville","OH","44677",-81.8689,40.8638,"Wayne County Schools Career Center",3532,2696,NA,35907.9,"NULL","14770","NULL","NULL","12450","4070","NULL",1,1,"1",1,"NULL","0","0","0","0","0","0","0","NULL","NULL","NULL","NULL","352","0.93000000715255",0.54000002145767,96.7200012207031,"1.53999996185302","0.56000000238418","0.75999999046325","97.9100036621094","5.82999992370605",5500,"8729",16.9
"1084","Kahului","HI","96732-1643",-156.4799,20.8906,"University of Hawaii Maui College",2069,10274,7565,27150.56,"11240","NULL","2670","7422","NULL","6706","NULL",3,2,"2",1,"NULL","0","0","1","0","0","0","0","NULL","NULL","NULL","NULL","3553","0.72000002861022",0.17000000178813,34.3899993896484,"0.69999998807907","28.9899997711181","8.0600004196167","83.7300033569336","8.19999980926513",9500,"13425",26.3
"1127","Chicago","IL","60629",-87.6906,41.779,"Capri Beauty College",6202,2340,NA,13512.54,"NULL","20177","NULL","NULL","16200","NULL","16504",1,1,"1",3,"NULL","0","0","0","0","0","0","0","NULL","NULL","NULL","NULL","32","0.98000001907348",0.07000000029802,18.1900005340576,"72.9000015258789","1.00999999046325","11.8000001907348","90.9400024414062","20.75",9833,"12500",10
"5054","New York","NY","10031-1896",-73.9438,40.8292,"Dance Theatre of Harlem Inc",17003,55380,NA,NA,"29687","NULL","6300","6300","NULL","NULL","26545",1,1,"NULL",2,"NULL","0","0","0","0","0","0","0","0.4783","0.4783","NULL","NULL","11","NULL",NA,NA,"NULL","NULL","NULL","NULL","NULL",NA,"NULL",0
"6602","Austin","TX","78728",-97.6764,30.4796,"The Art Institute of Austin",14482,2789,4413,NA,"31680","NULL","17668","17668","NULL","NULL","27431",3,3,"3",3,"NULL","0","0","0","0","0","0","0","NULL","NULL","NULL","NULL","1413","NULL",NA,NA,"NULL","NULL","NULL","NULL","NULL",12667,"30500",22.8
"7018","Arlington","TX","76010",-97.0615,32.708,"Kaplan College-Arlington",8679,2078,3002,NA,"NULL","25009","NULL","NULL","14790","NULL","20922",2,1,"1",3,"NULL","0","0","0","0","0","0","0","NULL","NULL","NULL","NULL","416","NULL",NA,NA,"NULL","NULL","NULL","NULL","NULL",9103,"9413",25.7
"271","Riverside","CA","92521",-117.3311,33.9759,"University of California-Riverside",11937,10473,11324,57708.66,"29787","NULL","12960","35838","NULL","11473","NULL",4,3,"3",1,"NULL","0","0","0","0","0","0","0","0.62","0.62","630","27","18612","0.56999999284744",0.02999999932944,53.9000015258789,"7.03999996185302","14.4099998474121","36.5499992370605","69.7099990844726","11.289999961853",17000,"19500",6.1
"2090","Granite Falls","MN","56241",-95.5617,44.8076,"Minnesota West Community and Technical College",3288,7192,6844,45117.72,"14665","NULL","5660","10807","NULL","10402","NULL",2,1,"1",1,"NULL","0","0","0","0","0","0","0","NULL","NULL","NULL","NULL","2165","0.52999997138977",0.15999999642372,92.0299987792968,"2.42000007629394","1.25999999046325","4.03000020980835","96.1500015258789","7.11999988555908",10307,"12827.5",16
"4822","Madera","CA","93637",-120.0578,36.9515,"Madera Beauty College",6164,6800,NA,11397.73,"NULL","17165","NULL","NULL","10000","NULL","12005",1,1,"1",3,"NULL","0","0","0","0","0","0","0","NULL","NULL","NULL","NULL","55","0.98000001907348",0.2199999988079,53.9000015258789,"4.65999984741211","2.27999997138977","55.9000015258789","73.3399963378906","19.1000003814697",NA,"NULL",0
"3033","Devils Lake","ND","58301-1598",-98.869,48.1279,"Lake Region State College",3484,6335,5845,41050.36,"12414","NULL","4037","4037","NULL","8325","NULL",2,2,"2",1,"NULL","0","0","0","0","0","0","0","NULL","NULL","NULL","NULL","661","0.58999997377395",0.2199999988079,89.6800003051757,"0.95999997854232","0.49000000953674","1.19000005722045","97.1100006103515","9.77000045776367",7296,"8650",11.9
"1889","Watertown","MA","02472",-71.1907,42.3617,"Cortiva Institute-Boston",18180,11988,NA,51702.55,"NULL","24012","NULL","NULL","11982","NULL","22123",1,1,"1",3,"NULL","0","0","0","0","0","0","0","NULL","NULL","NULL","NULL","210","0.74000000953674",0.23999999463558,81.4599990844726,"7.34999990463257","4.65999984741211","6.75","82.3399963378906","7.03000020980835",7917,"7917",7.6
"3975","Houston","TX","77002-1014",-95.3595,29.7638,"University of Houston-Downtown",6072,4306,7279,32529.26,"18879","NULL","5238","13734","NULL","10898","NULL",4,3,"3",1,"NULL","0","0","0","0","0","1","0","0.9509","0.9509","510","22","13297","0.62999999523162",0.15999999642372,53.6899986267089,"23.1000003814697","5.46999979019165","33.1899986267089","76.9400024414062","13.4300003051757",13000,"21000",12.1
"1773","Towson","MD","21204-9840",-76.6046,39.4033,"Fortis Institute-Towson",6795,3205,NA,25740.57,"NULL","20841","NULL","NULL","17011","NULL","17574",1,1,"1",3,"NULL","0","0","0","0","0","0","0","NULL","NULL","NULL","NULL","748","0.87000000476837",0.23000000417232,55.6199989318847,"38.4199981689453","2.16000008583068","4.19000005722045","91.7099990844726","9.93000030517578",9866.5,"12868",12.1
"6271","Manchester","NH","03101",-71.4688,42.9978,"Seacoast Career School-Manchester Campus",6442,3000,NA,36400.81,"NULL","29413","NULL","NULL","12800","NULL","25418",1,1,"1",3,"NULL","0","0","0","0","0","0","0","NULL","NULL","NULL","NULL","321","0.9200000166893",0.31999999284744,94.9300003051757,"1.15999996662139","1.45000004768371","2.48000001907348","93.6100006103515","6.3600001335144",8152,"8708",22.4
"4208","Big Stone Gap","VA","24219",-82.7585,36.8551,"Mountain Empire Community College",1381,5349,5917,20220.66,"9755","NULL","3192","7862","NULL","4609","NULL",2,1,"1",1,"NULL","0","0","0","0","0","0","0","NULL","NULL","NULL","NULL","1899","0.62999999523162",0.30000001192092,97.0299987792969,"1.71000003814697","0.25999999046325","0.61000001430511","99.25","16.7700004577636",NA,"PrivacySuppressed",0
"4863","Medina","OH","44256",-81.7287,41.1358,"Hamrick School",9957,5893,NA,34608.12,"NULL","14648","NULL","NULL","9727","NULL","12059",1,1,"1",3,"NULL","0","0","0","0","0","0","0","NULL","NULL","NULL","NULL","187","0.18000000715255",0.50999999046325,82.9300003051757,"12.8000001907348","1.00999999046325","3.09999990463256","95.4300003051757","9",5481,"5481",26.3
"412","El Cajon","CA","92021",-116.9457,32.7948,"Bellus Academy-El Cajon",11920,3899,NA,38735.69,"NULL","29995","NULL","NULL","20850","NULL","24926",1,1,"1",3,"NULL","0","0","0","0","0","0","0","NULL","NULL","NULL","NULL","184","0.95999997854232",0.25999999046325,71.1299972534179,"6.03000020980835","6.07999992370605","22.2900009155273","81.8899993896484","9.57999992370605",8407,"10556",12.2
"2396","Omaha","NE","68137",-96.0979,41.2172,"Vatterott College-Spring Valley",9595,2689,3611,26148.58,"21473","NULL","12538","12538","NULL","NULL","15632",2,1,"1",3,"NULL","0","0","0","0","0","0","0","NULL","NULL","NULL","NULL","330","0.70999997854232",0.25999999046325,80.4000015258789,"12.7799997329711","1.40999996662139","5.88999986648559","94.2699966430664","8.10999965667724",14250,"20000",17.7
"1131","Chicago","IL","60615-5698",-87.5858,41.7981,"Catholic Theological Union at Chicago",15761,21222,7394,NA,"NULL","NULL","NULL","NULL","NULL","NULL","NULL",4,4,"NULL",2,"30","0","0","0","0","0","0","0","NULL","NULL","NULL","NULL","NULL","NULL",NA,NA,"NULL","NULL","NULL","NULL","NULL",NA,"NULL",2
"4102","Tyler","TX","75701",-95.2841,32.336,"Tyler Junior College",1713,3894,5121,33846.67,"12655","NULL","2352","4362","NULL","8229","NULL",2,2,"2",1,"NULL","0","0","0","0","0","0","0","NULL","NULL","NULL","NULL","11308","0.60000002384185",0.18999999761581,74.0999984741211,"17.2900009155273","0.87999999523162","11.5200004577636","92.8300018310547","11.2100000381469",7055,"12598.5",20.7
"5163","Saint Petersburg","FL","33716",-82.6402,27.8587,"Galen College of Nursing-Tampa Bay",12273,6045,5372,38924.91,"NULL","23898","NULL","NULL","33040","NULL","21192",2,2,"1",3,"NULL","0","0","0","0","0","0","0","0.6162","0.5667","NULL","NULL","790","0.87000000476837",0.37000000476837,77.2600021362304,"13.5500001907348","1.53999996185302","15.8900003433227","92.0400009155273","9.96000003814697",15800,"20890",10.3
"2133","Eagan","MN","55121-1576",-93.1351,44.8601,"Northwest Technical Institute",31678,9268,NA,68685.68,"NULL","NULL","NULL","NULL","NULL","NULL","NULL",2,2,"2",3,"NULL","0","0","0","0","0","0","0","NULL","NULL","NULL","NULL","NULL","0.2199999988079",0.09000000357627,93.5599975585937,"1.67999994754791","1.82000005245208","2.38000011444091","95.7399978637695","3.86999988555908",NA,"12000",NA
"3343","Oregon City","OR","97045-8980",-122.5743,45.3232,"Clackamas Community College",4169,7307,7078,33442.33,"7448","NULL","4133","11558","NULL","4246","NULL",2,2,"2",1,"NULL","0","0","0","0","0","0","0","NULL","NULL","NULL","NULL","7355","0.60000002384185",0.20000000298023,88.2900009155273,"1.35000002384185","2.91000008583068","6.75","90.6500015258789","6.19999980926513",7500,"14861.5",18.7
"816","Panama City","FL","32405",-85.6499,30.2005,"Gooding Institute of Nurse Anesthesia",12453,7736,15000,NA,"NULL","NULL","NULL","NULL","NULL","NULL","NULL",4,4,"3",3,"NULL","0","0","0","0","0","0","0","NULL","NULL","NULL","NULL","NULL","NULL",NA,NA,"NULL","NULL","NULL","NULL","NULL",NA,"NULL",0
"6932","St Joseph","MO","64506",-94.8328,39.7758,"American Business and Technology University",1627,135,2253,NA,"NULL","21340","NULL","NULL","14940","NULL","19214",2,2,"2",3,"NULL","0","0","0","0","0","0","0","NULL","NULL","NULL","NULL","1819","NULL",NA,NA,"NULL","NULL","NULL","NULL","NULL",7716,"17563",30
"2513","Paterson","NJ","07505-1179",-74.1688,40.9184,"Passaic County Community College",1578,4548,7072,20711.56,"11420","NULL","4166","7331","NULL","7129","NULL",2,2,"2",1,"NULL","0","0","0","0","0","1","0","NULL","NULL","NULL","NULL","8379","0.66000002622604",0.17000000178813,44.4399986267089,"22.2199993133544","3.29999995231628","43.3199996948242","60.9500007629394","15.4399995803833",4500,"8500",8.3
"4441","Franklin","WI","53132",-88.0444,42.9108,"Sacred Heart School of Theology",13846,24871,5593,NA,"NULL","NULL","NULL","NULL","NULL","NULL","NULL",4,4,"3",2,"30","0","0","0","0","0","0","0","NULL","NULL","NULL","NULL","NULL","NULL",NA,NA,"NULL","NULL","NULL","NULL","NULL",NA,"NULL",0
"7000","Las Vegas","NV","89117",-115.2858,36.159,"European Massage Therapy School-Las Vegas",11051,2287,NA,NA,"NULL","NULL","NULL","NULL","NULL","NULL","NULL",1,1,"1",3,"NULL","0","0","0","0","0","0","0","NULL","NULL","NULL","NULL","96","NULL",NA,NA,"NULL","NULL","NULL","NULL","NULL",4786,"4878",16.6
"5878","Houston","MO","65483",-91.9634,37.3001,"Texas County Technical College",7454,4624,3845,23456.48,"25377","NULL","15533","15533","NULL","NULL","21753",2,2,"2",2,"NULL","0","0","0","0","0","0","0","NULL","NULL","NULL","NULL","139","0.86000001430511",0.56000000238418,96.6699981689453,"0.34999999403953","0.27000001072883","1.10000002384185","98.4899978637695","14.369999885559",12500,"14769",13.5
"3920","Austin","TX","78705-5797",-97.7378,30.2926,"Austin Presbyterian Theological Seminary",2134,16687,8701,NA,"NULL","NULL","NULL","NULL","NULL","NULL","NULL",4,4,"3",2,"66","0","0","0","0","0","0","0","NULL","NULL","NULL","NULL","NULL","NULL",NA,NA,"NULL","NULL","NULL","NULL","NULL",NA,"NULL",10
"7262","Yucca Valley","CA","92284-2860",-116.4365,34.1207,"Elite Cosmetology School",5961,2220,NA,NA,"NULL","16706","NULL","NULL","13507","NULL","13350",1,1,"1",3,"NULL","0","0","0","0","0","0","0","NULL","NULL","NULL","NULL","90","NULL",NA,NA,"NULL","NULL","NULL","NULL","NULL",10555,"11666",33.3
"1381","Jeffersonville","IN","47130",-85.7443,38.3109,"Mid-America College of Funeral Service",3814,3656,3575,40390.12,"12303","NULL","10550","10550","NULL","NULL","7585",3,2,"2",2,"NULL","0","0","0","0","0","0","0","NULL","NULL","NULL","NULL","63","0.56000000238418",0.27000001072883,90.5500030517578,"6.63000011444091","0.72000002861022","1.74000000953674","97.3600006103515","9.01000022888183",13000,"17000",20.8
"6900","Guilford","CT","06437-2319",-72.7004,41.2945,"European Academy of Cosmetology and Hairdressing",10004,4656,NA,NA,"NULL","12144","NULL","NULL","18500","NULL","11013",1,1,"1",3,"NULL","0","0","0","0","0","0","0","NULL","NULL","NULL","NULL","38","NULL",NA,NA,"NULL","NULL","NULL","NULL","NULL",NA,"11605.5",18.1
"782","New Haven","CT","06510",-72.9356,41.3042,"Yale-New Haven Hospital Dietetic Internship",1800,0,NA,NA,"NULL","NULL","NULL","NULL","NULL","NULL","NULL",0,0,"NULL",2,"NULL","0","0","0","0","0","0","0","NULL","NULL","NULL","NULL","NULL","NULL",NA,NA,"NULL","NULL","NULL","NULL","NULL",NA,"NULL",0
"6893","San Diego","CA","91942",-117.0238,32.7643,"San Diego Culinary Institute",17529,5505,NA,NA,"NULL","30229","NULL","NULL","21660","NULL","26622",1,1,"1",3,"NULL","0","0","0","0","0","0","0","1","1","NULL","NULL","54","NULL",NA,NA,"NULL","NULL","NULL","NULL","NULL",7055,"9076",17.1
"4443","Manitowoc","WI","54220-9319",-87.743,44.071,"Silver Lake College of the Holy Family",9864,9832,4368,45630.99,"33274","NULL","23180","23180","NULL","NULL","15087",4,3,"3",2,"30","0","0","0","0","0","0","0","0.6","0.6","505","24","299","0.81000000238418",0.28999999165534,91.9899978637695,"0.77999997138977","1.72000002861022","1.96000003814697","97.0800018310547","5.13000011444091",16825,"30500",8
"4585","Washington","NJ","07882-4343",-75.006,40.7524,"Warren County Community College",4101,4923,5832,38040.22,"11677","NULL","3288","4008","NULL","7969","NULL",2,2,"2",1,"NULL","0","0","0","0","0","0","0","NULL","NULL","NULL","NULL","1444","0.72000002861022",0.18000000715255,93.9800033569336,"2.35999989509582","1.26999998092651","3.66000008583068","93.6800003051757","4.21999979019165",5500,"9800",6.2
"3004","Sylva","NC","28779",-83.2071,35.3486,"Southwestern Community College",1157,6125,4859,23101.84,"13252","NULL","2086","7462","NULL","8194","NULL",2,2,"2",1,"NULL","0","0","0","0","0","0","0","NULL","NULL","NULL","NULL","1597","0.74000000953674",0.25999999046325,85.0199966430664,"2.59999990463256","0.58999997377395","1.77999997138977","97.3199996948242","9.94999980926513",7000,"9500",18.5
"4321","Tacoma","WA","98447-0003",-122.4454,47.1455,"Pacific Lutheran University",17987,11672,7369,76518.77,"45299","NULL","34740","34740","NULL","NULL","23486",4,3,"3",2,"39","0","0","0","0","0","0","0","0.7676","0.7676","610","27","3062","0.6700000166893",0.09000000357627,81.6600036621093,"4.05000019073486","5.09000015258789","6.26999998092651","89.5500030517578","7.09000015258789",22695,"27000",2.7
"4712","Fresno","CA","93710-3616",-119.7835,36.8301,"San Joaquin Valley College-Fresno",6219,3471,3967,27424.86,"22617","NULL","16023","16023","NULL","NULL","18475",2,2,"2",3,"NULL","0","0","0","0","0","0","0","NULL","NULL","NULL","NULL","686","0.74000000953674",0.27000001072883,58.6500015258789,"6.86999988555908","4.90000009536743","40.2700004577636","79.4400024414062","16.0900001525878",14000,"19648.5",22.8
"6068","Modesto","CA","95356",-121.0715,37.7022,"Computer Tutor Business and Technical Institute",5935,1715,NA,15040.07,"NULL","18237","NULL","NULL","8280","NULL","14907",1,1,"1",3,"NULL","0","0","0","0","0","0","0","NULL","NULL","NULL","NULL","121","0.93999999761581",0.28000000119209,67.25,"2.89000010490417","5.01000022888183","32.9199981689453","80","13.7299995422363",4100,"4100",13.5
"4743","New Castle","PA","16101-5099",-80.331,40.9759,"Lawrence County Career and Technical Center-Practical Nursing Program",2369,4412,NA,33696.47,"NULL","13415","NULL","NULL","12500","9090","NULL",1,1,"1",1,"NULL","0","0","0","0","0","0","0","0.5912","0.5912","NULL","NULL","34","0.88999998569488",0.43999999761581,89.75,"8.30000019073486","0.30000001192092","0.85000002384185","98.0199966430664","10.4200000762939",16500,"16500",18.4
"3469","East Stroudsburg","PA","18301-2999",-75.1726,40.9962,"East Stroudsburg University of Pennsylvania",9230,7595,9215,81363.98,"20282","NULL","8991","19115","NULL","16638","NULL",4,3,"3",1,"NULL","0","0","0","0","0","0","0","0.7844","0.7844","530","23","6109","0.58999997377395",0.05000000074505,89.9199981689453,"4.76999998092651","2.01999998092651","4.69999980926513","92.6699981689453","5.28999996185302",16750,"23955",5.1
"3046","Fort Yates","ND","58538-9721",-100.7447,46.0334,"Sitting Bull College",4771,3465,5146,13480.16,"9241","NULL","3910","3910","NULL","420","NULL",3,2,"2",1,"NULL","0","0","0","1","0","0","0","NULL","NULL","NULL","NULL","264","0.60000002384185",0.18999999761581,26.6000003814697,"0.09000000357627","0.07000000029802","1.74000000953674","98.8899993896484","30.5400009155273",NA,"PrivacySuppressed",0
"5600","Orange","CA","92868-4710",-117.885,33.6939,"Career Networks Institute",12222,4840,5852,33950.44,"NULL","30441","NULL","NULL","31919","NULL","26383",1,1,"1",3,"NULL","0","0","0","0","0","0","0","NULL","NULL","NULL","NULL","561","0.72000002861022",0.18999999761581,60.310001373291,"3.77999997138977","14.6700000762939","31.5900001525878","70.1600036621093","8.59000015258789",9500,"11250",12.6
"932","Boynton Beach","FL","33436-4899",-80.1257,26.5158,"Saint Vincent de Paul Regional Seminary",13530,16185,3936,NA,"NULL","NULL","NULL","NULL","NULL","NULL","NULL",4,4,"NULL",2,"30","0","0","0","0","0","0","0","NULL","NULL","NULL","NULL","NULL","NULL",NA,NA,"NULL","NULL","NULL","NULL","NULL",NA,"NULL",0
"7176","New Bedford","MA","02745",-70.9431,41.6767,"Salter School-New Bedford",5354,2637,NA,NA,"NULL","28715","NULL","NULL","12700","NULL","24511",1,1,"1",3,"NULL","0","0","0","0","0","0","0","NULL","NULL","NULL","NULL","317","NULL",NA,NA,"NULL","NULL","NULL","NULL","NULL",7851,"8758",11.7
"1752","Frederick","MD","21702-2964",-77.4178,39.4522,"Frederick Community College",4278,7183,6686,42602.94,"9205","NULL","3171","8403","NULL","5228","NULL",2,2,"2",1,"NULL","0","0","0","0","0","0","0","NULL","NULL","NULL","NULL","5375","0.68000000715255",0.20000000298023,85.6600036621093,"9.06999969482422","2.14000010490417","3","93.7099990844726","3.55999994277954",5500,"8500",12.9
"2297","Maryville","MO","64468-6001",-94.8843,40.3527,"Northwest Missouri State University",6076,7623,6501,68150.03,"17005","NULL","6390","11391","NULL","10612","NULL",4,3,"3",1,"NULL","0","0","0","0","0","0","0","0.7241","0.7241","600","25","5274","0.56000000238418",0.02999999932944,92.4700012207031,"4.38999986648559","0.72000002861022","2.22000002861022","97.5800018310547","6.96000003814697",14815,"24490",9.5
"2765","Old Westbury","NY","11568-8000",-73.6089,40.8144,"New York Institute of Technology",28199,15085,11418,56926.77,"39014","NULL","30780","30780","NULL","NULL","22441",4,3,"3",2,"NULL","0","0","0","0","0","0","0","0.7407","0.7407","600","NULL","4307","0.51999998092651",0.2199999988079,68.0100021362304,"16.2999992370605","5.8600001335144","14.4099998474121","78.2300033569336","8.80000019073486",17250,"25485",7.1
"2831","Vestal","NY","13850-6000",-75.9711,42.088,"SUNY at Binghamton",6701,10953,9059,75078.96,"21966","NULL","8144","18464","NULL","16541","NULL",4,3,"3",1,"NULL","0","0","0","0","0","0","0","0.4287","0.4287","710","NULL","12940","0.5",0.02999999932944,76.6399993896484,"9.06999969482422","6.90999984741211","10.6099996566772","79.8499984741211","8.77999973297119",17750,"20500",3.5
"1016","Dalton","GA","30720-3797",-85.0029,34.775,"Dalton State College",2178,4826,5160,32185.08,"10948","NULL","3910","11768","NULL","5607","NULL",3,2,"2",1,"NULL","0","0","0","0","0","0","0","NULL","NULL","NULL","NULL","4852","0.68999999761581",0.28000000119209,88.3499984741211,"3.35999989509582","0.64999997615814","10.9099998474121","90.9800033569336","8.5",7500,"13847",20.3
"374","Fresno","CA","93702-4709",-119.732,36.7253,"Fresno Pacific University",14221,5520,6562,56054.12,"33973","NULL","25716","25716","NULL","NULL","15403",4,3,"3",2,"43","0","0","0","0","0","0","0","0.7844","0.7844","550","23","2496","0.68999999761581",0.28999999165534,61.5299987792968,"4.1100001335144","5.59000015258789","39.6500015258789","80.7200012207031","15.25",16802,"19205",5.9
"6898","ARTESIA","CA","90701-6610",-118.0849,33.8584,"Angeles Institute",12297,904,NA,NA,"NULL","20062","NULL","NULL","25245","NULL","16650",1,1,"1",3,"NULL","0","0","0","0","0","0","0","NULL","NULL","NULL","NULL","105","NULL",NA,NA,"NULL","NULL","NULL","NULL","NULL",16850,"16850",15.9
"1994","Allendale","MI","49401-9403",-85.8875,42.9652,"Grand Valley State University",9810,7728,7816,78034.29,"21512","NULL","10716","15388","NULL","16243","NULL",4,3,"3",1,"NULL","0","0","0","0","0","0","0","0.826","0.826","620","26","21137","0.62000000476837",0.05000000074505,88.1699981689453,"6.38999986648559","1.44000005722045","4.03999996185302","95.0199966430664","5.51000022888183",20898.5,"26500",5.1
"6458","San Diego","CA","92101",-117.1608,32.719,"Paul Mitchell the School-San Diego",11734,3540,NA,NA,"NULL","21047","NULL","NULL","18925","NULL","18212",1,1,"1",3,"NULL","0","0","0","0","0","0","0","NULL","NULL","NULL","NULL","301","NULL",NA,NA,"NULL","NULL","NULL","NULL","NULL",9833,"11000",10.3
"6351","East Hartford","CT","06108",-72.6067,41.779,"Stone Academy-East Hartford",9030,4950,NA,NA,"NULL","23679","NULL","NULL","26900","NULL","20802",1,1,"1",3,"NULL","0","0","0","0","0","0","0","NULL","NULL","NULL","NULL","312","NULL",NA,NA,"NULL","NULL","NULL","NULL","NULL",11489,"13199.5",12.5
"4201","Middletown","VA","22645",-78.2673,39.036,"Lord Fairfax Community College",3020,4936,6421,22136.86,"10732","NULL","4005","9843","NULL","7188","NULL",2,1,"1",1,"NULL","0","0","0","0","0","0","0","NULL","NULL","NULL","NULL","4666","0.75999999046325",0.23999999463558,91.3499984741211,"5.40999984741211","0.70999997854232","2.51999998092651","95.8799972534179","5.63999986648559",5357,"6500",0
"3841","Knoxville","TN","37909-0000",-83.9748,35.9616,"South College",20342,8377,7351,29129.03,"34415","NULL","18875","18875","NULL","NULL","28696",4,3,"3",3,"NULL","0","0","0","0","0","0","0","NULL","NULL","NULL","NULL","708","0.82999998331069",0.37999999523162,89.870002746582,"7.19999980926513","0.82999998331069","1.55999994277954","97.3300018310547","10.2600002288818",16333.5,"31332",18.5
"2010","Mount Pleasant","MI","48858",-84.7794,43.6049,"M J Murphy Beauty College of Mount Pleasant",8878,3325,NA,22039.88,"NULL","7239","NULL","NULL","8600","NULL","2413",1,1,"1",3,"NULL","0","0","0","0","0","0","0","NULL","NULL","NULL","NULL","82","0.93000000715255",0.20999999344348,94.5400009155273,"1.47000002861022","0.62999999523162","2.32999992370605","97.9300003051758","8.55000019073486",6500,"8317.5",9.6
"2770","Middletown","NY","10940",-74.4269,41.4395,"Orange County Community College",3926,7228,7424,45761.42,"10197","NULL","5002","9402","NULL","6012","NULL",2,2,"2",1,"NULL","0","0","0","0","0","0","0","NULL","NULL","NULL","NULL","5580","0.62999999523162",0.14000000059604,81.6900024414062,"9.32999992370605","1.47000002861022","12.8100004196167","88.5699996948242","8.05000019073486",6124,"12000",10.4
"6129","Louisville","KY","40223-3839",-85.5636,38.2239,"University of Phoenix-Louisville Campus",11525,2581,2514,47023.93,"23434","NULL","10240","10240","NULL","NULL","18271",4,3,"3",3,"NULL","0","0","0","0","0","0","0","NULL","NULL","NULL","NULL","203","0.6700000166893",0.44999998807907,69.4700012207031,"15.369999885559","4.13999986648559","16.2299995422363","86.6999969482422","9.60000038146972",18532,"35500",19
"6544","Gainesville","FL","32601",-82.322,29.6501,"Academy for Five Element Acupuncture",11727,6864,NA,NA,"NULL","NULL","NULL","NULL","NULL","NULL","NULL",4,4,"NULL",2,"NULL","0","0","0","0","0","0","0","NULL","NULL","NULL","NULL","NULL","NULL",NA,NA,"NULL","NULL","NULL","NULL","NULL",NA,"NULL",4
"6916","Twin Falls","ID","83301-4118",-114.4589,42.5705,"Master Educators Beauty School",3268,1579,NA,NA,"NULL","12894","NULL","NULL","12400","NULL","9261",1,1,"1",3,"NULL","0","0","0","0","0","0","0","NULL","NULL","NULL","NULL","33","NULL",NA,NA,"NULL","NULL","NULL","NULL","NULL",9944,"12111",0
"66","Anchorage","AK","99508",-149.8261,61.1896,"University of Alaska Anchorage",5732,9844,8471,52227.99,"13180","NULL","5147","15206","NULL","8160","NULL",4,3,"3",1,"NULL","0","0","0","0","0","0","1","NULL","NULL","NULL","NULL","13116","0.62999999523162",0.23999999463558,73.6600036621093,"4.17999982833862","4.26000022888183","5.09000015258789","91.75","6.69999980926513",11336.5,"20675",12.4
"6756","Alexandria","VA","22314",-77.0879,38.8073,"Global Health College",5996,2858,3947,NA,"41287","NULL","20082","20082","NULL","NULL","38420",2,1,"1",3,"NULL","0","0","0","0","0","0","0","0.7664","0.7664","NULL","NULL","265","NULL",NA,NA,"NULL","NULL","NULL","NULL","NULL",9500,"14390",14.4
"3434","Lewisburg","PA","17837",-76.8863,40.9545,"Bucknell University",30266,19054,10168,121378.65,"59090","NULL","46902","46902","NULL","NULL","33419",4,3,"3",2,"NULL","0","0","0","0","0","0","0","0.2951","0.2951","720","32","3498","0.51999998092651",0,86.4499969482422,"6.28999996185302","3.72000002861023","4.90000009536743","90.0400009155273","4.76999998092651",25000,"27000",1.3
"986","Albany","GA","31707-3098",-84.2121,31.5836,"Darton State College",2493,3558,4595,28722.57,"11611","NULL","3241","9021","NULL","7155","NULL",2,2,"2",1,"NULL","0","0","0","0","0","0","0","NULL","NULL","NULL","NULL","5984","0.76999998092651",0.20999999344348,51.0299987792968,"46.2599983215332","0.62999999523162","2.1800000667572","97.1800003051758","17.7000007629394",8250,"13934",13.6
"1989","Ironwood","MI","49938",-90.1656,46.4719,"Gogebic Community College",2434,5341,6662,41068.56,"12540","NULL","4114","6253","NULL","8352","NULL",2,2,"2",1,"NULL","0","0","0","0","0","0","0","NULL","NULL","NULL","NULL","948","0.61000001430511",0.17000000178813,94.5299987792968,"1.52999997138977","0.47999998927116","0.91000002622604","98.0299987792969","8.89999961853027",6000,"9675",13.2
"5018","Greeley","CO","80631",-104.6965,40.3968,"Cheeks International Academy of Beauty Culture-Greeley",5500,8965,NA,24980.67,"NULL","12572","NULL","NULL","16100","NULL","8304",1,1,"1",3,"NULL","0","0","0","0","0","0","0","NULL","NULL","NULL","NULL","39","0.95999997854232",0.27000001072883,84.4800033569336,"1.19000005722045","1.14999997615814","20.0499992370605","92.0199966430664","8.52999973297119",6333,"8222.5",13.1
"6704","Denver","CO","80246",-104.9399,39.7037,"Aspen University",4852,1499,NA,NA,"23110","NULL","6150","6150","NULL","NULL","21326",4,3,"3",3,"NULL","0","0","0","0","0","0","0","NULL","NULL","NULL","NULL","162","NULL",NA,NA,"NULL","NULL","NULL","NULL","NULL",9500,"PrivacySuppressed",3
"6928","Livonia","MI","48150",-83.3549,42.3825,"L'esprit Academy",3686,3108,NA,NA,"NULL","14959","NULL","NULL","13665","NULL","11598",1,1,"1",3,"NULL","0","0","0","0","0","0","0","NULL","NULL","NULL","NULL","129","NULL",NA,NA,"NULL","NULL","NULL","NULL","NULL",9500,"9833",29.1
"5997","Hato Rey","PR","00910",-66.043,18.4176,"Dewey University-Hato Rey",41,436,2197,9106.44,"9819","NULL","5475","5475","NULL","NULL","4382",3,2,"1",2,"NULL","0","0","0","0","0","0","0","NULL","NULL","NULL","NULL","2470","0.56999999284744",0.20999999344348,70.3099975585937,"13.5699996948242","0.33000001311302","98.3600006103515","80.2399978637695","43.25",NA,"PrivacySuppressed",0
"3052","Cincinnati","OH","45246-3322",-84.4513,39.2858,"The Art Institute of Cincinnati",12702,6103,2968,78096.47,"32193","NULL","23341","23341","NULL","NULL","26693",2,2,"2",3,"NULL","0","0","0","0","0","0","0","0.6","0.6","NULL","NULL","38","0.43999999761581",0.05000000074505,90.1900024414062,"6.82000017166137","1.32000005245208","1.11000001430511","97.1100006103515","4.69000005722045",NA,"PrivacySuppressed",16.2
"5284","Orland Park","IL","60467",-87.8998,41.5534,"ITT Technical Institute-Orland Park",20275,4494,5946,35811.24,"26800","NULL","18048","18048","NULL","NULL","22960",3,2,"2",3,"NULL","0","0","0","0","0","0","0","0.8388","0.5851","NULL","NULL","527","0.17000000178813",0.18000000715255,68.3399963378906,"20.7900009155273","2.67000007629394","9.0600004196167","90.7799987792968","8.67000007629394",14656.5,"25833.5",22.4
"3885","Knoxville","TN","37933-0990",-84.1665,35.9483,"Pellissippi State Community College",3094,4711,5526,35006.34,"13678","NULL","3660","14100","NULL","8601","NULL",2,2,"2",1,"NULL","0","0","0","0","0","0","0","NULL","NULL","NULL","NULL","8776","0.58999997377395",0.18000000715255,88.7399978637695,"8.1899995803833","1.02999997138977","1.42999994754791","97.1600036621094","9.14999961853027",6650,"11250",19.6
"3330","Muskogee","OK","74401-6802",-95.3802,35.752,"Virgil's Beauty College",4717,4647,NA,13717.49,"NULL","9419","NULL","NULL","9100","NULL","5481",1,1,"1",3,"NULL","0","0","0","0","0","0","0","NULL","NULL","NULL","NULL","32","0.94999998807907",0.27000001072883,65.3399963378906,"10.8199996948242","0.43000000715255","2.16000008583068","98.2699966430664","15.2299995422363",NA,"NULL",51.6
"3499","Gwynedd Valley","PA","19437-0901",-75.2381,40.1976,"Gwynedd Mercy University",15429,7436,7046,79474.28,"39051","NULL","29450","29450","NULL","NULL","23673",4,3,"3",2,"30","0","0","0","0","0","0","0","0.6591","0.6591","530","NULL","2031","0.76999998092651",0.17000000178813,80.3899993896484,"13.0500001907348","3.39000010490417","3.51999998092651","91.620002746582","5.94000005722045",20250,"26000",7.7
"551","Mission Viejo","CA","92692-3635",-117.6649,33.5519,"Saddleback College",1481,4226,8591,23639.4,"14906","NULL","762","4694","NULL","9056","NULL",2,1,"1",1,"NULL","0","0","0","0","0","0","0","NULL","NULL","NULL","NULL","19229","0.56999999284744",0.15999999642372,78.9300003051757,"2.01999998092651","7.57000017166137","17.3700008392334","80.7399978637695","4.42999982833862",5500,"9226",12.7
"1128","Hanover Park","IL","60133-5421",-88.1145,41.9701,"Empire Beauty School-Hanover Park",8954,10786,NA,39505.22,"NULL","16923","NULL","NULL","17595","NULL","13209",1,1,"1",3,"NULL","0","0","0","0","0","0","0","NULL","NULL","NULL","NULL","81","0.98000001907348",0.18000000715255,74.1299972534179,"8.07999992370605","7.73000001907348","17.6399993896484","79.4599990844726","4.30999994277954",6406,"9083",18.8
"6123","Saint Louis Park","MN","55426-4915",-93.4048,44.9752,"University of Phoenix-Minneapolis St Paul Campus",13846,3334,1587,47023.93,"25594","NULL","12400","12400","NULL","NULL","20332",4,3,"3",3,"NULL","0","0","0","0","0","0","0","NULL","NULL","NULL","NULL","153","0.6700000166893",0.44999998807907,69.4700012207031,"15.369999885559","4.13999986648559","16.2299995422363","86.6999969482422","9.60000038146972",18532,"35500",19
"2287","Kansas City","MO","64110",-94.578,39.0354,"University of Missouri-Kansas City",10688,15048,8305,57316.66,"23437","NULL","9456","22203","NULL","17606","NULL",4,3,"3",1,"NULL","0","0","0","0","0","0","0","0.33","0.33","670","26","8309","0.60000002384185",0.12999999523162,79.0699996948242,"14.8000001907348","1.64999997615814","4.65000009536743","94.9599990844726","7.3600001335144",15750,"21187",9.8
"4744","Ponca City","OK","74601",-97.0935,36.7277,"Pioneer Technology Center",1490,14859,NA,19468.54,"NULL","7625","NULL","NULL","2625","3462","NULL",1,1,"1",1,"NULL","0","0","0","0","0","0","0","NULL","NULL","NULL","NULL","421","0.75999999046325",0.38999998569488,83.3300018310547,"1.71000003814697","0.51999998092651","4.01999998092651","97.3099975585937","12.8199996948242",NA,"NULL",0
"4865","Mobile","AL","36609",-88.1351,30.6622,"Fortis College-Mobile",7002,2144,3576,15927.66,"16035","NULL","17255","17255","NULL","NULL","10808",2,1,"1",3,"NULL","0","0","0","0","0","0","0","NULL","NULL","NULL","NULL","359","0.93999999761581",0.23999999463558,58.2999992370605,"38.1899986267089","1.19000005722045","1.5","96.7799987792969","16.1499996185302",9413.5,"11692",12.2
"3575","Hershey","PA","17033-2360",-76.6756,40.2636,"Pennsylvania State University-College of Medicine",88466,64234,NA,81964.64,"NULL","NULL","NULL","NULL","NULL","NULL","NULL",4,4,"3",1,"NULL","0","0","0","0","0","0","0","0.6488","NULL","NULL","NULL","NULL","0.47999998927116",0.05000000074505,87.5999984741211,"7.34000015258789","2.23000001907348","3.47000002861023","93.4300003051757","6.78999996185302",21500,"27000",7.7
"7211","North Little Rock","AR","72116-7310",-92.2565,34.7962,"The Salon Professional Academy-North Little Rock",6965,1873,NA,NA,"NULL","15406","NULL","NULL","14990","NULL","11466",1,1,"1",3,"NULL","0","0","0","0","0","0","0","NULL","NULL","NULL","NULL","64","NULL",NA,NA,"NULL","NULL","NULL","NULL","NULL",9833,"9833",0
"3651","State College","PA","16801-4516",-77.8555,40.775,"South Hills School of Business & Technology",8992,6374,3936,39555.28,"26582","NULL","15735","15735","NULL","NULL","19017",2,2,"2",3,"NULL","0","0","0","0","0","0","0","0.9634","0.9634","NULL","NULL","662","0.68999999761581",0.15999999642372,96.2699966430664,"1.64999997615814","0.95999997854232","0.87999999523162","97.6100006103515","7.84000015258789",14501,"19500",16.9
"1937","Worcester","MA","01609-2280",-71.8088,42.2751,"Worcester Polytechnic Institute",30793,22494,8598,99994.76,"55866","NULL","42778","42778","NULL","NULL","35483",4,3,"3",2,"NULL","0","0","0","0","0","0","0","0.5159","0.5159","NULL","NULL","4012","0.25",0,88.8600006103515,"4.21999979019165","2.83999991416931","4.86999988555908","90.1299972534179","5.42999982833862",27000,"27000",3.7
"4748","Chicago","IL","60639-4828",-87.7323,41.9096,"Cannella School of Hair Design-Chicago",4572,4693,NA,13274.08,"NULL","10103","NULL","NULL","10340","NULL","4553",1,1,"1",3,"NULL","0","0","0","0","0","0","0","NULL","NULL","NULL","NULL","52","0.99000000953674",0.15000000596046,39.9500007629394,"31.7600002288818","2.16000008583068","41.0200004577636","71.2099990844726","17.3700008392334",NA,"NULL",0
"7101","Springfield","MO","65803",-93.2921,37.2293,"Victory Trade School",0,0,NA,NA,"15100","NULL","6000","6000","NULL","NULL","4198",1,1,"1",2,"99","0","0","0","0","0","0","0","NULL","NULL","NULL","NULL","27","NULL",NA,NA,"NULL","NULL","NULL","NULL","NULL",NA,"NULL",NA
"1262","Joliet","IL","60435-6188",-88.0964,41.5333,"University of St Francis",15719,7644,7543,78868.51,"36226","NULL","27970","27970","NULL","NULL","17873",4,3,"3",2,"30","0","0","0","0","0","0","0","0.5141","0.5141","620","26","1757","0.75",0.18999999761581,82.0999984741211,"10.3500003814697","2.17000007629394","8.43000030517578","91.8899993896484","4.80000019073486",21000,"25000",3.6
"4508","Manati","PR","00674-1091",-66.457,18.4394,"Instituto Tecnologico de Puerto Rico-Recinto de Manati",930,1480,2512,NA,"5025","NULL","1125","1125","NULL","3526","NULL",2,2,"2",1,"NULL","0","0","0","0","0","0","0","0.8605","0.8602","NULL","NULL","755","NULL",NA,NA,"NULL","NULL","NULL","NULL","NULL",NA,"NULL",0
"3175","Cuyahoga Falls","OH","44221-2949",-81.4696,41.1431,"Fortis College-Cuyahoga Falls",13901,6303,4135,22444.67,"27901","NULL","12299","12299","NULL","NULL","22848",2,2,"2",3,"NULL","0","0","0","0","0","0","0","NULL","NULL","NULL","NULL","471","0.6700000166893",0.15999999642372,75.5,"20.9500007629394","1.16999995708465","1","96.7099990844726","12.1599998474121",13875,"18663",11.1
"5860","Mesa","AZ","85201",-111.8655,33.4148,"East Valley Institute of Technology",2559,1514,NA,27744.98,"NULL","10666","NULL","NULL","12000","7817","NULL",1,1,"1",1,"NULL","0","0","0","0","0","0","0","NULL","NULL","NULL","NULL","343","0.77999997138977",0.10000000149011,84.5400009155273,"2.5","1.98000001907348","15.1800003051757","90.120002746582","5.32000017166137",NA,"NULL",0
"4311","Kirkland","WA","98034-8506",-122.1671,47.7051,"Lake Washington Institute of Technology",2137,6871,6082,33666.4,"12394","NULL","3907","9096","NULL","7221","NULL",3,2,"2",1,"NULL","0","0","0","0","0","0","0","NULL","NULL","NULL","NULL","2227","0.58999997377395",0.28000000119209,82.3899993896484,"2.30999994277954","8.55000019073486","5.09000015258789","84.9199981689453","4.76000022888183",10176,"16580.5",16
"3959","El Paso","TX","79924",-106.4259,31.8778,"Western Technical College",3201,1773,3482,22312.77,"NULL","25633","NULL","NULL","30746","NULL","20138",2,1,"1",3,"NULL","0","0","0","0","0","0","0","NULL","NULL","NULL","NULL","651","0.36000001430511",0.30000001192092,72.0199966430664,"4.09999990463256","1.05999994277954","75.870002746582","70.4800033569336","21.7700004577636",9500,"11204",13.4
"2364","Fremont","NE","68025",-96.482,41.4458,"La'James International College",9471,3134,NA,42768.36,"NULL","18555","NULL","NULL","18660","NULL","12550",1,1,"1",3,"NULL","0","0","0","0","0","0","0","NULL","NULL","NULL","NULL","33","0.94999998807907",0.03999999910593,94.1100006103515,"1.04999995231628","0.34999999403953","4.53000020980835","96.7300033569336","7.17999982833862",11950,"12835",11.3
"3005","Albemarle","NC","28001",-80.236,35.3398,"Stanly Community College",977,4827,4309,22528.08,"16627","NULL","2412","8556","NULL","11415","NULL",2,2,"2",1,"NULL","0","0","0","0","0","0","0","NULL","NULL","NULL","NULL","2384","0.77999997138977",0.34000000357627,79.4599990844726,"16.1499996185302","1.64999997615814","2.85999989509582","96.3399963378906","8.21000003814697",NA,"NULL",0
"6868","Sioux Falls","SD","57108",-96.7866,43.4989,"Globe University-Sioux Falls",18753,4545,3439,NA,"28338","NULL","14040","14040","NULL","NULL","23540",3,2,"2",3,"NULL","0","0","0","0","0","0","0","NULL","NULL","NULL","NULL","165","NULL",NA,NA,"NULL","NULL","NULL","NULL","NULL",16768,"27000",22.4
"2442","Laconia","NH","03246",-71.4639,43.5183,"Lakes Region Community College",6752,5749,5939,NA,"18684","NULL","6962","15538","NULL","15531","NULL",2,2,"2",1,"NULL","0","0","0","0","0","0","0","NULL","NULL","NULL","NULL","1032","NULL",NA,NA,"NULL","NULL","NULL","NULL","NULL",9500,"16814",14.9
"57","Troy","AL","36082-0001",-85.9502,31.8001,"Troy University",8133,5260,5996,38308.15,"16877","NULL","7276","13612","NULL","11168","NULL",4,3,"3",1,"NULL","0","0","0","0","0","0","0","0.6821","0.6821","NULL","24","16208","0.70999997854232",0.28999999165534,62.0200004577636,"34","1.07000005245208","2.81999993324279","95.6100006103515","12.9899997711181",17750,"26000",13.2
"2120","Rochester","MN","55902-2382",-92.4763,43.9971,"Crossroads College",9905,4525,4868,60500.2,"25235","NULL","15280","15280","NULL","NULL","15762",3,3,"3",2,"48","0","0","0","0","0","0","0","0.2143","0.2143","NULL","NULL","97","0.46000000834465",0.10999999940395,90.5699996948242,"3.10999989509582","2.52999997138977","3.19000005722045","94.1900024414062","5.98999977111816",12000,"27000",12.7
"6837","Concord","CA","94520",-122.0544,37.9757,"ITT Technical Institute-Concord",20870,3844,5541,NA,"26353","NULL","18048","18048","NULL","NULL","23299",3,2,"2",3,"NULL","0","0","0","0","0","0","0","0.8388","0.8926","NULL","NULL","258","NULL",NA,NA,"NULL","NULL","NULL","NULL","NULL",14656.5,"25833.5",22.4
"6748","Cincinnati","OH","45241",-84.3923,39.2916,"Paul Mitchell the School-Cincinnati",9051,3326,NA,NA,"NULL","12633","NULL","NULL","15113","NULL","9877",1,1,"1",3,"NULL","0","0","0","0","0","0","0","NULL","NULL","NULL","NULL","244","NULL",NA,NA,"NULL","NULL","NULL","NULL","NULL",9833,"16044",20
"3673","Washington","PA","15301",-80.2471,40.1836,"Washington Hospital School of Nursing",977,7715,NA,51644.42,"24119","NULL","NULL","NULL","NULL","NULL","19169",1,1,"1",2,"NULL","0","0","0","0","0","0","0","0.25","0.25","NULL","NULL","76","0.81000000238418",0.33000001311302,95.0699996948242,"3.33999991416931","0.43000000715255","0.69999998807907","98.2799987792969","8.89999961853027",17750,"20493.5",17.6
"4688","Rockford","IL","61114",-88.9995,42.2993,"Educators of Beauty College of Cosmetology-Rockford",12665,11263,NA,27895.73,"NULL","15039","NULL","NULL","17375","NULL","9729",1,1,"1",3,"NULL","0","0","0","0","0","0","0","NULL","NULL","NULL","NULL","61","0.94999998807907",0.31999999284744,84.6500015258789,"8.67000007629394","1.13999998569488","7.63999986648559","94.370002746582","7.53000020980835",9833,"10800",9
"962","Perry","FL","32348",-83.5658,30.078,"Taylor Technical Institute",3021,12753,NA,13510.18,"NULL","11854","NULL","NULL","5594","8882","NULL",1,1,"1",1,"NULL","0","0","0","0","0","0","0","NULL","NULL","NULL","NULL","58","0.72000002861022",0.23999999463558,74.9100036621093,"21.8899993896484","0.37000000476837","2.30999994277954","97.0199966430664","15.1700000762939",NA,"NULL",0
"6610","Cary","NC","27518",-78.7343,35.7544,"ITT Technical Institute-Cary",21553,3701,5088,NA,"27586","NULL","18048","18048","NULL","NULL","22797",3,2,"2",3,"NULL","0","0","0","0","0","0","0","0.8388","0.8846","NULL","NULL","282","NULL",NA,NA,"NULL","NULL","NULL","NULL","NULL",14656.5,"25833.5",22.4
"3495","Exton","PA","19341",-75.649,40.0243,"Empire Beauty School-Exton",9531,11202,NA,48359.07,"NULL","17389","NULL","NULL","15183","NULL","13961",1,1,"1",3,"NULL","0","0","0","0","0","0","0","NULL","NULL","NULL","NULL","90","0.93999999761581",0.17000000178813,85.2200012207031,"10.1999998092651","1.87999999523162","3.35999989509582","94.0899963378906","4.32000017166137",5781,"9046.5",17.2
"2543","Albuquerque","NM","87106",-106.625,35.076,"Central New Mexico Community College",739,3813,4942,24420.34,"8946","NULL","1364","6656","NULL","3961","NULL",2,1,"1",1,"NULL","0","0","0","0","0","0","0","NULL","NULL","NULL","NULL","25090","0.61000001430511",0.20999999344348,66.6299972534179,"2.6800000667572","1.62999999523162","41.9799995422363","90.8199996948242","12.3900003433227",6916.5,"13000",31.7
"6623","Dallas","TX","75234",-96.8713,32.9117,"Le Cordon Bleu College of Culinary Arts-Dallas",11025,2533,4153,NA,"20138","NULL","13049","13049","NULL","NULL","16062",2,1,"1",3,"NULL","0","0","0","0","0","0","0","NULL","NULL","NULL","NULL","892","NULL",NA,NA,"NULL","NULL","NULL","NULL","NULL",11250,"11250",31.6
"3302","Tulsa","OK","74107-1898",-96.005,36.1384,"Oklahoma State University Center for Health Sciences",23197,111562,NA,17128.96,"NULL","NULL","NULL","NULL","NULL","NULL","NULL",4,4,"3",1,"NULL","0","0","0","0","0","0","0","NULL","NULL","NULL","NULL","NULL","0.41999998688697",0.5,75.2399978637695,"9.82999992370605","2.76999998092651","6.03000020980835","93.2799987792968","9.39999961853027",NA,"NULL",2.8
"7241","Baltimore","MD","21218-2407",-76.6168,39.3318,"Holistic Massage Training Institute",17448,10040,NA,NA,"NULL","NULL","NULL","NULL","NULL","NULL","NULL",1,1,"1",3,"NULL","0","0","0","0","0","0","0","NULL","NULL","NULL","NULL","18","NULL",NA,NA,"NULL","NULL","NULL","NULL","NULL",NA,"6333",0
"3349","Portland","OR","97232-0000",-122.6604,45.5287,"East West College of the Healing Arts",16243,5633,NA,34090.75,"NULL","NULL","NULL","NULL","NULL","NULL","NULL",1,1,"1",3,"NULL","0","0","0","0","0","0","0","NULL","NULL","NULL","NULL","246","0.85000002384185",0.20999999344348,82.7399978637695,"4.75","4.5","6.59000015258789","89.0500030517578","7.90000009536743",8444,"8444",5.4
"7213","Celebration","FL","34747-5161",-81.5622,28.3123,"American Institute",4852,1312,4678,NA,"NULL","22840","NULL","NULL","20300","NULL","20109",3,2,"1",3,"NULL","0","0","0","0","0","0","0","NULL","NULL","NULL","NULL","252","NULL",NA,NA,"NULL","NULL","NULL","NULL","NULL",7851,"8758",11.7
"5016","Greensboro","NC","27409-9545",-79.9597,36.0771,"Brookstone College-Greensboro",7392,3225,NA,25196.25,"NULL","17220","NULL","NULL","19400","NULL","14837",1,1,"1",3,"NULL","0","0","0","0","0","0","0","NULL","NULL","NULL","NULL","154","0.9200000166893",0.25999999046325,61.8300018310547,"31.0900001525878","2.1800000667572","6.15000009536743","91.3199996948242","8.8100004196167",7875,"8688.5",27.9
"64","Daphne","AL","36526-7055",-87.9116,30.6393,"United States Sports Academy",13741,3428,5755,38529.48,"NULL","NULL","NULL","NULL","NULL","NULL","NULL",4,3,"3",2,"NULL","0","0","0","0","0","0","0","NULL","NULL","NULL","NULL","80","0.12999999523162",0.52999997138977,73.2900009155273,"16.7099990844726","3.1800000667572","9.05000019073486","91.0599975585937","9.01000022888183",16248,"30095.5",4.2
"2189","Raymond","MS","39154",-90.4161,32.2581,"Hinds Community College",574,7229,5165,26045.73,"8395","NULL","2260","4860","NULL","4099","NULL",2,2,"2",1,"NULL","0","0","0","0","0","0","0","NULL","NULL","NULL","NULL","10946","0.64999997615814",0.14000000059604,48.2000007629394,"49.9000015258789","0.57999998331069","1.41999995708465","98.2099990844726","16.75",4365,"7650",26
"2944","High Point","NC","27265-3115",-79.9971,35.9942,"Laurel University",4260,2884,4858,49661.57,"17288","NULL","8890","8890","NULL","NULL","14521",4,3,"3",2,"NULL","0","0","0","0","0","0","0","0.3904","0.3904","NULL","NULL","386","0.44999998807907",0.49000000953674,73.8099975585937,"21.0200004577636","1.40999996662139","4.01000022888183","94.4499969482422","7.98000001907348",12000,"21250",5
"1179","Jacksonville","IL","62650-2299",-90.2463,39.7308,"Illinois College",10968,9488,5171,79925.37,"36829","NULL","27800","27800","NULL","NULL","17475",3,3,"3",2,"66","0","0","0","0","0","0","0","0.6129","0.6129","580","25","981","0.51999998092651",0.00999999977648,91.9400024414062,"4.67999982833862","0.93000000715255","2.69000005722045","96.7200012207031","6.15999984741211",20000,"27000",7.1
"712","Grand Junction","CO","81506",-108.5306,39.1163,"Intellitec College-Grand Junction",8119,3228,1467,24133.78,"NULL","17431","NULL","NULL","25707","NULL","13758",2,2,"2",3,"NULL","0","0","0","0","0","0","0","NULL","NULL","NULL","NULL","536","0.80000001192092",0.34000000357627,86.4800033569336,"1.19000005722045","0.56999999284744","22.4099998474121","96.2900009155273","9.55000019073486",11000,"13260",28.6
"579","Santa Clara","CA","95053",-121.9382,37.3527,"Santa Clara University",19663,10783,11662,120161.97,"57213","NULL","42156","42156","NULL","NULL","34956",4,3,"3",2,"30","0","0","0","0","0","0","0","0.5122","0.5122","700","NULL","5404","0.58999997377395",0.00999999977648,65.2799987792968,"4.03999996185302","16.5300006866455","17.4300003051757","76.1500015258789","5.46999979019165",19500,"20500",2.9
"1727","Standish","ME","04084-5236",-70.4835,43.8265,"Saint Joseph's College of Maine",12041,8411,5824,84110.28,"43119","NULL","30990","30990","NULL","NULL","26575",4,3,"3",2,"30","0","0","0","0","0","0","0","0.7778","0.7778","530","NULL","1276","0.64999997615814",0.03999999910593,94.1800003051757,"2.24000000953674","1.13999998569488","2.06999993324279","94.7200012207031","6.07000017166137",15683.5,"27000",5.7
"4105","Vernon","TX","76384-4092",-99.3191,34.1593,"Vernon College",2104,4354,4902,27224.11,"10820","NULL","2940","6300","NULL","6282","NULL",2,1,"1",1,"NULL","0","0","0","0","0","0","0","NULL","NULL","NULL","NULL","2586","0.73000001907348",0.34000000357627,80.5199966430664,"8.27999973297119","1.33000004291534","13.8000001907348","93.7699966430664","10.6499996185302",6450,"9500",16.6
"1138","Chicago","IL","60621-2709",-87.6434,41.7803,"City Colleges of Chicago-Kennedy-King College",1357,6777,7360,15162.95,"13006","NULL","3070","7498","NULL","8507","NULL",2,1,"1",1,"NULL","0","1","0","0","0","0","0","NULL","NULL","NULL","NULL","4509","0.72000002861022",0.10000000149011,16.4400005340576,"75.1399993896484","1.71000003814697","9.65999984741211","91.3099975585937","22.3700008392334",4500,"6000",16.9
"5094","Houston","TX","77092",-95.4516,29.7974,"College of Health Care Professions-Northwest",6403,2374,4643,22914.51,"NULL","24013","NULL","NULL","17000","NULL","20307",2,1,"1",3,"NULL","0","0","0","0","0","0","0","1","1","NULL","NULL","810","0.80000001192092",0.25999999046325,52.5400009155273,"24.7800006866455","5.13999986648559","33.3400001525878","79","13.3199996948242",7938,"9500",25.8
"1703","Lewiston","ME","04240",-70.2033,44.1053,"Bates College",41018,21446,10374,118325.02,"59285","NULL","45650","45650","NULL","NULL","24936",3,3,"3",2,"NULL","0","0","0","0","0","0","0","0.2417","0.2417","NULL","NULL","1791","0.44999998807907",0,87.1900024414062,"5.94000005722045","2.82999992370605","4.30000019073486","90.6900024414062","5.80000019073486",16425,"17058",1.4
"1274","Canton","IL","61520-8622",-90.0722,40.5279,"Spoon River College",3483,3991,5781,31131.97,"14977","NULL","3750","9120","NULL","9940","NULL",2,2,"2",1,"NULL","0","0","0","0","0","0","0","NULL","NULL","NULL","NULL","1207","0.60000002384185",0.20000000298023,90.0800018310547,"6.71999979019165","1.12999999523162","2.66000008583068","96.8099975585937","8.51000022888183",4718.5,"PrivacySuppressed",18.2
"547","Alameda","CA","94501",-122.2675,37.7812,"Argosy University-San Francisco Bay Area",17856,8696,5718,49787.34,"27325","NULL","NULL","NULL","NULL","NULL","23000",4,3,"3",3,"NULL","0","0","0","0","0","0","0","NULL","NULL","NULL","NULL","168","0.81000000238418",0.25,75.0100021362304,"9.25","5.90000009536743","12.4799995422363","86.5100021362304","7.1100001335144",9500,"14323",19.4
"6350","Brecksville","OH","44141",-81.6432,41.2888,"Stautzenberger College-Brecksville",11184,4122,3687,NA,"23041","NULL","10494","10494","NULL","NULL","20098",2,2,"1",3,"NULL","0","0","0","0","0","0","0","NULL","NULL","NULL","NULL","317","NULL",NA,NA,"NULL","NULL","NULL","NULL","NULL",14250,"20000",12.7
"4787","Selden","NY","11784-2899",-73.0562,40.849,"Suffolk County Community College",3918,6446,8912,49832.76,"10819","NULL","4850","8990","NULL","7044","NULL",2,2,"2",1,"NULL","0","0","0","0","0","0","0","NULL","NULL","NULL","NULL","22701","0.58999997377395",0.09000000357627,81.6699981689453,"8.4399995803833","2.29999995231628","13.1899995803833","86.0199966430664","4.71999979019165",5000,"8000",10.1
"531","Claremont","CA","91711-6101",-117.7059,34.1034,"Pitzer College",44463,24408,10084,89206.81,"59266","NULL","45018","45018","NULL","NULL","25807",3,3,"3",2,"NULL","0","0","0","0","0","0","0","0.1451","0.1451","NULL","NULL","1081","0.61000001430511",0.02999999932944,62.8499984741211,"8.60999965667724","9.60999965667724","27.8400001525878","74.7200012207031","9.64999961853027",14824,"15088",3.1
"1420","Des Moines","IA","50311-4505",-93.6541,41.6038,"Drake University",18444,9273,9108,97812.93,"42477","NULL","30889","30889","NULL","NULL","26045",4,3,"3",2,"NULL","0","0","0","0","0","0","0","0.6595","0.6595","680","29","3310","0.60000002384185",0.02999999932944,90.25,"3.70000004768371","2.5","4.07000017166137","93.8399963378906","4.71000003814697",21500,"25000",2.9
"3744","Sumter","SC","29150-3599",-80.3463,33.9387,"Morris College",10596,8876,5074,28435.62,"20419","NULL","11087","11087","NULL","NULL","13214",3,3,"3",2,"54","1","0","0","0","0","0","0","NULL","NULL","NULL","NULL","822","0.62000000476837",0.05000000074505,48.6800003051757,"47.5299987792968","0.94999998807907","3.03999996185302","95.8399963378906","15.4200000762939",13200,"30175",32.1
"116","Phoenix","AZ","85027",-112.1213,33.6844,"Universal Technical Institute of Arizona Inc-Motorcycle Mechanics Institute Division",11054,3371,NA,53860.48,"NULL","23695","NULL","NULL","28900","NULL","19523",1,1,"1",3,"NULL","0","0","0","0","0","0","0","NULL","NULL","NULL","NULL","2049","0.02999999932944",0.12999999523162,81.5800018310547,"7.42999982833862","2.57999992370605","12.7399997711181","89.120002746582","7.98000001907348",16035,"18481",19.5
"4088","Seguin","TX","78155-5999",-97.9846,29.5733,"Texas Lutheran University",12423,7862,6626,81310.81,"35480","NULL","25890","25890","NULL","NULL","17949",4,3,"3",2,"22","0","0","0","0","0","0","0","0.5087","0.5087","580","25","1295","0.47999998927116",0.02999999932944,76.3199996948242,"7.88000011444091","2.26999998092651","28.7800006866455","89.9199981689453","8.36999988555908",17750,"27305",9.7
"514","Costa Mesa","CA","92626",-117.9114,33.6702,"Orange Coast College",995,3597,9617,24129.65,"16053","NULL","1184","6320","NULL","9798","NULL",2,2,"2",1,"NULL","0","0","0","0","0","0","0","NULL","NULL","NULL","NULL","20521","0.50999999046325",0.07999999821186,58.7799987792968,"2.01999998092651","17.8199996948242","32.0099983215332","65.120002746582","9.1899995803833",5000,"5400",13.4
"417","San Diego","CA","92108-4423",-117.1554,32.7783,"The Art Institute of California-Argosy University San Diego",10708,3397,5638,58579.26,"30521","NULL","18748","18748","NULL","NULL","24859",3,3,"3",3,"NULL","0","0","0","0","0","0","0","NULL","NULL","NULL","NULL","1869","0.44999998807907",0.09000000357627,67.2200012207031,"5.96999979019165","8.13000011444091","26.5900001525878","78.9199981689453","9.23999977111816",9500,"14323",19.4
"7220","Sugar Grove","NC","28679-9657",-81.7849,36.2632,"Jung Tao School of Classical Chinese Medicine",8425,2685,NA,NA,"NULL","NULL","NULL","NULL","NULL","NULL","NULL",4,4,"NULL",2,"NULL","0","0","0","0","0","0","0","NULL","NULL","NULL","NULL","NULL","NULL",NA,NA,"NULL","NULL","NULL","NULL","NULL",NA,"NULL",0
"6884","Torrance","CA","90505",-118.3502,33.8086,"Homestead Schools",19406,7041,NA,NA,"NULL","17729","NULL","NULL","28500","NULL","14305",1,1,"1",2,"NULL","0","0","0","0","0","0","0","NULL","NULL","NULL","NULL","166","NULL",NA,NA,"NULL","NULL","NULL","NULL","NULL",17072,"17072",6.8
"6293","Fort Pierce","FL","34946",-80.3545,27.4844,"Aviator College of Aeronautical Science and Technology",61621,28894,1804,NA,"74473","NULL","64900","64900","NULL","NULL","72265",2,1,"1",3,"NULL","0","0","0","0","0","0","0","0.7","0.7","NULL","NULL","126","NULL",NA,NA,"NULL","NULL","NULL","NULL","NULL",NA,"PrivacySuppressed",5.8
"2808","Loudonville","NY","12211-1462",-73.7515,42.7186,"Siena College",16661,10545,8320,100650.73,"45452","NULL","31368","31368","NULL","NULL","27070",4,3,"3",2,"30","0","0","0","0","0","0","0","0.6805","0.6805","620","27","3102","0.56000000238418",0.01999999955296,88.7099990844726,"5.19999980926513","2.51999998092651","4.90000009536743","91.1999969482422","5.75",23000,"26974",2.2
"4418","Eau Claire","WI","54701-7633",-91.4617,44.7834,"The Salon Professional Academy-Eau Claire",5087,3050,NA,47903.45,"NULL","14589","NULL","NULL","11900","NULL","11054",1,1,"1",3,"NULL","0","0","0","0","0","0","0","NULL","NULL","NULL","NULL","77","0.97000002861022",0.15000000596046,95.6699981689453,"0.4699999988079","1.07000005245208","0.85000002384185","98.1399993896484","5.84999990463256",7000,"8000",26.7
"5425","Honolulu","HI","96813-3800",-157.8633,21.3085,"University of Phoenix-Hawaii Campus",12779,2121,2742,47023.93,"24021","NULL","11215","11215","NULL","NULL","19707",4,3,"3",3,"NULL","0","0","0","0","0","0","0","NULL","NULL","NULL","NULL","1281","0.6700000166893",0.44999998807907,69.4700012207031,"15.369999885559","4.13999986648559","16.2299995422363","86.6999969482422","9.60000038146972",18532,"35500",19
"5121","Blue Island","IL","60406-2130",-87.6799,41.6577,"Cannella School of Hair Design-Blue Island",8742,8952,NA,13777.51,"NULL","10734","NULL","NULL","12340","NULL","5333",1,1,"1",3,"NULL","0","0","0","0","0","0","0","NULL","NULL","NULL","NULL","52","0.99000000953674",0.10999999940395,28.579999923706,"65.2399978637695","0.51999998092651","8","93.9899978637695","13.3000001907348",3500,"3500",20.8
"1831","Worcester","MA","01610-1477",-71.8235,42.2511,"Clark University",16720,10780,9630,88024.49,"47248","NULL","39550","39550","NULL","NULL","23415",4,3,"3",2,"NULL","0","0","0","0","0","0","0","0.6154","0.6154","NULL","NULL","2312","0.64999997615814",0.05000000074505,85.620002746582,"5.07000017166137","3.86999988555908","6.34000015258789","87.6299972534179","6.48999977111816",23000,"26000",3.6
"7240","Walterboro","SC","29488-4216",-80.6386,32.8954,"Cosmetic Arts Institute",19566,13343,NA,NA,"NULL","23961","NULL","NULL","16400","NULL","20471",1,1,"1",3,"NULL","0","0","0","0","0","0","0","NULL","NULL","NULL","NULL","34","NULL",NA,NA,"NULL","NULL","NULL","NULL","NULL",13416.5,"16500",20
"1843","Fall River","MA","02720-3445",-71.1579,41.6988,"Rob Roy Academy-Fall River",8076,5185,NA,25235.02,"NULL","16879","NULL","NULL","12500","NULL","12307",1,1,"1",3,"NULL","0","0","0","0","0","0","0","NULL","NULL","NULL","NULL","105","0.56999999284744",0.11999999731779,89.2200012207031,"2.92000007629394","1.79999995231628","4.67999982833862","82.5599975585937","11.3000001907348",7116.5,"8582",24
"1255","Rockford","IL","61114-5699",-88.9946,42.3095,"Rock Valley College",1711,5108,7188,29501.14,"9736","NULL","2924","14534","NULL","4920","NULL",2,2,"2",1,"NULL","0","0","0","0","0","0","0","NULL","NULL","NULL","NULL","7395","0.6700000166893",0.15999999642372,81.6100006103515,"11.0299997329711","1.55999994277954","7.73999977111816","93.1600036621093","7.78999996185302",3512.5,"6875",19.7
"5339","Memphis","TN","38125",-89.8287,35.021,"Tennessee Academy of Cosmetology-Shelby Drive",7147,2437,NA,24433.72,"NULL","14539","NULL","NULL","14595","NULL","9643",1,1,"1",3,"NULL","0","0","0","0","0","0","0","NULL","NULL","NULL","NULL","125","0.93999999761581",0.2199999988079,40.7299995422363,"55.1899986267089","1.39999997615814","2.80999994277954","95.9300003051757","12.9200000762939",6407,"13000",11.8
"5439","Sandersville","GA","31082",-82.8396,32.9967,"Oconee Fall Line Technical College",1057,6363,4350,15472.08,"8764","NULL","2518","4558","NULL","2303","NULL",2,1,"1",1,"NULL","0","1","0","0","0","0","0","NULL","NULL","NULL","NULL","1483","0.81000000238418",0.2199999988079,43.1199989318847,"55.5800018310547","0.2199999988079","0.93000000715255","99.0699996948242","20.329999923706",3903,"5118",0
"4093","Lubbock","TX","79409-5005",-101.8769,33.5803,"Texas Tech University",8919,6813,8757,82825.99,"20900","NULL","7517","16013","NULL","15403","NULL",4,3,"3",1,"NULL","0","0","0","0","0","0","0","0.663","0.663","620","27","26809","0.47999998927116",0.05000000074505,79.7099990844726,"6.09999990463257","2.49000000953674","21.4099998474121","90.8899993896484","8.60000038146972",17750,"23246.5",7.6
